{"type": "FeatureCollection", "_meta": {"topic": "french-revolution", "year": 1789, "units_source": "french-revolution_units.geojson", "method": "本地图使用的是现代国家的行政边界，而非1789年至1799年间的实际边界。", "units_total": 53, "units_matched": 13, "units_missing": [], "control_sha1": "b5b83af927c3cc6f", "gazetteer_sha1": "184526c815acb04f", "built_from": {"control": "french-revolution_control.json", "units": "french-revolution_units.geojson"}}, "features": [{"type": "Feature", "properties": {"id": "法国", "name": "法国", "color": "#4a6fa5", "owner": "法国", "units": ["Auvergne-Rhône-Alpes", "Bourgogne-Franche-Comté", "Bretagne", "Centre-Val de Loire", "Corse", "Grand Est", "Hauts-de-France", "Normandie", "Nouvelle-Aquitaine", "Occitanie", "Pays de la Loire", "Provence-Alpes-Côte d'Azur", "Île-de-France"], "label_lon": 2.55, "label_lat": 46.557}, "geometry": {"type": "MultiPolygon", "coordinates": [[[[-4.176538972988892, 47.84058410755294], [-4.18442544375943, 47.84506145823232], [-4.181447390614223, 47.84741689388474], [-4.176538972988892, 47.84058410755294]]], [[[-4.183504619124675, 47.8490745465333], [-4.186542828277858, 47.85041073299467], [-4.183665272993341, 47.85066609112006], [-4.183504619124675, 47.8490745465333]]], [[[-4.178065903009361, 47.85058232551917], [-4.193170353853307, 47.86440173555743], [-4.181924190463763, 47.86738433038673], [-4.178065903009361, 47.85058232551917]]], [[[-4.838168030577734, 48.03037670041937], [-4.840521229663941, 48.031696278868466], [-4.835808936484134, 48.03215936947644], [-4.838168030577734, 48.03037670041937]]], [[[-4.849570330909991, 48.031746019144634], [-4.850337044919675, 48.03274920677942], [-4.844323339171193, 48.03242157218144], [-4.849570330909991, 48.031746019144634]]], [[[-4.85578980085259, 48.03274963688632], [-4.866619803367638, 48.04419511962762], [-4.848678266510957, 48.0354312527429], [-4.85578980085259, 48.03274963688632]]], [[[-4.338308715956109, 48.10039151460216], [-4.336644329769948, 48.102723153954436], [-4.335668381105862, 48.0999652693797], [-4.338308715956109, 48.10039151460216]]], [[[-4.435445749011467, 48.2238148383684], [-4.439256137943374, 48.22467782799728], [-4.434431835696896, 48.227924131414824], [-4.435445749011467, 48.2238148383684]]], [[[-4.277828171244371, 48.28187045892642], [-4.280083361178471, 48.28518206529907], [-4.276892402865736, 48.283315170158154], [-4.277828171244371, 48.28187045892642]]], [[[-4.534705607072874, 48.30319734955761], [-4.538970178546137, 48.302205492471465], [-4.537713551703313, 48.30428597583763], [-4.534705607072874, 48.30319734955761]]], [[[-4.529318138037213, 48.30459782739581], [-4.532117657623518, 48.30357226747214], [-4.52895996411988, 48.30700407942621], [-4.529318138037213, 48.30459782739581]]], [[[-4.462627084592022, 48.32281427666801], [-4.463295626139535, 48.324304764632885], [-4.461583306750934, 48.324242199462695], [-4.462627084592022, 48.32281427666801]]], [[[-4.85755399310129, 48.341568774737304], [-4.848120466474136, 48.35701361451352], [-4.841979023132723, 48.355489448547154], [-4.85755399310129, 48.341568774737304]]], [[[-4.936934411305392, 48.3712193398028], [-4.935773676161857, 48.375422483941946], [-4.932605003191564, 48.37401763827177], [-4.936934411305392, 48.3712193398028]]], [[[-4.90502281470201, 48.37208349902557], [-4.897751687830714, 48.37603205907565], [-4.893023267633084, 48.37333713361439], [-4.90502281470201, 48.37208349902557]]], [[[-4.883291775127931, 48.37432424822358], [-4.88781559136666, 48.37479624086828], [-4.88715369367329, 48.37730705076876], [-4.883291775127931, 48.37432424822358]]], [[[-4.937895113416243, 48.378533404483804], [-4.939515781850295, 48.37847060711443], [-4.938812254146026, 48.37997371765384], [-4.937895113416243, 48.378533404483804]]], [[[-4.898049429063024, 48.37850411610284], [-4.899935528631446, 48.383625952948584], [-4.896006570520024, 48.38063894036021], [-4.898049429063024, 48.37850411610284]]], [[[-4.962768152462059, 48.391227251787875], [-4.956293968634846, 48.40248362284348], [-4.953756801551334, 48.393274656512965], [-4.962768152462059, 48.391227251787875]]], [[[-4.949880987629706, 48.39795089737931], [-4.948992645305442, 48.40267562278796], [-4.94541332576023, 48.40129863358303], [-4.949880987629706, 48.39795089737931]]], [[[-4.986287278813219, 48.41396866769704], [-4.982592905454976, 48.42065657888099], [-4.979986435877098, 48.415782234869226], [-4.986287278813219, 48.41396866769704]]], [[[-4.977784548204382, 48.417227562753034], [-4.978776220750145, 48.41802149309021], [-4.975917826960317, 48.41861767470223], [-4.977784548204382, 48.417227562753034]]], [[[-5.010081521878323, 48.426643838600675], [-5.012766567589042, 48.43104124573584], [-5.011066798676113, 48.43127306937818], [-5.010081521878323, 48.426643838600675]]], [[[-5.1027853638723, 48.436188718765884], [-5.095617967801158, 48.45582984197515], [-5.141276573546228, 48.4491761535355], [-5.074442191460225, 48.483265011076185], [-5.034348185398184, 48.4629456942024], [-5.1027853638723, 48.436188718765884]]], [[[-5.096308755578452, 48.47779480256374], [-5.10166223556141, 48.483080697650344], [-5.08945721834941, 48.479983396569644], [-5.096308755578452, 48.47779480256374]]], [[[-5.072695577518155, 48.48341489613759], [-5.073406162419797, 48.48464333752539], [-5.071612439725264, 48.48417966791276], [-5.072695577518155, 48.48341489613759]]], [[[-4.776591979232296, 48.483726450947735], [-4.778693825086838, 48.485827544446686], [-4.777367204683606, 48.48697506706027], [-4.776591979232296, 48.483726450947735]]], [[[-4.775846011054222, 48.526936271641226], [-4.773831812887383, 48.530944559511155], [-4.772955066283965, 48.52828842259891], [-4.775846011054222, 48.526936271641226]]], [[[-4.691230564129517, 48.575620034983885], [-4.694267291961475, 48.57483922128959], [-4.692342385218739, 48.57630714935672], [-4.691230564129517, 48.575620034983885]]], [[[-4.664372201607487, 48.57871414093246], [-4.665710221284974, 48.57950616969516], [-4.664378500043792, 48.580511369196245], [-4.664372201607487, 48.57871414093246]]], [[[-4.67209846446868, 48.5835028123131], [-4.670312116615829, 48.583165518468114], [-4.671038703410494, 48.58231597120415], [-4.67209846446868, 48.5835028123131]]], [[[-4.615826366103204, 48.586940287282154], [-4.614849874543429, 48.58568984325866], [-4.616881633632349, 48.58474245441716], [-4.615826366103204, 48.586940287282154]]], [[[-4.636692067422335, 48.60227778046426], [-4.633258736311215, 48.600091085820516], [-4.634032325147282, 48.598849294870604], [-4.636692067422335, 48.60227778046426]]], [[[-4.621233070253401, 48.599607748706944], [-4.623796594727815, 48.60108607872286], [-4.622732931004276, 48.60193883346077], [-4.621233070253401, 48.599607748706944]]], [[[-4.586253888379847, 48.60550956258392], [-4.587751360998221, 48.60669978873234], [-4.584836987362982, 48.60656162728583], [-4.586253888379847, 48.60550956258392]]], [[[-4.57193208785595, 48.60483808491807], [-4.575096417981932, 48.61039074842414], [-4.569347937794041, 48.607690398206934], [-4.57193208785595, 48.60483808491807]]], [[[-4.574549380284314, 48.6149792194901], [-4.576348995180723, 48.61472070609484], [-4.574639984453499, 48.618777853534006], [-4.574549380284314, 48.6149792194901]]], [[[-4.570565344970339, 48.62085859528359], [-4.573081647184197, 48.621216828866224], [-4.571453460359882, 48.62257403226161], [-4.570565344970339, 48.62085859528359]]], [[[-4.593307462423801, 48.622282766398314], [-4.595482805241706, 48.62568153600758], [-4.591979149679458, 48.625660697602825], [-4.593307462423801, 48.622282766398314]]], [[[-4.555942597045984, 48.62751093407625], [-4.554986212714961, 48.63166703480048], [-4.551032532012683, 48.62838710795427], [-4.555942597045984, 48.62751093407625]]], [[[-4.572007057330141, 48.63344488572539], [-4.574233634312691, 48.63533430802596], [-4.571935544076198, 48.635047090296204], [-4.572007057330141, 48.63344488572539]]], [[[-4.568579369205625, 48.63739992515527], [-4.56962722961508, 48.64040281230306], [-4.56644767539691, 48.63942614793813], [-4.568579369205625, 48.63739992515527]]], [[[-4.404425007657967, 48.63891184207931], [-4.406574763963449, 48.639305450753646], [-4.402988034610874, 48.64032315751772], [-4.404425007657967, 48.63891184207931]]], [[[-4.435984569192765, 48.656126060253264], [-4.437509205038287, 48.65671909921774], [-4.436769960660992, 48.65838259434681], [-4.435984569192765, 48.656126060253264]]], [[[-3.514965986091033, 47.647472610222124], [-3.435715253230384, 47.64460861977114], [-3.418053324910657, 47.62555551656436], [-3.4632892843288, 47.620317232868295], [-3.514965986091033, 47.647472610222124]]], [[[-3.295641835025049, 47.699734622678704], [-3.298711681309513, 47.70082047658941], [-3.294046645461513, 47.700688372833525], [-3.295641835025049, 47.699734622678704]]], [[[-3.315128231346725, 47.70232174228222], [-3.312873269754725, 47.70514173592391], [-3.312516612131062, 47.70254246720111], [-3.315128231346725, 47.70232174228222]]], [[[-3.99934708034966, 47.70154278710465], [-3.99264177862194, 47.7083387939513], [-3.990945920164927, 47.70211156234256], [-3.99934708034966, 47.70154278710465]]], [[[-4.013012928435493, 47.70872734079152], [-4.0147533359165, 47.70928508154154], [-4.01334956453243, 47.70990892961249], [-4.013012928435493, 47.70872734079152]]], [[[-3.966630521634667, 47.71167201447243], [-3.968405852475436, 47.71329636534972], [-3.96499064090589, 47.712837930952126], [-3.966630521634667, 47.71167201447243]]], [[[-4.011181171599342, 47.715667902067736], [-4.011311364919033, 47.718887810250685], [-4.006967903824614, 47.71741824914253], [-4.011181171599342, 47.715667902067736]]], [[[-3.950864458804559, 47.72016593491256], [-3.954482894248577, 47.72204212377553], [-3.955238778988408, 47.724625538636055], [-3.950864458804559, 47.72016593491256]]], [[[-3.99578765192462, 47.7231889188932], [-4.009336010302582, 47.723170329874954], [-4.00058172961445, 47.725923125384824], [-3.99578765192462, 47.7231889188932]]], [[[-3.357737290421698, 47.72455003429795], [-3.359991952441192, 47.72497265812298], [-3.356950300431159, 47.727537498825136], [-3.357737290421698, 47.72455003429795]]], [[[-4.027104623631434, 47.7743157715843], [-4.031065143501575, 47.775374165057215], [-4.028499932333471, 47.776198089032434], [-4.027104623631434, 47.7743157715843]]], [[[-3.799041343590948, 47.783434788756956], [-3.802948408803416, 47.78397800380197], [-3.799833008202555, 47.7852099320761], [-3.799041343590948, 47.783434788756956]]], [[[-3.912945557133754, 47.871217540222275], [-3.91648783710898, 47.871732857117784], [-3.911628591907523, 47.87290794692083], [-3.912945557133754, 47.871217540222275]]], [[[-3.8651910131908, 48.67553540735796], [-3.866377619204942, 48.677051448859956], [-3.863104221039038, 48.6763366118937], [-3.8651910131908, 48.67553540735796]]], [[[-3.926700178081638, 48.680831019244835], [-3.922618985466667, 48.697934270416326], [-3.922625795229246, 48.67989533026754], [-3.926700178081638, 48.680831019244835]]], [[[-3.892630327004006, 48.69031597610871], [-3.89433787425958, 48.69076057029257], [-3.892861880397008, 48.691366163247054], [-3.892630327004006, 48.69031597610871]]], [[[-4.06943949043625, 48.70572934301858], [-4.06447787992738, 48.70670131993544], [-4.05989247049189, 48.70304792732027], [-4.06943949043625, 48.70572934301858]]], [[[-3.962919448746443, 48.715301115169005], [-3.964810079648272, 48.71427580961131], [-3.964902867501038, 48.71842120363271], [-3.962919448746443, 48.715301115169005]]], [[[-3.970442235804536, 48.7351155320702], [-3.971858774927971, 48.73553101328082], [-3.969787574843667, 48.73708883905144], [-3.970442235804536, 48.7351155320702]]], [[[-4.022605744460113, 48.73878184539972], [-4.00672875265249, 48.75304309893935], [-3.988828679577233, 48.739353344879206], [-4.022605744460113, 48.73878184539972]]], [[[-3.597579600852634, 48.771062852662446], [-3.591130818222796, 48.766564939098956], [-3.599291925300685, 48.767249581755266], [-3.597579600852634, 48.771062852662446]]], [[[-3.610665649913896, 48.7979283584435], [-3.605169170004777, 48.79453349453887], [-3.608752303739818, 48.793995599372046], [-3.610665649913896, 48.7979283584435]]], [[[-3.59949657836377, 48.796735665560135], [-3.593435425370816, 48.80150319883245], [-3.59051171250684, 48.79608730640985], [-3.59949657836377, 48.796735665560135]]], [[[-3.583516579623145, 48.794060422898006], [-3.567498316492974, 48.80813898957127], [-3.562350994061385, 48.80328270097035], [-3.583516579623145, 48.794060422898006]]], [[[-3.55527621516692, 48.80101128964929], [-3.555872577192161, 48.804422343583404], [-3.554092394974574, 48.80243728345603], [-3.55527621516692, 48.80101128964929]]], [[[-3.547742795848804, 48.804948367702536], [-3.54829334045693, 48.80632688660295], [-3.546263121876681, 48.8063381616308], [-3.547742795848804, 48.804948367702536]]], [[[-3.530749714553012, 48.82592593001544], [-3.533091006355479, 48.825860928835574], [-3.532536054546361, 48.826785623074706], [-3.530749714553012, 48.82592593001544]]], [[[-3.53140483200604, 48.83090396653617], [-3.532833880517185, 48.83174711931357], [-3.530611746367344, 48.83204472235978], [-3.53140483200604, 48.83090396653617]]], [[[-3.491861693338506, 48.83496753507723], [-3.493669612888623, 48.83593760339106], [-3.492206573076225, 48.83663533371375], [-3.491861693338506, 48.83496753507723]]], [[[-3.408618532342777, 48.83781600823378], [-3.408587551524219, 48.843011333801755], [-3.406622157848149, 48.830408767835785], [-3.408618532342777, 48.83781600823378]]], [[[-3.29171903242861, 48.83765628864896], [-3.295329494113215, 48.838680290849645], [-3.293593137924288, 48.839669539681545], [-3.29171903242861, 48.83765628864896]]], [[[-3.271363437889037, 48.83876896953994], [-3.273941439183558, 48.83898715566829], [-3.27273836019675, 48.840786175152765], [-3.271363437889037, 48.83876896953994]]], [[[-3.319904800353802, 48.840643196431216], [-3.324135891351656, 48.841683129625686], [-3.322812390498332, 48.84314176024138], [-3.319904800353802, 48.840643196431216]]], [[[-3.29298950155662, 48.84361599476762], [-3.298020421748614, 48.84551867183375], [-3.296258825184406, 48.846628365297356], [-3.29298950155662, 48.84361599476762]]], [[[-3.319147702764351, 48.844750483609786], [-3.322402564976573, 48.845010313542694], [-3.319310780561451, 48.84594631191965], [-3.319147702764351, 48.844750483609786]]], [[[-3.30371195814391, 48.84878558869127], [-3.301330328628591, 48.84678663250899], [-3.307886498382852, 48.843260128948366], [-3.310822089544643, 48.846657880838265], [-3.309466611446783, 48.848904744904154], [-3.307994199568352, 48.849298319716084], [-3.306920502906817, 48.84931624797235], [-3.30371195814391, 48.84878558869127]], [[-3.3058174549201, 48.8453154970182], [-3.308150180241322, 48.84915294344842], [-3.310410026018041, 48.846551548504266], [-3.3058174549201, 48.8453154970182]]], [[[-3.275736860231839, 48.84482822396185], [-3.292707703752841, 48.85142037119533], [-3.278799038331038, 48.84939373038223], [-3.275736860231839, 48.84482822396185]]], [[[-3.295256256905434, 48.84793348015884], [-3.298076945637231, 48.84893140674119], [-3.296490918358217, 48.84950495197634], [-3.295256256905434, 48.84793348015884]]], [[[-3.300739558416067, 48.84921044280789], [-3.303711691013277, 48.85048624964122], [-3.302637063935772, 48.85245924904384], [-3.300739558416067, 48.84921044280789]]], [[[-3.491315430062271, 48.87739955085825], [-3.490455573655874, 48.880175884211035], [-3.488004134281859, 48.87876424173534], [-3.491315430062271, 48.87739955085825]]], [[[-3.475012792210702, 48.88173853883492], [-3.485931189660536, 48.88185274855477], [-3.482094008002004, 48.88458757429439], [-3.475012792210702, 48.88173853883492]]], [[[-3.494956251014013, 48.88294149645987], [-3.501751303206992, 48.882716228889265], [-3.500689986938385, 48.88367093042474], [-3.494956251014013, 48.88294149645987]]], [[[-3.461337925498805, 48.89124136391564], [-3.465972676410031, 48.890439316671454], [-3.464011674615624, 48.89259367972351], [-3.461337925498805, 48.89124136391564]]], [[[-3.438563572808973, 48.897340419474546], [-3.437422081845052, 48.900972251660725], [-3.435246954010291, 48.89977567975333], [-3.438563572808973, 48.897340419474546]]], [[[-3.19526205773221, 47.29178533865019], [-3.197380192958513, 47.292909160181644], [-3.194366048049775, 47.29322030128105], [-3.19526205773221, 47.29178533865019]]], [[[-3.244369957544983, 47.30868216504812], [-3.249060903920889, 47.38766266054181], [-3.055861528122245, 47.30820505816445], [-3.093022724411825, 47.27791563492867], [-3.244369957544983, 47.30868216504812]]], [[[-2.882181897134692, 47.32947794323759], [-2.864009240523944, 47.34909016691232], [-2.860806555014031, 47.3411601886893], [-2.882181897134692, 47.32947794323759]]], [[[-2.969785782471941, 47.355351719490315], [-2.970756931113797, 47.3581401235274], [-2.968802264502624, 47.35739842324234], [-2.969785782471941, 47.355351719490315]]], [[[-2.947936379260482, 47.373600852593434], [-2.949189655342669, 47.374187493501225], [-2.948344456903704, 47.374989157655804], [-2.947936379260482, 47.373600852593434]]], [[[-3.251411069362696, 47.38682537226771], [-3.252812178181852, 47.39011097108541], [-3.248660223436701, 47.38885456909135], [-3.251411069362696, 47.38682537226771]]], [[[-2.950216055700134, 47.375136033674366], [-2.991332612600484, 47.40256155708188], [-2.937838236469268, 47.392885562740766], [-2.950216055700134, 47.375136033674366]]], [[[-2.997312199569246, 47.39298548227563], [-2.999213649840599, 47.39442288607691], [-2.995389924651489, 47.39480283644244], [-2.997312199569246, 47.39298548227563]]], [[[-3.01358715670519, 47.411659526448226], [-3.017398572871779, 47.41134919108219], [-3.015892085441228, 47.41249980739921], [-3.01358715670519, 47.411659526448226]]], [[[-2.949143573765936, 47.528119822975675], [-2.945385989787842, 47.52965960918094], [-2.945942023777751, 47.52811826500797], [-2.949143573765936, 47.528119822975675]]], [[[-3.165230572823565, 47.55760996809184], [-3.16308243393056, 47.555191124791776], [-3.165333668240771, 47.55475138842854], [-3.165230572823565, 47.55760996809184]]], [[[-2.886548968643871, 47.56703333648591], [-2.88986259680673, 47.56653271719753], [-2.887248756900838, 47.57188754568367], [-2.886548968643871, 47.56703333648591]]], [[[-2.909816465945671, 47.567584355465186], [-2.90892543977752, 47.577335809455015], [-2.908077492585875, 47.56693602480024], [-2.909816465945671, 47.567584355465186]]], [[[-2.921297403161119, 47.5721869653004], [-2.923974889716658, 47.57455660672586], [-2.922713157220726, 47.575398872720875], [-2.921297403161119, 47.5721869653004]]], [[[-2.895821491572559, 47.57256593729923], [-2.900910671445543, 47.572088854353794], [-2.897134225426005, 47.57726091732877], [-2.895821491572559, 47.57256593729923]]], [[[-2.91407963576679, 47.577669970712776], [-2.914528607838326, 47.57938478647554], [-2.91241071298742, 47.57810222015056], [-2.91407963576679, 47.577669970712776]]], [[[-2.928988351659465, 47.577501461146184], [-2.92844595769101, 47.581142448780135], [-2.92642322415457, 47.57818714684959], [-2.928988351659465, 47.577501461146184]]], [[[-2.884960741610641, 47.578543654723354], [-2.889658733919958, 47.58251518417115], [-2.884654627406318, 47.582454870097656], [-2.884960741610641, 47.578543654723354]]], [[[-2.936476611490089, 47.58222737129218], [-2.93783696976879, 47.58247487340704], [-2.937162739265608, 47.58329727443194], [-2.936476611490089, 47.58222737129218]]], [[[-2.929602747018982, 47.58387912855142], [-2.933190873383344, 47.584903296891156], [-2.928031095898787, 47.58565522648487], [-2.929602747018982, 47.58387912855142]]], [[[-3.198088252348361, 47.60792295353548], [-3.199513477755629, 47.60821551433086], [-3.199548835442467, 47.61025236474893], [-3.198088252348361, 47.60792295353548]]], [[[-3.175031757078576, 47.687404512749985], [-3.174737650609917, 47.686448625105776], [-3.176127000162632, 47.68529802227211], [-3.175031757078576, 47.687404512749985]]], [[[-3.186132611865625, 47.68793703555668], [-3.18366892380889, 47.68704468348929], [-3.185375102202502, 47.68624011627848], [-3.186132611865625, 47.68793703555668]]], [[[-3.170197563344682, 47.68887450548622], [-3.171714263154138, 47.68563891453058], [-3.172890402802263, 47.687340842045735], [-3.170197563344682, 47.68887450548622]]], [[[-3.178531831346567, 47.68966956052265], [-3.176000179497076, 47.686612942525734], [-3.179371423489955, 47.68590361297616], [-3.178531831346567, 47.68966956052265]]], [[[-2.480229177531265, 47.44125675792083], [-2.498547485097027, 47.49492644045978], [-2.382200403267065, 47.500699590880615], [-2.520640225494978, 47.52727181055054], [-2.834887141357136, 47.49179303152077], [-2.914433109114323, 47.557160712873596], [-2.730186194489284, 47.54259630166683], [-2.717615982913848, 47.59863649372531], [-2.779570565961748, 47.622195782494266], [-2.733953925257038, 47.61291348863208], [-2.745017119166597, 47.63218299541473], [-2.860101552424022, 47.62301610414746], [-2.862444679668223, 47.59692696341881], [-2.918619354607791, 47.58231102850682], [-2.97685010989353, 47.65975660130367], [-2.928420787583588, 47.55401118368714], [-2.994919612178363, 47.5910660938306], [-2.9874650507908, 47.56610922707226], [-3.024938992229695, 47.59235025632894], [-3.018379804728191, 47.567039576886245], [-3.042872142293752, 47.58782934332171], [-3.096110362883503, 47.563571012735956], [-3.129105830358896, 47.5980147263599], [-3.126713339133468, 47.51348016980834], [-3.079434233252184, 47.46900781280295], [-3.130549184455373, 47.47318827799917], [-3.162377972632145, 47.529822918609796], [-3.139950699516694, 47.5798200852554], [-3.210442295643966, 47.64367890622187], [-3.151238534974466, 47.692699292115414], [-3.216070476236718, 47.695763151122264], [-3.213951717632061, 47.643928029881174], [-3.360605133769635, 47.68610420485355], [-3.281012650776488, 47.686329651560044], [-3.289645834261189, 47.70835579626491], [-3.363090596329666, 47.708842588437186], [-3.284923672223532, 47.76937130105668], [-3.276092168080452, 47.79848963622567], [-3.333262502999698, 47.74316614477111], [-3.364864876774967, 47.76086786698015], [-3.380500163749467, 47.705027055810426], [-3.453043738929644, 47.69536029652289], [-3.530117699293156, 47.765775947710644], [-3.523204451143062, 47.79784310159479], [-3.539472484548422, 47.76263821855873], [-3.64536473474913, 47.77401331835866], [-3.638172353549346, 47.79289016858166], [-3.677568982672348, 47.77550963369873], [-3.723125980098205, 47.8028083483189], [-3.6511680540559, 47.82172645107321], [-3.698565724920496, 47.83187304702152], [-3.732580885302069, 47.80306189497551], [-3.747463068925664, 47.853233210660754], [-3.742368296423646, 47.797003055167586], [-3.855441724761444, 47.790111869864226], [-3.843915671142983, 47.80558611670364], [-3.901820038714986, 47.83439391914487], [-3.886655315458113, 47.849252905561556], [-3.919147934211777, 47.855896248181494], [-3.905590641115721, 47.87710567743063], [-3.945955181057944, 47.9051391582326], [-3.992030992636816, 47.896699265104765], [-3.975975941127442, 47.85418198296814], [-4.098642660766176, 47.86238168025887], [-4.139545878067134, 47.92556769328065], [-4.068560650569064, 47.932912057234574], [-4.109695876072642, 47.94252637810308], [-4.095754263353697, 47.96967449698384], [-4.115608154189697, 47.983899343526744], [-4.111566298623943, 47.93605060424226], [-4.141028310949902, 47.926361112628285], [-4.145696478596149, 47.8973031413028], [-4.176428004141862, 47.90715456323467], [-4.113127494356482, 47.86226117473817], [-4.168993905435267, 47.83927640979305], [-4.167748789047196, 47.87504202097116], [-4.222232836114792, 47.86806398136784], [-4.182933657606555, 47.8355879474655], [-4.159107090721809, 47.831428654994646], [-4.173544688126254, 47.80676934183639], [-4.374821278169417, 47.7973859520549], [-4.346232616357611, 47.83976180530895], [-4.362449631137115, 47.88952010807425], [-4.451001130353466, 47.98108076767886], [-4.535374337962848, 48.02472742517306], [-4.566094623754735, 47.99967663321409], [-4.741084681097268, 48.04037027801246], [-4.416045904725399, 48.106819243267104], [-4.296680759606068, 48.091973891814064], [-4.267833150437927, 48.13053976617298], [-4.316345341427231, 48.203851259087266], [-4.431242692134851, 48.23708980485494], [-4.488221197735001, 48.2363065320027], [-4.55403340535783, 48.16780613736361], [-4.5734841546011, 48.235794522748], [-4.544073091594733, 48.24921560464968], [-4.622535266273986, 48.25259667980571], [-4.630550063325795, 48.27994016554217], [-4.570417288269721, 48.281966930777834], [-4.578487150572079, 48.32491109153764], [-4.532247443117639, 48.34171430206833], [-4.556482104654864, 48.30028986583559], [-4.535854405854329, 48.284096243327745], [-4.506244331218431, 48.31089234553976], [-4.503735744300943, 48.281151190635036], [-4.288461299658943, 48.29884013415232], [-4.264287625780118, 48.29247518181989], [-4.289249182739121, 48.281327950659296], [-4.270573799340209, 48.258143540067806], [-4.2069958357746, 48.239583932968195], [-4.27993625859482, 48.27896007691702], [-4.180950031473524, 48.296473735755576], [-4.28202017548055, 48.312612322973074], [-4.24203719739907, 48.32868433831647], [-4.336670579894967, 48.314805172190745], [-4.261239369735527, 48.36076259292623], [-4.458850762240374, 48.3269281831487], [-4.269858069938492, 48.445192779266684], [-4.614518982073951, 48.33731231559395], [-4.691025087958896, 48.354730186254706], [-4.774144069885928, 48.33076559518195], [-4.766033727968537, 48.36363338049006], [-4.789574296796164, 48.362377006849556], [-4.761112131485055, 48.378745224314684], [-4.795258400126448, 48.41302596665735], [-4.771532450891383, 48.463266116535436], [-4.716700967706791, 48.468698809256054], [-4.763581355629833, 48.472067532563514], [-4.777953302789435, 48.516548891422445], [-4.704867756742163, 48.57009197414404], [-4.505072032049061, 48.5458699172224], [-4.61234287199984, 48.578246740606126], [-4.598108004937309, 48.60840588320625], [-4.5152112037451, 48.58663940898506], [-4.56856026860766, 48.60925967614673], [-4.542157167494254, 48.637282424110005], [-4.398581510077299, 48.63621411223777], [-4.398213411399134, 48.638232768511045], [-4.404919981666043, 48.64184252846986], [-4.432958314055121, 48.64749290150073], [-4.437604238181478, 48.65287153955932], [-4.346947132645939, 48.678350879990596], [-4.296342482452165, 48.66479628714927], [-4.318810459859748, 48.64653035943214], [-4.296740798713285, 48.632600383122224], [-4.129863075918023, 48.696979535091984], [-4.056128554540317, 48.66927559294056], [-4.053416846279998, 48.706199815749045], [-3.969566898964365, 48.72752162370479], [-3.956083803817235, 48.64646997727585], [-3.89084727906135, 48.671126215388746], [-3.849367510434824, 48.6035443564738], [-3.864659800998743, 48.671032738070366], [-3.846212499669325, 48.66085824621943], [-3.821247954095945, 48.71879593326773], [-3.643640336510597, 48.69674457854174], [-3.659578359989729, 48.656144299530055], [-3.623426208496822, 48.68663280342556], [-3.572576844691207, 48.67547697172893], [-3.582932279351098, 48.72560761805576], [-3.465013294963796, 48.73147832659938], [-3.58490355528436, 48.75759054490392], [-3.584480520076735, 48.79041792037226], [-3.534982558472275, 48.801838965604745], [-3.504712716944583, 48.84038061604305], [-3.502812028201331, 48.8240325527152], [-3.428067892309176, 48.821544172726405], [-3.430432870638903, 48.797162488114765], [-3.263763461092323, 48.83442527805471], [-3.224334031434841, 48.86982138283278], [-3.203371707170269, 48.82450728750421], [-3.251936154726102, 48.788810276344606], [-3.221603806160433, 48.78470296176925], [-3.250079885549196, 48.75109756438001], [-3.199105366232903, 48.764351732841654], [-3.22361090282233, 48.79636709192483], [-3.182510913695433, 48.843551551613444], [-3.0723369024213, 48.88374138767975], [-3.101684044637497, 48.86681412374368], [-3.076243560546057, 48.85625611997078], [-3.100013445869791, 48.830889111531434], [-3.071847574728511, 48.83075835772065], [-3.148416577125004, 48.747328541601114], [-3.151296419029212, 48.73472033826071], [-3.130588107780213, 48.72184882859072], [-3.140541935828077, 48.71074922073999], [-3.084562041189099, 48.71719690311698], [-3.148867937797651, 48.73553404857358], [-3.083671181895138, 48.81277611357278], [-3.012582245015948, 48.821153298435576], [-3.004933144869833, 48.79913539528627], [-3.045701378434345, 48.784779049104245], [-2.92838604658283, 48.75457909545249], [-2.945339586452238, 48.7208082148771], [-2.817140992580979, 48.649639864783566], [-2.821351605719741, 48.59429838753118], [-2.713481836334497, 48.55562132654163], [-2.738445288409752, 48.52739888119299], [-2.672310597550846, 48.486004914653755], [-2.682209982697304, 48.53227743914754], [-2.62253985600977, 48.520343037948635], [-2.554200467436384, 48.599488239523865], [-2.473743022112231, 48.6221323949804], [-2.467842744197406, 48.63572675363797], [-2.488091351623144, 48.6454311662415], [-2.415810872384742, 48.63216280093593], [-2.318123082110051, 48.68854195860185], [-2.283762243846661, 48.6688191669316], [-2.337685134264174, 48.61978808961123], [-2.243065917000969, 48.64476370654371], [-2.210037521124003, 48.5865039184332], [-2.225926201353671, 48.57063031594492], [-2.226113827260674, 48.538015651098796], [-2.19610442621938, 48.610443975397374], [-2.16581069029955, 48.577013848304624], [-2.150327602257353, 48.61827676663358], [-2.123348884522911, 48.60507271918281], [-2.150491550755109, 48.63506575999687], [-2.047393457418557, 48.638977725973966], [-1.9735528835447, 48.54486803467107], [-2.000754466166523, 48.49109922606568], [-1.940627808765031, 48.535660694124836], [-1.969849675148672, 48.53567157750328], [-1.987195071600798, 48.58458325103667], [-1.953750357463109, 48.5784153810348], [-1.962133968432011, 48.59332659592759], [-2.012460498762392, 48.59828980098938], [-2.029227233977237, 48.65100887497431], [-1.936914305670109, 48.70274217677518], [-1.843628644732008, 48.71260673925246], [-1.872117914793554, 48.64651029998246], [-1.822425062907252, 48.610159353363485], [-1.345269195114333, 48.632895143285054], [-1.399694431724372, 48.6555364792427], [-1.372930560626724, 48.69289497302948], [-1.446590850700751, 48.65415006637374], [-1.570399306272387, 48.743665090562864], [-1.574205438660022, 48.82138410039603], [-1.614412505791162, 48.83406339624919], [-1.582434433257063, 48.85298231128067], [-1.564994002959236, 48.92175831615595], [-1.552861411920812, 48.936689320435946], [-1.56268762840142, 48.91390503626274], [-1.548461386286635, 48.89337203541298], [-1.557173834079486, 49.0263141388837], [-1.504857458574161, 49.02031430551723], [-1.560100062468203, 49.0383179099532], [-1.57815545646335, 48.998835314715365], [-1.609790458236617, 49.07204108868436], [-1.61377547117537, 49.218316712006086], [-1.566713254521333, 49.22105995822894], [-1.616423543328924, 49.24013700656116], [-1.62842182659302, 49.211559641683145], [-1.707564772399863, 49.31738114416721], [-1.686978879965048, 49.33051044800305], [-1.809181384110917, 49.37252913074914], [-1.84977015043703, 49.50725228163727], [-1.889192680081809, 49.53410950463183], [-1.841600923531664, 49.57272164072288], [-1.847288338910838, 49.624531223185194], [-1.947059819611349, 49.67510922974023], [-1.948506009032808, 49.71626284066006], [-1.852673105700748, 49.71823179196692], [-1.620100268182781, 49.63922881770024], [-1.487821559481209, 49.66816988766635], [-1.472916396861595, 49.69723400288593], [-1.26534573180432, 49.696971161924715], [-1.228931974513625, 49.605803923022314], [-1.29632225860044, 49.583273346236815], [-1.307274082507274, 49.54105853969364], [-1.162199214024765, 49.39138367903443], [-1.1839122703082, 49.34590006781771], [-1.245459372555157, 49.32578630103815], [-1.234378802451206, 49.302400902541095], [-1.212932356704662, 49.33105523558583], [-1.187097822825298, 49.34052641727716], [-1.17087692569867, 49.357197740329916], [-1.118035375877732, 49.34494861432609], [-1.139528814458324, 49.30868941362036], [-1.099560893923494, 49.319777251641966], [-1.119526655098232, 49.35943630729789], [-1.078533353305327, 49.388183125655885], [-0.967537639819583, 49.39688075458008], [-0.755251428470137, 49.348619194152484], [-0.396216917839533, 49.333250731171], [-0.246866553334094, 49.292332379445625], [-0.227163848475974, 49.27621292583194], [-0.24929436612993, 49.260034639573014], [-0.219475619618524, 49.27085279904221], [-0.229166127180104, 49.28613165184039], [-0.089773961270666, 49.29810979154931], [-0.111269571904703, 49.28577312641069], [0.130603114632654, 49.403428429183634], [0.337211457322016, 49.43395774548259], [0.114355368925128, 49.457637829235416], [0.178482701856171, 49.45586827390209], [0.108399982683514, 49.4673439696482], [0.089488409717357, 49.48442066769566], [0.175481532602842, 49.47138316908536], [0.066316899726837, 49.51017445209119], [0.153389232141735, 49.64503136901884], [0.117722508822451, 49.66389013343006], [0.156747345853085, 49.66195227211107], [0.205820800313173, 49.71466103886874], [0.580580746904495, 49.85186676341297], [1.085368782381806, 49.92726353779367], [1.453601524788892, 50.10910215582037], [1.51885086256502, 50.205782214936896], [1.683793928232033, 50.18302609834176], [1.538720114033048, 50.27621001464317], [1.555649817797041, 50.363328551745916], [1.646470306506007, 50.348365125969295], [1.555715721495791, 50.399506685148474], [1.586175442483637, 50.539409696539636], [1.644424758333676, 50.50920221898628], [1.576430261390331, 50.57237562999527], [1.562773214849673, 50.72531674710002], [1.601472955731263, 50.723614782207875], [1.606921645243145, 50.77061607765146], [1.58202234042543, 50.87118909905301], [1.854189307785789, 50.981365713087825], [2.110456259185404, 51.00575784556287], [2.16332543438478, 51.044113983023564], [2.375233795479113, 51.041981505923594], [2.545506839235904, 51.088989440783664], [2.574046121420865, 51.0032485909626], [2.632925929000945, 50.94618440509663], [2.590271287823557, 50.91910059929403], [2.5990432350118, 50.8489356715351], [2.635069418287399, 50.81290919566436], [2.724109711000569, 50.8105829004301], [2.790119429515627, 50.72575731765032], [2.906094187985402, 50.69248876160947], [2.951262988242902, 50.75194880298097], [3.150372217074036, 50.79010176231088], [3.205490517052479, 50.711805100592905], [3.261111484371572, 50.7013392362535], [3.240078354516226, 50.65860941773785], [3.288508143805904, 50.52581825760952], [3.376531474794496, 50.49109255218239], [3.47446039189263, 50.533680124368004], [3.520004486396882, 50.523620318075345], [3.500712154076126, 50.486685854418944], [3.607555320861727, 50.497212529971016], [3.662806219895906, 50.45601804123425], [3.657284786209031, 50.36858840128654], [3.709624177947304, 50.30331893803139], [3.747150704852574, 50.350988142201615], [3.900683936906017, 50.32694903605498], [4.024197591000225, 50.359180601119135], [4.118187407264103, 50.30315360832361], [4.135513476994221, 50.25740532143856], [4.16764116636984, 50.259507966328535], [4.162595372550648, 50.2889556064924], [4.208255731706763, 50.27301545367901], [4.220032287946041, 50.251619350481974], [4.150377567413135, 50.21356941497979], [4.127048505123502, 50.135579172500925], [4.199472270427598, 50.13416853750894], [4.231265637213395, 50.07138249931946], [4.135355304925615, 50.01512681560322], [4.161917698734682, 50.00030565951253], [4.144944762763441, 49.97603040953685], [4.445604785326957, 49.93717269731311], [4.692994065416887, 49.995498929726665], [4.6797093981207, 50.06795425123919], [4.825279673666872, 50.169128032813994], [4.897106457371723, 50.13799804121308], [4.81965162357211, 50.06606576276318], [4.841693826409256, 50.03877243055841], [4.79024607466257, 49.968985121381934], [4.890199407117323, 49.908953619844745], [4.847450007840905, 49.86796702644286], [4.876267625497718, 49.81983896136322], [4.851677685921516, 49.79348098712382], [4.994146894481795, 49.80084723078303], [5.093880634808886, 49.763828264437954], [5.164291816747478, 49.69340246978767], [5.269403428828585, 49.69616287431057], [5.332198726071336, 49.65436447338209], [5.312133731697212, 49.61165005095132], [5.352243834642753, 49.63104947376603], [5.428431349239967, 49.59607384901596], [5.465016139029711, 49.49886444319465], [5.556699360456112, 49.52921743364237], [5.611028459005525, 49.5059876987822], [5.64261928985955, 49.55040505754661], [5.746412771729604, 49.53952455312268], [5.774441394597255, 49.56320401026877], [5.866262494797382, 49.499912757841045], [5.943153363647831, 49.50023177720529], [5.980312910468709, 49.45186915973056], [6.041773478540464, 49.44785887447832], [6.240650729567697, 49.514937078902975], [6.334025135067012, 49.466939344508866], [6.428142132749914, 49.47697149455272], [6.54117972668609, 49.43287192504731], [6.540697371686524, 49.40109690459068], [6.60232241531424, 49.367082049119006], [6.566158683872794, 49.34722014326691], [6.670272442896213, 49.280228298449366], [6.738650362420839, 49.16363344958287], [6.834168476600268, 49.15126155143837], [6.861868070270508, 49.179072574789465], [6.838024821061492, 49.21345733300272], [6.938213374325753, 49.2224203719225], [7.034984206292611, 49.19138874149669], [7.052546080126423, 49.1128070004209], [7.101473928231747, 49.15597933800673], [7.158737696344362, 49.120523414025726], [7.293555410597476, 49.114960554569016], [7.36267586257514, 49.14324078022139], [7.365422479167994, 49.17209113264706], [7.445841277908515, 49.18429203017748], [7.432491694737791, 49.1658783078762], [7.494111765212536, 49.169604534124105], [7.52882879870274, 49.097060416294894], [7.631454192753084, 49.05488753191523], [7.794366896620152, 49.065780903961716], [7.866754444908907, 49.032982774525465], [7.933964392460037, 49.05786341761185], [8.087763131295265, 48.989779324320544], [8.232496511358603, 48.96641830742273], [8.142540386663336, 48.8973580453639], [8.090644726925175, 48.804958911126], [7.972067870304938, 48.75795360289729], [7.800823180255133, 48.58542882728152], [7.8049381955579, 48.513116844991885], [7.732990565470702, 48.3970183458576], [7.74427446673765, 48.32676825445673], [7.693157814231012, 48.30114199956259], [7.56932506398605, 48.08178583030706], [7.568999798650184, 48.0346559836843], [7.621822990131299, 47.97228997616315], [7.556637987964707, 47.877885621120136], [7.529845723637542, 47.780101087290454], [7.547864355952037, 47.73078145419499], [7.511756854212251, 47.69766618169833], [7.592875192834911, 47.597484017327325], [7.499180205209465, 47.54011774060044], [7.531231025326879, 47.52816399441642], [7.497877781714997, 47.52125228776716], [7.511072972992998, 47.49703175739958], [7.433145750049732, 47.49717241475389], [7.42082095769303, 47.48037147849337], [7.455829248490759, 47.47070523851178], [7.385586059767578, 47.43186254495666], [7.170203580544528, 47.44298309313607], [7.201292586895685, 47.49413181968512], [7.13025733192307, 47.502946799022276], [7.143362828977243, 47.52459142205578], [7.112525326734039, 47.495108736806756], [6.982968505970289, 47.49455176710075], [7.002182484412259, 47.45416312202581], [6.940302981815963, 47.43332305027109], [6.879293126307231, 47.35257556364757], [7.015567597353821, 47.372920033340584], [7.056961288836153, 47.33440283664852], [6.941017218050333, 47.28668973364667], [6.955666529240068, 47.243102955040555], [6.702728367333639, 47.082138958319206], [6.719170637342068, 47.05118310914712], [6.432689024464739, 46.92868261073122], [6.464618387729253, 46.89035620657164], [6.431040640812181, 46.812357447829605], [6.452257503417162, 46.774216442667544], [6.110472921940944, 46.57643872907223], [6.156662038634406, 46.545297910040375], [6.02323337890645, 46.390038322899805], [6.060147193152211, 46.417911198398095], [6.159328271527759, 46.37966739455956], [6.102388312388397, 46.284940112243454], [6.120785965571583, 46.24801506004937], [5.973356819848998, 46.21371577646724], [5.994912193370388, 46.18183927276201], [5.956846583124526, 46.128756518266755], [6.136440933114237, 46.141589612745015], [6.294679198765339, 46.22515355351233], [6.309755238326942, 46.25622507427832], [6.266785660597842, 46.24769295733433], [6.23756514362821, 46.27766351924626], [6.302076802926348, 46.36593075894224], [6.389911708298328, 46.34036221515064], [6.513044705862239, 46.40491542448287], [6.805301495105555, 46.3941425894424], [6.772087743071823, 46.35026955164634], [6.864955997882824, 46.28113373850952], [6.803546748777904, 46.20460960995068], [6.797988077423286, 46.136360535294045], [6.89993501799661, 46.123879994909935], [6.871726873024114, 46.051150517862176], [6.937207632041312, 46.06440284626381], [7.044472096689702, 45.92248289104383], [6.942600756767438, 45.84788888286256], [6.818076109648369, 45.83590925125544], [6.808592213633633, 45.72511511089255], [6.914927749110908, 45.65173425525587], [7.001155448296643, 45.63986071177734], [6.977988103615727, 45.59043145735955], [6.999857847941162, 45.50486957507658], [7.185564599205883, 45.40325836762831], [7.109974165553782, 45.32678496086277], [7.130008585978532, 45.24806608367715], [7.076478718491861, 45.21057216018633], [6.965879997353407, 45.20820520430396], [6.947247269321791, 45.17042570605237], [6.891661369670864, 45.167148418498265], [6.893854104820661, 45.136983234772764], [6.768023629864273, 45.15978944142887], [6.6210984262458785, 45.111629311266796], [6.673300182388552, 45.01962690912738], [6.744487459400943, 45.014833381379304], [6.750760712576767, 44.905847891056425], [6.863478328892946, 44.85056018275035], [6.9313732157735, 44.863678436497906], [7.024146132615694, 44.82303504830622], [6.999576873754227, 44.78971945880515], [7.077111095857423, 44.6810364201915], [6.962834489871926, 44.6780820409899], [6.968298643543853, 44.619586624942876], [6.853506607083858, 44.52786932133927], [6.948192071837191, 44.42970012737012], [6.892827378751075, 44.42087951092276], [6.887427465725824, 44.36128675584911], [6.995834191569327, 44.280214251500965], [7.008447279568528, 44.23520722910805], [7.188397026569137, 44.200874246007544], [7.28049090535807, 44.14088682092156], [7.344571688208737, 44.14531038736932], [7.357702658147499, 44.11620094711309], [7.677867299054046, 44.177128531174475], [7.666353249803072, 44.13075209155344], [7.718983685520389, 44.082450089170514], [7.662736222105355, 44.029024175283695], [7.652736159838532, 43.97398110116489], [7.569322048870034, 43.94739142209279], [7.561155022455252, 43.89877768597628], [7.49770236035828, 43.87156457086177], [7.529944191170748, 43.78420471387548], [7.355706305285335, 43.721046444958496], [7.33192578536376, 43.67483836055221], [7.314556147132356, 43.706719491883504], [7.240240493543765, 43.68748042911171], [7.212630367387574, 43.64774900545011], [7.155278787177325, 43.65274643285286], [7.121595953339936, 43.58684965463287], [7.138456366476187, 43.545861274484544], [7.097216304116338, 43.5709922983722], [7.037770049850909, 43.53499856805232], [6.959794380794302, 43.54067456960361], [6.922952817849943, 43.45081002982285], [6.855295545375639, 43.411660195322625], [6.74165926457165, 43.427410007092796], [6.716617954734972, 43.34670578614249], [6.680384764627147, 43.340601056238654], [6.671353889628726, 43.31276478238077], [6.633833314729887, 43.30701253010147], [6.587827860009969, 43.27156415579146], [6.582863690691143, 43.27562352566189], [6.578339692949736, 43.27477219314237], [6.580142668178964, 43.271199693094616], [6.577424341365507, 43.27447924953351], [6.575319342984163, 43.27340446138487], [6.574284027647626, 43.27121547457887], [6.574402358828992, 43.26706130539977], [6.603232062630446, 43.26247508314839], [6.645834919640914, 43.27395270570384], [6.664050472157697, 43.26482453126873], [6.678221739352556, 43.27905094096539], [6.697715371088196, 43.26659185610072], [6.646805809075283, 43.167587899222795], [6.561766212882802, 43.18908549488698], [6.49389770366956, 43.15046369914454], [6.38644523422129, 43.14497965502459], [6.364502753969349, 43.08646912826581], [6.201169565734321, 43.11606118293792], [6.154651951056075, 43.0805241216368], [6.155709270187551, 43.02609439053378], [6.095519865773989, 43.028749628834966], [6.132028385614302, 43.048596392838725], [6.114033272727149, 43.08375614275097], [6.021573953872091, 43.07849771992823], [5.914107994353393, 43.12492540469102], [5.880458131002521, 43.10797533291397], [5.91059356103933, 43.100564438715985], [5.894583974911441, 43.081850649338996], [5.950877677947069, 43.07200810003571], [5.829240733218912, 43.04931635102337], [5.793444322762827, 43.06992714390827], [5.80953739300196, 43.11404862528466], [5.69517301097518, 43.143597561598185], [5.686336591611292, 43.17988696592669], [5.623648693271128, 43.186808334758545], [5.604675214299568, 43.16025476706402], [5.537137031526403, 43.21477050676754], [5.337097514986686, 43.21360191945055], [5.3757539054133, 43.25778759302729], [5.345691958941701, 43.28248033483148], [5.374000134650226, 43.29434637778032], [5.351135457503273, 43.33478623898732], [5.314202057540432, 43.36027940175492], [5.293872422476072, 43.35976375648645], [5.229170915307741, 43.328718694392585], [5.041525235988072, 43.32740975592715], [4.997110087620467, 43.402384512011146], [5.137100261629362, 43.39950389790991], [5.229935391518477, 43.46527661614906], [5.205440070339333, 43.49216784625653], [5.14164946267809, 43.459311622635184], [5.114222921874437, 43.522812672127976], [5.045774765419313, 43.521349321968216], [5.021323909855938, 43.5564215273994], [5.000162073111167, 43.47490906851159], [5.051712330467457, 43.46388742462216], [5.059398622571792, 43.406714516336486], [5.053988043465138, 43.40743014773738], [5.039345216285435, 43.402671761445596], [4.992198165039782, 43.40506948085518], [4.988672683651695, 43.402273434268075], [4.986782236957406, 43.40639738744124], [4.982431075139361, 43.396250454818585], [4.931434265148777, 43.433172409120544], [4.893324333878169, 43.404447929446306], [4.905657684831617, 43.43008233528479], [4.850055741670119, 43.45095578537262], [4.876557689962064, 43.410635908528796], [4.828193822840039, 43.42986413191596], [4.860981006475554, 43.400285130222386], [4.807568149138564, 43.38379469947126], [4.871720042118682, 43.39028677806078], [4.828580750380431, 43.375640864405135], [4.851116172701802, 43.37697921365622], [4.858188185655787, 43.367406744844665], [4.866684301418622, 43.369314911503814], [4.877458490316843, 43.356099398652916], [4.882944503847397, 43.35517798957612], [4.917785454781572, 43.382168887432435], [4.862218247370273, 43.33346706536322], [4.835436940864754, 43.32872385437966], [4.583634535202902, 43.3623158417294], [4.551515406018135, 43.385408170663396], [4.587833546223802, 43.423158061112986], [4.532447681779892, 43.452420991534], [4.230213234693135, 43.46048585707824], [4.129402945714067, 43.48706657056828], [4.110013469778754, 43.50902275432852], [4.138091105727778, 43.51025338474163], [4.116357418684819, 43.51077704522737], [4.13826545079657, 43.51356282586561], [4.138907370849021, 43.54002493950849], [4.101766714432638, 43.554629938352754], [3.974958950174177, 43.54671427381461], [3.644496481463911, 43.38454153122314], [3.506316444399765, 43.26783096861087], [3.510516799568609, 43.284966875896146], [3.388779944852628, 43.284595339700736], [3.178679434860939, 43.1732899534932], [3.049469722995157, 42.980084421533626], [3.024456636595346, 42.70384576627506], [3.04262331450905, 42.7026613493761], [3.028795124217358, 42.609914040371095], [3.047777146148558, 42.54043574957105], [3.14125877646242, 42.51578822473479], [3.127578816490593, 42.487959337645435], [3.174709035619892, 42.43498372605566], [3.085866895273289, 42.42556077095071], [3.040442294222381, 42.47421711621189], [2.947030253800628, 42.48212829838194], [2.839087460365905, 42.45941182644545], [2.800843957178349, 42.418461122125805], [2.673880796413233, 42.40472206183781], [2.651397366374091, 42.38658870208644], [2.670319035605346, 42.340511331466054], [2.570768020248123, 42.358237577874746], [2.526225893574311, 42.33345752124272], [2.432501044230262, 42.39357608966739], [2.256773586920226, 42.4387364857309], [2.148873807192, 42.4209401178353], [2.084668448173296, 42.36176194930022], [2.016062473837968, 42.34709272510357], [1.965347572830642, 42.38093547866939], [1.936989054699924, 42.453694386384825], [1.730101351967614, 42.492389269341984], [1.734947138223351, 42.549963322008054], [1.786708888143086, 42.574151541894736], [1.726818659799155, 42.5888608900537], [1.735780160259278, 42.61565982866413], [1.54924820607625, 42.6558796937345], [1.478940352194589, 42.651653198288344], [1.476724726239062, 42.61309949104964], [1.43793451890316, 42.60284900658805], [1.357377685172708, 42.71969901708565], [1.166040240296567, 42.708938196464544], [1.078870168654783, 42.78832634214602], [0.926270793592827, 42.78935573195397], [0.7090864852033, 42.861416078388835], [0.659304546342878, 42.83870941485192], [0.644822707897237, 42.78298371521161], [0.667222361186471, 42.7751122237161], [0.639279193446122, 42.75486469451099], [0.676678556197248, 42.690753924299884], [0.422171967545005, 42.690487966458335], [0.360205773353969, 42.7241752398211], [0.295201732122158, 42.67322514406685], [0.260004446490352, 42.71631443271021], [0.175789580887765, 42.7370723287909], [-0.016246571934295, 42.68507464239244], [-0.106467432846301, 42.72099239940283], [-0.160246198335302, 42.79801642595795], [-0.313252392017203, 42.849402544386], [-0.327176135408518, 42.91650237388985], [-0.32442406970443, 42.83464486896218], [-0.441814823261541, 42.795359131980774], [-0.505669811721723, 42.827287731237526], [-0.552082107442839, 42.7778945808563], [-0.731972158370182, 42.89610961558996], [-0.752868462809921, 42.96789984103949], [-0.945045118408201, 42.95340605839913], [-1.11496093201587, 43.02396112687676], [-1.141911041141226, 43.00759461115931], [-1.309831215426158, 43.06918477912308], [-1.27015689858948, 43.11831638594382], [-1.344838070312394, 43.094443234150695], [-1.353893041501254, 43.02829745621735], [-1.441248125860446, 43.04627244194506], [-1.473213591860995, 43.0867295390169], [-1.414767892776785, 43.127532027075546], [-1.382543607051482, 43.253101462695305], [-1.535321462866498, 43.29466657434493], [-1.608780024817633, 43.25189874186367], [-1.624114406427422, 43.3060662642124], [-1.730158393973971, 43.29576726191929], [-1.792127124035473, 43.36978758928445], [-1.667592907419834, 43.38788413138623], [-1.597126696671487, 43.43182450609263], [-1.447056601732544, 43.64236269434502], [-1.323891469746992, 44.08933852294138], [-1.256059727556721, 44.53460020302325], [-1.210937456488731, 44.59965786959283], [-1.194857951682664, 44.658674967774296], [-1.143700006691897, 44.66043876842126], [-1.143815942274156, 44.63798589359428], [-1.140190253455846, 44.64828359483155], [-1.119338638130473, 44.639469992738064], [-1.039315136935609, 44.653763524705916], [-1.035934873195897, 44.64894256496263], [-1.017055171705318, 44.639986850839534], [-0.997657979231433, 44.648378524115564], [-1.162344419885297, 44.780890705216095], [-1.260137214474365, 44.63069312889164], [-1.152347489115669, 45.48402813385728], [-1.092011913365901, 45.565782977865766], [-0.988469289761186, 45.58339871769126], [-1.200866808327032, 45.69520499012606], [-1.230608391023235, 45.69004940911583], [-1.191887275010006, 45.67604288185954], [-1.227560589187252, 45.67506187460916], [-1.230631833976313, 45.67949321471875], [-1.242517350821996, 45.78138971660586], [-1.135102174778697, 45.801163149257064], [-1.169572428600466, 45.85500716207004], [-1.105529136654659, 45.86704301832984], [-1.073061764417712, 45.917615175236676], [-1.100949099185893, 45.94545968779455], [-1.069513673649056, 45.94956180860709], [-1.121409281394595, 46.002470175905685], [-1.052884310318159, 46.01228017731095], [-1.101028830847886, 46.09431877935001], [-1.14288381793226, 46.10656581724043], [-1.127228967093042, 46.12603029953233], [-1.174219661404877, 46.13850648861197], [-1.150821463862246, 46.15790883995381], [-1.240837543078101, 46.16301070609041], [-1.106657230899515, 46.26211332260208], [-1.1099189719468985, 46.316240395398786], [-1.202777794220069, 46.316069966051295], [-1.20760911700631, 46.266910852758926], [-1.331658296216616, 46.34932241965749], [-1.265581858327856, 46.28220307134475], [-1.357774330740311, 46.34797191262569], [-1.467233088447461, 46.3428008046427], [-1.512895934787747, 46.40336520138991], [-1.648187241676271, 46.41979739080735], [-1.802995896485466, 46.488708662568115], [-1.856314599383446, 46.60888377932588], [-1.954290909048857, 46.690984439636985], [-1.934332394486587, 46.69609384847394], [-2.143328089949711, 46.82188898519002], [-2.156349640765872, 46.889017511448564], [-2.114758949702518, 46.89934856049513], [-2.033508409181154, 46.968988643719165], [-2.029163812386908, 47.00973551657855], [-1.97554249396153, 47.02883893146626], [-2.09880371232207, 47.11530859748935], [-2.247116139587785, 47.13210210173655], [-2.169716598493779, 47.16385150123149], [-2.170447437912104, 47.26871259198986], [-2.298441546563713, 47.233237770034386], [-2.37380562862008, 47.27834299578468], [-2.423893537070289, 47.28370054885432], [-2.432043881763975, 47.25805823820237], [-2.547542971384185, 47.292343588126464], [-2.470048719737779, 47.28407171533601], [-2.559629261101078, 47.37409511065239], [-2.432735341008626, 47.413868027753416], [-2.4517797879319447, 47.459171456305796], [-2.480229177531265, 47.44125675792083]], [[-0.281197344564217, 42.934292171435445], [-0.28180390861074617, 42.94098366747572], [-0.327176135408518, 42.91650237388985], [-0.281197344564217, 42.934292171435445]], [[-1.0213567263773922, 48.001835508949775], [-1.015612896689944, 48.00339702916417], [-1.10201671368742, 48.26266654942089], [-1.0213567263773922, 48.001835508949775]], [[-2.081692861114905, 47.65004142913106], [-2.08229618701752, 47.64593747121759], [-1.973641708821607, 47.694443485065115], [-2.081692861114905, 47.65004142913106]], [[-2.423109759856178, 47.47722509165261], [-2.4466089061652028, 47.462427581957], [-2.317212414078638, 47.46123328593335], [-2.423109759856178, 47.47722509165261]], [[-1.427999293475819, 48.46173541345437], [-1.4229147952569843, 48.46161673739012], [-1.489922091533116, 48.48931633691018], [-1.427999293475819, 48.46173541345437]], [[-1.369775963845458, 48.46037643655824], [-1.3549574637526633, 48.47085812796754], [-1.412964988876378, 48.46138450132465], [-1.369775963845458, 48.46037643655824]], [[-1.083594402904047, 48.43367116543291], [-1.0638866243493672, 48.50247888475015], [-1.0709410943244373, 48.50402843734566], [-1.083594402904047, 48.43367116543291]], [[4.707632273974887, 44.20267737795859], [4.7144787933130425, 44.13821859078455], [4.722470686762946, 44.18731900143227], [4.707632273974887, 44.20267737795859]], [[4.718804420998239, 44.09749355948282], [4.720467216698682, 44.08183862755684], [4.745688078802412, 44.08507836499837], [4.718804420998239, 44.09749355948282]], [[4.7752128022717235, 44.071443494824024], [4.8133006894853345, 44.03094788329635], [4.787208141927575, 44.06590390360399], [4.7752128022717235, 44.071443494824024]], [[4.841049794540372, 43.99377258342671], [4.642076441900599, 43.86752544306712], [4.844382556469001, 43.98930770342985], [4.841049794540372, 43.99377258342671]], [[4.313895948539036, 43.555618205892785], [4.307833436335364, 43.54541864901152], [4.32469091189772, 43.528239444190106], [4.313895948539036, 43.555618205892785]], [[4.115745174150733, 49.632920815796595], [4.025217550677357, 49.62257696775054], [4.02633681554923, 49.62145107299065], [4.115745174150733, 49.632920815796595]], [[3.487032212715447, 48.81511641453405], [3.405257752705052, 48.810246587488464], [3.4068437207283333, 48.809216391436976], [3.487032212715447, 48.81511641453405]], [[3.4135570530749355, 48.80485561721312], [3.4397446266500786, 48.787844974817375], [3.443565445278884, 48.79093581156766], [3.4135570530749355, 48.80485561721312]], [[3.4230879184705554, 48.77437059385832], [3.395984541538108, 48.75858342947777], [3.4016172876695148, 48.75700200843758], [3.4230879184705554, 48.77437059385832]], [[3.42738844170016, 48.35808860850038], [3.38366526926314, 48.47959411167858], [3.395378457109523, 48.388584343241], [3.42738844170016, 48.35808860850038]], [[5.2563319981073535, 47.57850474683354], [5.256225133497778, 47.57655261097346], [5.3224601014238, 47.61240953999319], [5.2563319981073535, 47.57850474683354]], [[6.593029370352374, 45.11883141785718], [6.576402141468075, 45.123097720050666], [6.5421995826969415, 45.112780615106544], [6.593029370352374, 45.11883141785718]], [[6.254095827290995, 45.113772808480576], [6.232394609993841, 45.111291566434595], [6.239856813305455, 45.08502326200397], [6.254095827290995, 45.113772808480576]], [[5.678862465787286, 44.146137338006056], [5.613562532872107, 44.17538898199906], [5.631309182941476, 44.150422167511216], [5.678862465787286, 44.146137338006056]], [[5.594161712003845, 44.18407973985861], [5.583784218070965, 44.1887284239309], [5.581396357729994, 44.171737926095226], [5.594161712003845, 44.18407973985861]], [[5.544047523433155, 44.13562828532205], [5.536300140070122, 44.13195188374994], [5.541015036039147, 44.13269641254721], [5.544047523433155, 44.13562828532205]], [[5.479798619845488, 44.123029733786716], [5.446343441949876, 44.1342279725313], [5.454918478037481, 44.11910091283756], [5.479798619845488, 44.123029733786716]], [[4.826882480801677, 44.22850041163931], [4.804579969287194, 44.303829992664795], [4.781450736738717, 44.315877599445294], [4.826882480801677, 44.22850041163931]], [[4.773822799274219, 44.3198508567043], [4.762931694430296, 44.32552383994271], [4.650612479689276, 44.32980492919166], [4.773822799274219, 44.3198508567043]], [[4.650612479689276, 44.32980492919166], [4.640462684712381, 44.274920449555346], [4.674281305158378, 44.21440654878795], [4.6962662550021035, 44.214441681963514], [4.649366350083863, 44.262985040951506], [4.650612479689276, 44.32980492919166]], [[-0.7213998299618158, 48.45896732575983], [-0.759078714178424, 48.436155850444784], [-0.714840010847492, 48.449090666123766], [-0.7213998299618158, 48.45896732575983]], [[-0.6683477766628207, 48.48546005270838], [-0.668800076845318, 48.486547110068116], [-0.6723873459409595, 48.484666186640695], [-0.6683477766628207, 48.48546005270838]], [[0.757689661440873, 48.1798896672768], [0.8026465962231282, 48.19251922260558], [0.830615126996241, 48.210721045772836], [0.757689661440873, 48.1798896672768]], [[0.7732168861152634, 48.323819473054485], [0.769118472485848, 48.3224176060616], [0.755692429653096, 48.29988132061137], [0.7732168861152634, 48.323819473054485]], [[0.91637738045989, 48.37448384318205], [0.9524561962749439, 48.41438873294827], [0.9121677896624207, 48.373390258162345], [0.91637738045989, 48.37448384318205]], [[0.97659052881691, 48.44108245495415], [0.93569321019795, 48.47560206453942], [0.9753608675740482, 48.43972239101531], [0.97659052881691, 48.44108245495415]], [[1.329445183306355, 48.76086645965193], [1.374996481713562, 48.781285739552025], [1.2829939621900717, 48.7671998236245], [1.329445183306355, 48.76086645965193]], [[1.464617312474512, 48.876801218774176], [1.447804700289873, 48.9246064818788], [1.4601276512335855, 48.87492966938617], [1.464617312474512, 48.876801218774176]], [[1.501397406665655, 48.94103403734606], [1.5566020095591504, 48.8827211091516], [1.4953907779364237, 48.96093851362789], [1.447804700289873, 48.9246064818788], [1.501397406665655, 48.94103403734606]], [[2.441775336905275, 48.12476939000777], [2.4574955950842527, 48.124670895917255], [2.516773499152191, 48.16676139524746], [2.441775336905275, 48.12476939000777]], [[2.94122396503633, 48.16196009671149], [2.936623684076953, 48.163455797460756], [2.820926825566628, 48.12972303787382], [2.94122396503633, 48.16196009671149]], [[3.050281543636197, 48.359998576483356], [3.35667438711407, 48.37099297983706], [3.3709603754884707, 48.386561695229275], [3.050281543636197, 48.359998576483356]], [[1.6349987157028363, 45.03013346134996], [1.537311118443311, 45.04665423646346], [1.5312409327058196, 45.044773423807634], [1.6349987157028363, 45.03013346134996]], [[1.7874083582614375, 44.92877123611568], [1.6846173621150744, 44.99713386677691], [1.774613436931778, 44.92353987203382], [1.7874083582614375, 44.92877123611568]], [[2.0650957955949143, 44.97337752029063], [2.0650957955949134, 44.97337752029063], [2.108153632951101, 44.91043018649956], [2.0650957955949143, 44.97337752029063]], [[4.051229393787515, 44.31991669862193], [4.040217591811732, 44.39163686904103], [4.046922070940764, 44.31898906738313], [4.051229393787515, 44.31991669862193]], [[4.290551756545121, 44.31663493009078], [4.25854560868667, 44.26433710325462], [4.31227857792583, 44.32347111674426], [4.290551756545121, 44.31663493009078]], [[4.387291356898071, 44.34707334320274], [4.3827557078434, 44.34564623414757], [4.38747796727507, 44.346252935955754], [4.387291356898071, 44.34707334320274]], [[4.400247932037276, 44.2901115155099], [4.393145892770256, 44.32133466920981], [4.395200394418547, 44.29097757431612], [4.400247932037276, 44.2901115155099]], [[1.989632544338394, 42.49368924929845], [1.959830613049494, 42.453287694503445], [2.014389216210351, 42.4517905314465], [1.989632544338394, 42.49368924929845]], [[-0.7270613043112425, 46.30499072471699], [-0.721915585761268, 46.30243211190728], [-0.7109562505804486, 46.307436928494646], [-0.7270613043112425, 46.30499072471699]], [[-0.607806016515351, 46.454575928363774], [-0.6403972704911041, 46.514848506580265], [-0.646112506914019, 46.51207705295073], [-0.607806016515351, 46.454575928363774]], [[-0.6040142006000561, 46.54665091322156], [-0.601772695623111, 46.54804195771114], [-0.614049685322969, 46.62160837113592], [-0.6040142006000561, 46.54665091322156]], [[-0.035503651403108, 47.086741021494824], [-0.004108605139942203, 47.15855567843098], [-0.012101080036972, 47.15644783154106], [-0.035503651403108, 47.086741021494824]], [[0.053907027919235, 47.163678950409626], [0.056860503988117976, 47.17463499662874], [0.015477175656669822, 47.16372101553503], [0.053907027919235, 47.163678950409626]], [[2.705514747048438, 46.739367795924316], [2.7273969876321176, 46.7373822376714], [2.715125147576918, 46.74517735760754], [2.705514747048438, 46.739367795924316]], [[2.845401834027578, 46.72667467343688], [2.940907937110282, 46.79157611145711], [2.913346030081347, 46.791032922081065], [2.845401834027578, 46.72667467343688]], [[3.039451709484575, 46.78386207240545], [3.0431720297295097, 46.80943471416593], [3.0298971669537957, 46.7951897188174], [3.039451709484575, 46.78386207240545]], [[3.0530004162669613, 46.76360471557253], [3.063730689166844, 46.74756134179975], [3.198075841686713, 46.67973405269972], [3.0530004162669613, 46.76360471557253]], [[5.725178302665053, 46.260686969644496], [5.852895361042216, 46.261419526344504], [5.8569753398758575, 46.26450023594847], [5.725178302665053, 46.260686969644496]], [[2.138909375065102, 44.993442597144885], [2.095198616211745, 45.056044610139615], [2.1300084518301885, 44.991473135285574], [2.138909375065102, 44.993442597144885]], [[2.5233595831599, 45.3814804421524], [2.5229187472896815, 45.389697207375775], [2.5103689543335657, 45.38381829393373], [2.5233595831599, 45.3814804421524]], [[2.522223232887739, 45.40266094044813], [2.487471709412974, 45.41884203009315], [2.522561024117751, 45.396364830219746], [2.522223232887739, 45.40266094044813]], [[3.128677660045099, 47.98245423552766], [3.099474897282144, 48.01996564181868], [3.121730425545263, 47.977978324504406], [3.128677660045099, 47.98245423552766]], [[0.3783856506719, 47.56840755002103], [0.402385803142531, 47.57842081560656], [0.230671335407337, 47.61081715581131], [0.3783856506719, 47.56840755002103]], [[0.596638396332546, 47.67286595857626], [0.602051036874373, 47.67800310019221], [0.450077092467337, 47.61937885556612], [0.596638396332546, 47.67286595857626]], [[0.618638760942994, 47.693746522828214], [0.581237632059369, 47.71357836149454], [0.6109499233872963, 47.686449040743376], [0.618638760942994, 47.693746522828214]], [[0.811786055605482, 47.888503028398574], [0.8119924961964962, 47.893493111695584], [0.759649576607739, 47.89959554593452], [0.811786055605482, 47.888503028398574]], [[1.754858186750837, 49.17459129447087], [1.882953328474857, 49.162576218700906], [1.7396843886059843, 49.19687834442], [1.754858186750837, 49.17459129447087]], [[3.069579134878933, 49.11764728242797], [3.1400793503648954, 49.104539598463916], [3.137123812225457, 49.10764694291109], [3.069579134878933, 49.11764728242797]], [[1.453009416867555, 50.038954959772866], [1.690389210619099, 49.90039958196961], [1.679042870049818, 49.91670577364987], [1.453009416867555, 50.038954959772866]], [[1.688851745420302, 49.695310756289935], [1.7391362430582957, 49.68373707232598], [1.751011115399149, 49.695236553031016], [1.688851745420302, 49.695310756289935]], [[1.7862264878716305, 49.498361511848294], [1.713965503086742, 49.40689071279022], [1.790776215668475, 49.49800882450957], [1.7862264878716305, 49.498361511848294]], [[1.7049520231937871, 49.233541976686716], [1.708683363378414, 49.264699394184014], [1.623408953057119, 49.08600024930382], [1.7049520231937871, 49.233541976686716]], [[1.7168330230365816, 49.23044209167623], [1.7282367424100358, 49.21369247758122], [1.740440872499697, 49.224282541162914], [1.7168330230365816, 49.23044209167623]], [[1.447292137684176, 49.05350326835774], [1.4489490035490922, 49.04800964184377], [1.4595072232046042, 49.05470458562775], [1.447292137684176, 49.05350326835774]]], [[[-2.895058679755116, 48.70145119740262], [-2.896266505712037, 48.70222750689309], [-2.894875197531171, 48.70290250696], [-2.895058679755116, 48.70145119740262]]], [[[-2.948264715468907, 48.77502632616409], [-2.950940944339582, 48.77444272443407], [-2.949871274654841, 48.77562714273227], [-2.948264715468907, 48.77502632616409]]], [[[-2.948640811054318, 48.77830777382378], [-2.952945663197444, 48.77908870150669], [-2.946052885030902, 48.78043192843941], [-2.948640811054318, 48.77830777382378]]], [[[-2.982262176896631, 48.79612991159958], [-2.980340403987121, 48.79975922195863], [-2.975942536098578, 48.79787805912777], [-2.982262176896631, 48.79612991159958]]], [[[-3.019693727911925, 48.83461921941497], [-3.02160895335218, 48.83714282025869], [-3.017829301194864, 48.83634846405896], [-3.019693727911925, 48.83461921941497]]], [[[-2.990967300426531, 48.838207238945245], [-2.992043659309554, 48.842024305863035], [-2.988153129801427, 48.84012250993889], [-2.990967300426531, 48.838207238945245]]], [[[-3.016814944561762, 48.83886011954962], [-3.018827969001549, 48.84519317674962], [-3.015222465478695, 48.84444405491918], [-3.016814944561762, 48.83886011954962]]], [[[-3.011247657210751, 48.83704533291195], [-2.994259034650295, 48.85022165824362], [-2.996206224454177, 48.83851876876151], [-3.011247657210751, 48.83704533291195]]], [[[-2.983404629063928, 48.84532293518606], [-2.987279619421642, 48.84502227392703], [-2.986380279759722, 48.846006264170946], [-2.983404629063928, 48.84532293518606]]], [[[-2.978526175404136, 48.845524897919454], [-2.98253040497547, 48.84691803500402], [-2.980561121640492, 48.84833166961716], [-2.978526175404136, 48.845524897919454]]], [[[-2.987112280047174, 48.846275315583036], [-2.991670715700813, 48.84603494737498], [-2.986837868471879, 48.849079612005156], [-2.987112280047174, 48.846275315583036]]], [[[-3.259346978623469, 48.853303792262324], [-3.25778102777485, 48.85413916944916], [-3.260223416617541, 48.84943269163461], [-3.259346978623469, 48.853303792262324]]], [[[-3.202845657310716, 48.84978853698163], [-3.204810604794649, 48.85389568119428], [-3.201514941918487, 48.852980749570165], [-3.202845657310716, 48.84978853698163]]], [[[-2.99768157410519, 48.85067575102107], [-2.995174258957259, 48.86439807019348], [-2.984590962149861, 48.86205979833029], [-2.99768157410519, 48.85067575102107]]], [[[-2.981193510535284, 48.85857274761478], [-2.983356679437835, 48.859351879713785], [-2.980483849362258, 48.86110204714522], [-2.981193510535284, 48.85857274761478]]], [[[-3.039655684148568, 48.85939726954791], [-3.037534868390158, 48.86388888335047], [-3.032280156402703, 48.86307834461455], [-3.039655684148568, 48.85939726954791]]], [[[-3.196041281372389, 48.86779040568344], [-3.191945289173082, 48.86703847942911], [-3.195173583734383, 48.86311388060132], [-3.196041281372389, 48.86779040568344]]], [[[-3.182039624878825, 48.87430087677371], [-3.180156289570085, 48.86566085752026], [-3.187900575834044, 48.8647863057388], [-3.182039624878825, 48.87430087677371]]], [[[-1.252940640248424, 44.572064245237605], [-1.253616419360005, 44.56540640463066], [-1.253880582622908, 44.571800828054954], [-1.237624304598385, 44.588498051638076], [-1.252940640248424, 44.572064245237605]]], [[[-1.242620255078204, 44.59520302302222], [-1.247632693931624, 44.59690355833035], [-1.24584540571935, 44.59746545500535], [-1.242620255078204, 44.59520302302222]]], [[[-1.386798753208272, 45.953744377485], [-1.411277881449622, 46.04793801937138], [-1.236363189630556, 45.984933158536876], [-1.23423752850542, 45.92474886701887], [-1.18794561069226, 45.88660290772542], [-1.195441069266806, 45.829116839984316], [-1.234463841896245, 45.804026112815365], [-1.268274648912692, 45.881099924759994], [-1.386798753208272, 45.953744377485]]], [[[-1.254489394675126, 46.16199131604039], [-1.314254685328549, 46.1438049168177], [-1.53488688100113, 46.20234022156188], [-1.56260041682036, 46.24476848430971], [-1.500467923934897, 46.25800794750011], [-1.474229192039033, 46.23301102112252], [-1.515348054546007, 46.23491791177727], [-1.496976097835124, 46.20327997160765], [-1.414625267611977, 46.23055881747982], [-1.439394789510942, 46.21008761294982], [-1.254489394675126, 46.16199131604039]]], [[[-2.400664823671526, 46.7258397961929], [-2.346954390002527, 46.72975424848792], [-2.282620083499428, 46.68836817410152], [-2.380800264846732, 46.6985244738969], [-2.400664823671526, 46.7258397961929]]], [[[-2.264034050042031, 46.96041144653543], [-2.307469272973016, 47.02485094146333], [-2.222213265908282, 47.014437644062504], [-2.246586596582255, 46.98411438793923], [-2.156850548770786, 46.95012937870245], [-2.148355224559874, 46.89396195782311], [-2.197857903467954, 46.951139510953446], [-2.264034050042031, 46.96041144653543]]], [[[-2.354624516585857, 47.0381982408867], [-2.36166139153588, 47.043240618014984], [-2.358288909194869, 47.04278010244859], [-2.354624516585857, 47.0381982408867]]], [[[-2.511023584846882, 47.29589383941778], [-2.512882517102211, 47.29592453856199], [-2.511629063450722, 47.297035505120114], [-2.511023584846882, 47.29589383941778]]], [[[-2.622884961940127, 47.40931024616449], [-2.621726949974606, 47.4137893816588], [-2.617055528896823, 47.41156609467156], [-2.622884961940127, 47.40931024616449]]], [[[-2.844148994417505, 47.55549163091319], [-2.847709765375879, 47.55431817155541], [-2.84303104430816, 47.560843319281915], [-2.844148994417505, 47.55549163091319]]], [[[-2.831103612270233, 47.55691921363963], [-2.830896235673706, 47.560511993803686], [-2.82890362547424, 47.557395820486995], [-2.831103612270233, 47.55691921363963]]], [[[-2.848735583267569, 47.56045313060429], [-2.849766320540603, 47.562970177419395], [-2.846738960230747, 47.561568832662616], [-2.848735583267569, 47.56045313060429]]], [[[-2.805104720976916, 47.560952196000834], [-2.80976346164537, 47.563618923825935], [-2.804576860062928, 47.566591588617236], [-2.805104720976916, 47.560952196000834]]], [[[-2.791914725626557, 47.56230576509169], [-2.793872235457648, 47.56679971083331], [-2.788917657874812, 47.56254414438663], [-2.791914725626557, 47.56230576509169]]], [[[-2.785926538158428, 47.56865325598589], [-2.794148617604347, 47.57930171088287], [-2.786075879875593, 47.575525976123444], [-2.785926538158428, 47.56865325598589]]], [[[-2.747247164821674, 47.57528579736914], [-2.750093904196012, 47.57641695324629], [-2.747008291937304, 47.57861432656042], [-2.747247164821674, 47.57528579736914]]], [[[-2.727252951332729, 47.57275894808678], [-2.73018163245295, 47.58164804218156], [-2.723852784665483, 47.57705229946138], [-2.727252951332729, 47.57275894808678]]], [[[-2.866387598540138, 47.578115780378916], [-2.869600532682092, 47.5770928230907], [-2.868165104796109, 47.57912833997924], [-2.866387598540138, 47.578115780378916]]], [[[-2.862283357287311, 47.568761926016485], [-2.855194110765989, 47.600467758201184], [-2.837824325523273, 47.607399120974534], [-2.823983254297418, 47.588713400290736], [-2.862283357287311, 47.568761926016485]]], [[[-2.762802625389215, 47.59073022156049], [-2.764663359417071, 47.59167698099442], [-2.762023749620153, 47.59207829969413], [-2.762802625389215, 47.59073022156049]]], [[[-2.774321232906623, 47.594842278331285], [-2.80892752184141, 47.57848804158337], [-2.793252361374927, 47.60613387546894], [-2.774321232906623, 47.594842278331285]]], [[[-2.810617575050735, 47.59479612014168], [-2.813052156745798, 47.59841400230853], [-2.80654166970637, 47.59598760105356], [-2.810617575050735, 47.59479612014168]]], [[[-2.723620150635172, 47.59863596903219], [-2.726260915359415, 47.599756185729184], [-2.7224317711034, 47.600243895185734], [-2.723620150635172, 47.59863596903219]]], [[[-2.769855759686505, 47.605546288625064], [-2.756353082927268, 47.607669706677], [-2.753350679054821, 47.60230633385763], [-2.769855759686505, 47.605546288625064]]], [[[-2.804795002969687, 47.60738450953137], [-2.801331568894683, 47.60961475890889], [-2.800271774989634, 47.60814220147711], [-2.804795002969687, 47.60738450953137]]], [[[-2.846988784139794, 47.609633030445295], [-2.850339454264264, 47.61334691641679], [-2.845540096421296, 47.61116156227848], [-2.846988784139794, 47.609633030445295]]], [[[-2.774210730895852, 47.61333689404574], [-2.786627369852955, 47.61610113839769], [-2.785105182594772, 47.618125249384924], [-2.774210730895852, 47.61333689404574]]], [[[-1.988036481444789, 48.59033085255571], [-1.990231784417023, 48.59102557027225], [-1.988578981608618, 48.59180248226806], [-1.988036481444789, 48.59033085255571]]], [[[-2.152461664000729, 48.6199412024356], [-2.154788293593293, 48.620620114089924], [-2.152545241431799, 48.62112024800322], [-2.152461664000729, 48.6199412024356]]], [[[-2.187438315271126, 48.6217497636831], [-2.189271890009787, 48.62749582724179], [-2.186785574515755, 48.626942612932616], [-2.187438315271126, 48.6217497636831]]], [[[-2.473745506491492, 48.62907781347725], [-2.475700041067041, 48.62997245771181], [-2.474877299490454, 48.63084437286922], [-2.473745506491492, 48.62907781347725]]], [[[-2.161999252715873, 48.63821141967485], [-2.156589460921668, 48.64108534833813], [-2.159314577800608, 48.637207413441416], [-2.161999252715873, 48.63821141967485]]], [[[-2.034333540842137, 48.65234774472189], [-2.032362086539516, 48.65279615157913], [-2.032692824777892, 48.65128689209083], [-2.034333540842137, 48.65234774472189]]], [[[-2.072436900167712, 48.67515861275006], [-2.068852814039329, 48.679007552228725], [-2.067908007279, 48.67718204179769], [-2.072436900167712, 48.67515861275006]]], [[[-1.82613954080178, 48.680936017848474], [-1.827648401596004, 48.68080006950069], [-1.826486797542475, 48.68355958407117], [-1.82613954080178, 48.680936017848474]]], [[[-1.953797104049855, 48.69774618678258], [-1.954953417275462, 48.69907065399858], [-1.952832513438136, 48.699073233176904], [-1.953797104049855, 48.69774618678258]]], [[[-1.832408528783965, 48.86907085914728], [-1.822702252721489, 48.87231445354528], [-1.821514779934232, 48.86862414717136], [-1.832408528783965, 48.86907085914728]]], [[[-1.765804304062662, 48.87225989475712], [-1.767526054446306, 48.87326788402145], [-1.766657854598708, 48.875046735808866], [-1.765804304062662, 48.87225989475712]]], [[[-1.841643399011568, 48.87624217993297], [-1.842837219012653, 48.87751829798977], [-1.841941225829348, 48.8790015864714], [-1.841643399011568, 48.87624217993297]]], [[[-1.796498289047336, 48.87734548316594], [-1.798221834183604, 48.87800881566803], [-1.795361711176935, 48.878603770249185], [-1.796498289047336, 48.87734548316594]]], [[[-1.553414726878932, 48.93063051781423], [-1.554540824095939, 48.931234423254615], [-1.553187930679846, 48.931974065667895], [-1.553414726878932, 48.93063051781423]]], [[[-1.584827215829419, 49.67005906903893], [-1.58290894742556, 49.67010262055006], [-1.580439611307005, 49.66866827632285], [-1.584827215829419, 49.67005906903893]]], [[[-1.678943980366825, 49.66921717610224], [-1.678244560862407, 49.669758988310946], [-1.663309139947492, 49.67169674122167], [-1.678943980366825, 49.66921717610224]]], [[[-1.647997138291802, 49.67426359956801], [-1.619051079319467, 49.6742114164534], [-1.598139650990232, 49.671448999833814], [-1.619891692525829, 49.673859028884344], [-1.647997138291802, 49.67426359956801]]], [[[3.037684957705189, 42.60647161727149], [3.034941559739968, 42.60810337400159], [3.037881202623601, 42.60881529744846], [3.037684957705189, 42.60647161727149]]], [[[5.750086121112084, 43.12652545276962], [5.745944621142655, 43.128630835652984], [5.753158209219469, 43.12820918612836], [5.750086121112084, 43.12652545276962]]], [[[5.616084030270501, 43.15844503298244], [5.618821949666669, 43.16162382660021], [5.620970765414385, 43.159208315619715], [5.616084030270501, 43.15844503298244]]], [[[5.386390771123826, 43.17260993130503], [5.380663080392234, 43.18082919865552], [5.398693186565406, 43.173734550826154], [5.386390771123826, 43.17260993130503]]], [[[5.387055019994367, 43.1859793154893], [5.383312037647763, 43.190342881760344], [5.391551142614483, 43.18615780129155], [5.387055019994367, 43.1859793154893]]], [[[5.362206877088304, 43.19685613968514], [5.362905375761573, 43.19994908898572], [5.371671972556014, 43.19389481513146], [5.362206877088304, 43.19685613968514]]], [[[5.231391369921939, 43.198991914753876], [5.228733797968218, 43.19772855530756], [5.228835755192626, 43.19912751967219], [5.231391369921939, 43.198991914753876]]], [[[5.358475371643801, 43.19939448398414], [5.35516345722843, 43.20115952787184], [5.357512047897939, 43.20134851351575], [5.358475371643801, 43.19939448398414]]], [[[5.338371437641399, 43.207903171679135], [5.338040263018488, 43.2128192860448], [5.340072155524875, 43.20913066117324], [5.338371437641399, 43.207903171679135]]], [[[5.327403215232173, 43.21331826509746], [5.325551815732567, 43.21497438662612], [5.32794148172169, 43.214553912499056], [5.327403215232173, 43.21331826509746]]], [[[5.289632064666244, 43.26054302575411], [5.29234720639874, 43.28074994349948], [5.323984883288534, 43.28636469057178], [5.289632064666244, 43.26054302575411]]], [[[3.504893572732659, 43.276149607065996], [3.502731375066251, 43.28064134164838], [3.507167466816431, 43.278100919072806], [3.504893572732659, 43.276149607065996]]], [[[5.324522693418666, 43.278986180651245], [5.324379451360058, 43.280291478226566], [5.327927728701813, 43.280066595862586], [5.324522693418666, 43.278986180651245]]], [[[5.361574245025627, 43.30905054313246], [5.361030958274518, 43.30896521358425], [5.318355609647745, 43.34748079972298], [5.351464617760801, 43.32318367062023], [5.361574245025627, 43.30905054313246]]], [[[4.877937751834692, 43.35635024057883], [4.876648159107356, 43.359729995844724], [4.87989413947478, 43.35901134924702], [4.877937751834692, 43.35635024057883]]], [[[5.307888872919968, 43.35999576101516], [5.308083925489046, 43.36012299884962], [5.31318436013888, 43.35745178781291], [5.307888872919968, 43.35999576101516]]], [[[4.875746982811021, 43.36201327487804], [4.873518363225261, 43.368194360098734], [4.877007660846007, 43.36667520955278], [4.875746982811021, 43.36201327487804]]], [[[3.708004782242137, 43.39606178174894], [3.73147491564651, 43.398898085915924], [3.705187704784597, 43.39351071540695], [3.708004782242137, 43.39606178174894]]], [[[5.050201396088102, 43.404634694824665], [5.054770009682482, 43.406755652756836], [5.057187645534789, 43.40570630980067], [5.050201396088102, 43.404634694824665]]], [[[3.732404353946748, 43.41425200268849], [3.748229436331212, 43.41990993107483], [3.732210921275211, 43.4138898386187], [3.732404353946748, 43.41425200268849]]], [[[4.127363061370872, 43.51355519153447], [4.130177020848881, 43.51751563926368], [4.132797514322846, 43.51302348853287], [4.127363061370872, 43.51355519153447]]], [[[-1.242022556836698, 44.57772152276797], [-1.244088982733185, 44.577624953006016], [-1.243479561788507, 44.578577879613576], [-1.242022556836698, 44.57772152276797]]], [[[-1.23613538700837, 44.58913308730356], [-1.228094856231536, 44.59765799094337], [-1.223428599020705, 44.59824588273005], [-1.23613538700837, 44.58913308730356]]], [[[-1.024396137273911, 44.65027649445778], [-1.025845587038176, 44.64424895721974], [-1.026928726883593, 44.65030323687372], [-1.024396137273911, 44.65027649445778]]], [[[-1.026278895172731, 44.6623747125835], [-1.01109596048667, 44.65021912832505], [-1.032730174192463, 44.651785520631314], [-1.026278895172731, 44.6623747125835]]], [[[-1.180592938756682, 44.69213254907592], [-1.176002587512256, 44.70454898487892], [-1.166327809256558, 44.69560086905293], [-1.180592938756682, 44.69213254907592]]], [[[-1.151497260434277, 45.59793750067667], [-1.153533157560251, 45.60477038525612], [-1.147202185298842, 45.60185265565608], [-1.151497260434277, 45.59793750067667]]], [[[-1.116603500444937, 45.952233609268866], [-1.113121127862492, 45.96187070093756], [-1.105321293451349, 45.95397731788014], [-1.116603500444937, 45.952233609268866]]], [[[-1.17480379118888, 46.007986427569506], [-1.174466055024504, 46.02427820607113], [-1.154588833850632, 46.01949412061405], [-1.17480379118888, 46.007986427569506]]], [[[-1.150532581698658, 49.49375943103293], [-1.15637765729818, 49.492810182663824], [-1.154736808881721, 49.49426957244628], [-1.150532581698658, 49.49375943103293]]], [[[-1.144357179155987, 49.49808473119133], [-1.147459308340047, 49.49781115169009], [-1.146109140633977, 49.49888785649021], [-1.144357179155987, 49.49808473119133]]], [[[-1.241083521532428, 49.586238211154466], [-1.246878460251737, 49.59166022637013], [-1.239144617344313, 49.58887262001599], [-1.241083521532428, 49.586238211154466]]], [[[9.248361073427498, 41.33601836938334], [9.247738233865356, 41.33698042685645], [9.248601850241679, 41.337818530759236], [9.248361073427498, 41.33601836938334]]], [[[9.259934855230025, 41.33389596496041], [9.258570480521358, 41.34811426755607], [9.26167574015758, 41.340050418365855], [9.259934855230025, 41.33389596496041]]], [[[9.256368967541091, 41.349155559223014], [9.25477153869298, 41.34957891948816], [9.256382320099261, 41.351006280563254], [9.256368967541091, 41.349155559223014]]], [[[9.260479152237096, 41.36002870100084], [9.259846483280594, 41.361102215260566], [9.261787208177713, 41.36115444432867], [9.260479152237096, 41.36002870100084]]], [[[9.264267208888821, 41.36087985420977], [9.259256588505677, 41.37437227651161], [9.274675432103896, 41.36916355118957], [9.264267208888821, 41.36087985420977]]], [[[9.23022625760891, 41.37205186118037], [9.226231632158937, 41.3708848500902], [9.227140657158982, 41.37332795043911], [9.23022625760891, 41.37205186118037]]], [[[9.246903923941717, 41.37466758236882], [9.2434187046577, 41.37513230781011], [9.247894450148996, 41.3764563919647], [9.246903923941717, 41.37466758236882]]], [[[9.020616175208533, 41.459731432186494], [9.019652395617877, 41.46107357943202], [9.021852549271669, 41.460496005386034], [9.020616175208533, 41.459731432186494]]], [[[9.355018050850955, 41.539405198962], [9.351910844366268, 41.54085284088724], [9.354535808474173, 41.54152531242776], [9.355018050850955, 41.539405198962]]], [[[9.361455089383853, 41.553582007081516], [9.364536394465956, 41.55275906704876], [9.363155061461745, 41.54926999109002], [9.361455089383853, 41.553582007081516]]], [[[9.36621724952748, 41.55689032292101], [9.3674204302138, 41.55578848149057], [9.36585586916031, 41.554199687477386], [9.36621724952748, 41.55689032292101]]], [[[9.3713193574957, 41.55945170110255], [9.373615423843916, 41.56535726514817], [9.37451070779878, 41.55866863556541], [9.3713193574957, 41.55945170110255]]], [[[9.362622127822753, 41.63254940931449], [9.36087061922005, 41.63351503159], [9.363097497825832, 41.63406487377948], [9.362622127822753, 41.63254940931449]]], [[[9.391643342373044, 41.66800812073991], [9.394112228038367, 41.67268839997988], [9.39642555733725, 41.67012380563597], [9.391643342373044, 41.66800812073991]]], [[[8.746768657853103, 41.81040958772095], [8.744148887926539, 41.81228525464295], [8.746150013423193, 41.81263455661431], [8.746768657853103, 41.81040958772095]]], [[[8.593510066033874, 41.87403181171518], [8.595731334032426, 41.881954324410344], [8.598416637462641, 41.88195773687699], [8.593510066033874, 41.87403181171518]]], [[[9.122953978976508, 42.73133750977234], [9.222104768962755, 42.73541110147365], [9.298969067122139, 42.67652913348985], [9.34521050374109, 42.736605125380095], [9.309497813074339, 42.83328120802434], [9.34046404068358, 42.86589508446384], [9.322054558926538, 42.90021005962436], [9.361695729532457, 42.9245126252119], [9.340251311145789, 42.99400883343374], [9.422036464568333, 43.01169924290622], [9.463521673610154, 42.986634287092684], [9.492690442947945, 42.80649284086805], [9.446468623456795, 42.67467627138386], [9.533479617281966, 42.5454429485248], [9.55510410038579, 42.12536589588912], [9.413881658243783, 41.95465832012087], [9.388911769980185, 41.655405780922926], [9.279179092964448, 41.59689751386085], [9.369432118289662, 41.59405056429013], [9.272801289135403, 41.53015318441012], [9.287630563575343, 41.48411635905837], [9.22350295753252, 41.442670570827], [9.220184079271094, 41.40503355062791], [9.26567235072934, 41.42491149970153], [9.219894385793063, 41.36635484491587], [9.093699427215018, 41.39379887449828], [9.12216194151427, 41.44132586386488], [9.069153931305651, 41.44508014558918], [9.079760108520007, 41.47743929248606], [9.040448871602436, 41.45685635821077], [8.786922420918927, 41.55610601621935], [8.790611732820325, 41.62894289867688], [8.87182965427789, 41.646630126885945], [8.91394694676971, 41.69085669465509], [8.782752019407509, 41.699165168452154], [8.775192077591067, 41.74154900776752], [8.658824361615613, 41.740453478562834], [8.729087362751843, 41.774415784082954], [8.711893181020251, 41.801867270245566], [8.771594338247425, 41.811385191609325], [8.784002452274924, 41.83233521354132], [8.750936068058659, 41.84519401561802], [8.788372572491154, 41.85049647933714], [8.80360961178584, 41.89315547096719], [8.747419772193135, 41.93357539108623], [8.608253145495912, 41.89406338048995], [8.623514981077596, 41.93480995768225], [8.591302031103291, 41.962070436701104], [8.656349358779291, 41.97259941349203], [8.65623130333124, 42.009432618453125], [8.747370440768014, 42.049658493801545], [8.700625154987138, 42.11232083107381], [8.65933024872739, 42.10088645929556], [8.558263534474518, 42.14584070672358], [8.593760893761367, 42.167811579866445], [8.561372120025968, 42.17146938687282], [8.58168212848628, 42.20596208067856], [8.53989171915287, 42.23654320004623], [8.696173594730778, 42.26607414063793], [8.604796958142048, 42.305974349619504], [8.616745518478623, 42.34906625446884], [8.553176495715524, 42.33324696719072], [8.543111877493285, 42.36845771762564], [8.609287527955024, 42.38709906679809], [8.606130322894096, 42.41652808432569], [8.6552267632919, 42.415348815369725], [8.666982893537886, 42.51599265088236], [8.720322232396555, 42.52529288657113], [8.709251110209488, 42.57680254160804], [8.783201250947089, 42.55684351867556], [8.805843243229925, 42.60403517530399], [9.014397579075991, 42.64083077678242], [9.122953978976508, 42.73133750977234]]], [[[8.541647199335431, 42.366401359182625], [8.534676184582125, 42.372222892886036], [8.541466639880179, 42.37155921818713], [8.541647199335431, 42.366401359182625]]], [[[9.340937184234601, 42.96326792461119], [9.34146042874518, 42.96557646830111], [9.343892336536424, 42.96349832113258], [9.340937184234601, 42.96326792461119]]], [[[9.47187380245779, 42.983450901166016], [9.470137331072603, 42.98383715043812], [9.47121039456015, 42.98461795899708], [9.47187380245779, 42.983450901166016]]], [[[9.466659290200836, 42.98457557869699], [9.465946271479263, 42.98547578259199], [9.46658324997745, 42.98640202237422], [9.466659290200836, 42.98457557869699]]], [[[6.395931131382724, 42.98740140611013], [6.393595812150624, 42.98761918626959], [6.396778839334791, 42.98920736561933], [6.395931131382724, 42.98740140611013]]], [[[6.25322363189299, 42.997945527011765], [6.252035964163868, 42.99935412129114], [6.253701457989385, 42.99933523681547], [6.25322363189299, 42.997945527011765]]], [[[6.159874207060941, 43.00174656005023], [6.242107244689425, 43.02673210570966], [6.252513896809938, 43.00443698925002], [6.205714532109332, 42.982280926801806], [6.159874207060941, 43.00174656005023]]], [[[6.368891887024085, 43.00207060419408], [6.409064319180513, 43.02005135483338], [6.421284407265698, 43.01410275050321], [6.402541157702633, 42.99345308053467], [6.368891887024085, 43.00207060419408]]], [[[6.364135988329848, 43.00414406854354], [6.361851135013028, 43.01752093803895], [6.36866013618584, 43.01885708109443], [6.364135988329848, 43.00414406854354]]], [[[6.143726151317809, 43.015548961024116], [6.145176754123646, 43.02041914901224], [6.148191718171685, 43.018384081189275], [6.143726151317809, 43.015548961024116]]], [[[9.40901248019801, 43.02230205047532], [9.404098746066298, 43.02617023976343], [9.406346924864305, 43.027612525628356], [9.40901248019801, 43.02230205047532]]], [[[6.43237695270672, 43.00997020864499], [6.468558287852892, 43.04560087678484], [6.508264830106531, 43.052767898612316], [6.470876558606326, 43.016715768466675], [6.43237695270672, 43.00997020864499]]], [[[5.793294462395401, 43.067712628058615], [5.792254856818508, 43.0685027637722], [5.793477014566824, 43.06966350674838], [5.793294462395401, 43.067712628058615]]], [[[5.788597145340402, 43.06916994516406], [5.790160397255289, 43.07249259725118], [5.792083743773645, 43.06879788902078], [5.788597145340402, 43.06916994516406]]], [[[5.780595092316367, 43.06983589878611], [5.780745462777965, 43.08244227724185], [5.792049876166235, 43.07753471724522], [5.780595092316367, 43.06983589878611]]], [[[5.767292023955646, 43.07883623266533], [5.767785721085056, 43.08207329775428], [5.769594846992964, 43.08054724542975], [5.767292023955646, 43.07883623266533]]], [[[6.583141075503192, 43.26943797208337], [6.577619558264296, 43.269124887901455], [6.580000845969589, 43.27078117341314], [6.583141075503192, 43.26943797208337]]], [[[6.583520117172247, 43.269370465213385], [6.586036350285216, 43.27148949204959], [6.587060633655589, 43.26961130103039], [6.583520117172247, 43.269370465213385]]], [[[6.57766042723889, 43.27298114755283], [6.576053936315255, 43.27340625202963], [6.577381147481901, 43.274021439578945], [6.57766042723889, 43.27298114755283]]], [[[6.58283255566636, 43.2730996265294], [6.581205921537739, 43.27466817862389], [6.582623630621968, 43.275012862912554], [6.58283255566636, 43.2730996265294]]], [[[6.782428559984536, 43.40724201636625], [6.78153480891813, 43.408003695023915], [6.783064086200821, 43.40854649456646], [6.782428559984536, 43.40724201636625]]], [[[6.895286116356145, 43.42702257778725], [6.892928422891901, 43.42752083219785], [6.89511929227726, 43.4281175858026], [6.895286116356145, 43.42702257778725]]], [[[7.047555187216592, 43.50477716865387], [7.047148033322472, 43.509554467695864], [7.055605099820475, 43.50802036617079], [7.047555187216592, 43.50477716865387]]], [[[7.073833590008475, 43.51456385839142], [7.072232465154311, 43.515952857093545], [7.072910197378966, 43.51688596358086], [7.073833590008475, 43.51456385839142]]], [[[7.043223446942924, 43.51578283368614], [7.046322963853267, 43.52445722957894], [7.070905353885159, 43.51724415317449], [7.043223446942924, 43.51578283368614]]]]}}]}