{"type": "FeatureCollection", "_meta": {"topic": "ming-nine-border", "year": 1421, "method": "底图为现代县界（gazetteer），用的是现代行政界、不是明代的界线。九边军镇防区依史料记载的控制范围对应到现代县级单元，仅表示大致归属，不表示精确边界。九边包括辽东、蓟州、宣府、大同、山西、延绥、宁夏、固原、甘肃等镇。", "max_km": 260.0, "units_total": 14, "units_matched": 14, "units_missing": [], "counties_placed": 468, "counties_outside": 2631, "control_sha1": "90298c2d14ef97dc", "gazetteer_sha1": "bc32b04a9fc30756", "built_from": {"control": "ming-nine-border_control.json", "units": "ming-nine-border_province_gazetteer.json"}}, "features": [{"type": "Feature", "properties": {"id": "开平卫", "name": "开平卫", "color": "#c7a76c", "owner": "明", "units": ["开平卫"], "label_lon": 116.089, "label_lat": 43.054}, "geometry": {"type": "Polygon", "coordinates": [[[116.03822016800007, 41.35478409500007], [115.90219576200002, 41.20913637800004], [115.8446505170001, 41.21635979500007], [115.72773894500006, 41.33141633100007], [115.44797174100006, 41.24977237100006], [115.43602097400003, 41.31927048500006], [115.28655757000001, 41.447493585000075], [115.00561942600007, 41.51011749000003], [114.90959405000001, 41.503105246000075], [114.91799577100005, 41.46873151600005], [114.83946129300011, 41.492089220000025], [114.81799558400007, 41.52292423600005], [114.8623690180001, 41.60618873000004], [114.8717940460001, 41.78047222400005], [114.91451215200004, 41.84745889000004], [114.9031514940001, 41.930226710000056], [114.85172738100005, 42.10662199700005], [114.76973109800008, 42.18862204700008], [114.6815910570001, 42.20955040900003], [114.65042942600007, 42.26378804900003], [114.39013765400011, 42.21942735700003], [114.42089694700007, 42.15424259500003], [114.40000363600006, 42.12006867100007], [114.2723906010001, 42.20284488400006], [114.17360243400003, 42.128437903000076], [114.075590895, 42.099849961000075], [114.05012338800009, 42.06856115700003], [114.0624051960001, 42.00429532900006], [113.94799656400005, 41.948826645000054], [113.90078840700005, 41.94909198200003], [113.86674181700005, 42.055546873000026], [113.51196794300006, 42.14343661000004], [113.40782269200008, 42.19786175400003], [113.54160267700001, 42.35965550200007], [114.00040694400002, 42.681811012000026], [114.13608590500007, 42.692504419000045], [114.23184337000009, 42.75467022400005], [114.37155215200005, 42.76556621700007], [114.4121931730001, 42.81794104200003], [114.6445769610001, 42.83212809400004], [115.007414132, 43.00517163000006], [115.01844052600006, 43.03864967700008], [115.19304160000002, 43.07792021700004], [114.97635641800002, 43.11426658900007], [114.90841452100005, 43.15375219400005], [114.86429552200002, 43.212858520000054], [114.86889059200007, 43.29096091300005], [114.7135730010001, 43.37571527800003], [114.55343143200002, 43.523340835000056], [114.49604666000005, 43.70587734700007], [114.2770804480001, 43.878218907000075], [113.77463087700005, 44.49933962500006], [113.46028570300007, 44.693417716000056], [113.43937857800006, 44.763360652000074], [113.63850989600007, 44.76859387400003], [113.83703968000009, 44.89276223300004], [114.06150850100005, 44.951601407000055], [114.4298505380001, 45.23044039200005], [114.50030117500012, 45.39112797900003], [114.7004833530001, 45.443416901000035], [114.84394454400001, 45.37810449800003], [115.09281599700012, 45.39943990100005], [115.27771924900003, 45.213042752000035], [115.28554814200004, 45.14185218800003], [115.334743505, 45.09066215900003], [115.75580991400011, 44.85050233100003], [115.88853588200004, 44.69278318000005], [115.9325462060001, 44.68857921400007], [116.13337052600002, 44.88870260200008], [116.27713716100004, 44.95502379000004], [116.54008477100001, 44.738323094000066], [116.4731727190001, 44.525371379000035], [116.31453303300009, 44.40879016900004], [116.31124209900008, 44.315577863000044], [116.450960828, 44.29400109900007], [116.58878665600002, 44.21644692400008], [116.62121380000008, 44.15543927400006], [116.70691868600011, 44.14683154100004], [116.76098920200002, 43.97825452500007], [116.84906079900009, 43.92181980500004], [116.89533285200002, 43.91862914100005], [117.1046291130001, 44.096070059000056], [117.24477638200005, 44.13005681200008], [117.385197951, 44.131064077000076], [117.73847482400004, 44.038229889000036], [118.24532509500011, 44.29129090600003], [118.33923123300008, 44.06284904800003], [118.49207596100007, 43.974980078000044], [118.44851499700007, 43.93829541300005], [118.22550697800011, 43.92850013800006], [118.21709012000008, 43.96831254800003], [118.17091625800003, 43.964084306000075], [118.2270201020001, 43.77349514700006], [118.4227601340001, 43.55837527700004], [118.19341005700005, 43.567477748000044], [118.16386540100007, 43.42367915300008], [118.38924189500005, 43.384808081000074], [118.52259600600007, 43.281952551000074], [118.53103256400004, 43.24447342800005], [118.31635849200006, 43.25986300900007], [118.32612135500005, 43.22293157800004], [118.2937936080001, 43.19886676500005], [118.3335366870001, 43.101396762000036], [118.27990879300012, 42.98971467700005], [118.32901435300005, 42.89347453700003], [117.85449570500009, 42.67734039900006], [117.74482943600003, 42.55663202900007], [117.95675346300004, 42.40433399900007], [118.00939133800011, 42.275422992000074], [117.93724509300012, 42.216972363000025], [118.05934734700008, 42.14566564100005], [118.04861727700006, 42.08764176400007], [118.10853020200011, 42.09026767000006], [118.09810947500011, 42.03532635200003], [118.25216509600011, 42.060860597000044], [118.24563067400004, 41.99636058400006], [118.28782419800007, 41.95321880600005], [118.24120076000008, 41.90422793400006], [118.31391087100008, 41.84876442700005], [118.29711235200011, 41.76798016400005], [118.26088928500008, 41.736215955000034], [118.16106588700006, 41.78865362300007], [118.10962154900005, 41.76299309900003], [118.09795987100006, 41.70679518900005], [118.19103878300007, 41.61215191200006], [118.19690315000003, 41.56123331800006], [118.26605862300005, 41.54595036200004], [118.27819159500007, 41.49735133900003], [118.24540674200011, 41.435818819000076], [118.04883488900009, 41.34030479000006], [118.01369929600003, 41.37266993900005], [117.97906395500002, 41.36263269800003], [117.9551420040001, 41.14566431900005], [117.53441575200009, 41.14092696000006], [117.47560164000004, 41.23541343800008], [117.43376049500012, 41.24135933300005], [117.40220898400003, 41.22455376100004], [117.34692765700004, 41.03174097100003], [117.21722199300007, 41.01246825000004], [117.07621451600005, 40.894953661000045], [117.02511676900008, 40.89124829900004], [116.65051595300008, 40.984287633000065], [116.62149532100011, 41.05733292900004], [116.55765551200011, 41.02902971100008], [116.53713667500006, 40.96610013900005], [116.40542449500003, 40.948539620000076], [116.4381602850001, 40.87011643500006], [116.35966375300006, 40.88485758400003], [116.2595558920001, 40.99602173400007], [116.16616645900001, 41.31923446300004], [116.03822016800007, 41.35478409500007]]]}}, {"type": "Feature", "properties": {"id": "赫图阿拉", "name": "赫图阿拉", "color": "#c7a76c", "owner": "明", "units": ["赫图阿拉"], "label_lon": 125.548, "label_lat": 42.48}, "geometry": {"type": "Polygon", "coordinates": [[[125.64024644100004, 40.834798017000026], [125.60457693500007, 40.75103824300004], [125.52881422000007, 40.76110064200003], [125.48227113400003, 40.71038443400005], [125.40585714200006, 40.69896200800008], [125.3606377970001, 40.61665568400008], [125.2620882540001, 40.64130998500008], [125.01913507600011, 40.55441194700006], [124.95136751500002, 40.46724287600006], [124.86395609100009, 40.460379903000046], [124.43045095600007, 40.18694244100004], [124.45401616800007, 40.28024675200004], [124.3570996420001, 40.311596673000054], [124.42277854600002, 40.348840651000046], [124.37882374300011, 40.564063633000046], [124.44645528700005, 40.72579239400005], [124.50340859800008, 40.775166014000035], [124.47551750200012, 40.840629671000045], [124.53066076800008, 40.89254311000008], [124.46301384800006, 41.04345085500006], [124.66394921100004, 41.10544477700006], [124.67944060900004, 41.21178009500005], [124.61825456300005, 41.20280143800005], [124.45731103300011, 41.306315847000064], [124.37903696900003, 41.28904290000003], [124.24659483200003, 41.51051277300007], [124.0551823180001, 41.48380618400006], [123.93379686300011, 41.53658326600004], [123.74633603900008, 41.47005368200007], [123.73951396100006, 41.506984584000065], [123.69440749900002, 41.50228550700007], [123.77615382700003, 41.705102870000076], [123.76265685500005, 41.736305025000036], [123.67436516600003, 41.75681175500006], [123.68138228600003, 41.82376087600005], [123.8355468630001, 41.74994778700005], [124.00834414500002, 41.81304075800006], [123.8605999990001, 41.912791656000024], [123.86957003200007, 42.010183322000046], [123.71580104100008, 41.97629425800005], [123.61435605600002, 42.101208574000054], [123.402840222, 42.16336880400007], [123.49433421800006, 42.29443325400007], [123.4974753350001, 42.358143393000034], [123.6647023590001, 42.337497092000035], [123.79497215800006, 42.40481105300006], [123.75217466000004, 42.41609116300003], [123.76233513400007, 42.45218327500004], [123.68190911700003, 42.56930280900008], [123.52296760800004, 42.69877880700005], [123.52700752900012, 42.75406998500006], [123.56880338600001, 42.78707264800005], [123.53672277800001, 42.89003792400007], [123.55711779900003, 42.94605740500003], [123.51069150500007, 42.975712748000035], [123.6263968610001, 43.17612004500006], [123.63313837400005, 43.30586064600004], [123.68798553600004, 43.32977621100008], [123.66141480700003, 43.38132748100003], [123.47791638800004, 43.42543606400005], [123.48037291100002, 43.366508116000034], [123.29627998400008, 43.45606586000008], [123.32233060500005, 43.533548075000056], [123.428631805, 43.55088525100007], [123.49646433900011, 43.64215345000008], [123.39525112600006, 43.73678621400006], [123.41931965000003, 43.838881988000026], [123.31959556000004, 43.99207255400006], [123.32041498700005, 44.06688593500007], [123.62879115900012, 44.08538760700003], [123.68096309900011, 44.07603586600004], [123.79351494700006, 43.97295610100008], [124.02787701300008, 44.00640403400007], [124.22240227300006, 43.967014360000064], [124.312859752, 43.98901691900005], [124.47527892500011, 44.12979698200007], [124.71125315800009, 44.202858323000044], [124.7092838860001, 44.122189149000064], [124.94814342100005, 43.91026073300003], [125.04733052800009, 43.91023881600006], [125.05555946400011, 43.97882551200007], [125.21223104600006, 44.090422071000035], [125.21583116600004, 44.14095246000005], [125.40340437800012, 44.09069273700004], [125.40267648500003, 44.04810943600006], [125.50341664900009, 43.993842038000025], [125.52209173400001, 43.87800090800005], [125.64122990900012, 43.90922914400005], [125.87890309400007, 43.83405914600007], [126.01526508600011, 43.89876737600008], [125.97541589800005, 44.03288606900003], [126.125607091, 44.20248447200004], [126.39593296100009, 44.22030829100004], [126.43138038900008, 44.27491233500007], [126.587471735, 44.27187119000007], [126.72411731200009, 44.317440668000074], [126.75649793900004, 44.22488575400007], [126.80869439000003, 44.192750327000056], [126.79802804700012, 44.139866400000074], [126.72737958700009, 44.08973167800008], [126.83721279200006, 43.986691439000026], [126.80818058000011, 43.84683526600003], [126.66095004300007, 43.91108066700008], [126.63845180100009, 43.94920282500004], [126.66053706000002, 44.040889434000064], [126.61159410000005, 44.15602932300004], [126.55989475900003, 44.14793274600004], [126.58376751100002, 44.12225493900007], [126.52191450500004, 44.081116791000056], [126.33098722700004, 44.095684394000045], [126.2767083870001, 44.03997986100006], [126.30728837900006, 43.910972763000075], [126.37040541700003, 43.85219621700003], [126.32140419200005, 43.76654015400004], [126.35260987000004, 43.69800514800005], [126.4174193020001, 43.661153855000066], [126.52961904200004, 43.712620593000054], [126.59283661000006, 43.65389136400006], [126.73588139500009, 43.669846206000045], [126.9019043720001, 43.61794032100005], [126.86867236000012, 43.556425372000035], [126.88606836000008, 43.47560912000006], [126.95341271400002, 43.41160712100003], [127.08476467800006, 43.36586190700007], [127.06751827300002, 43.30910308400007], [127.10343911300004, 43.23269842900004], [127.18609266600004, 43.20190588400004], [127.33758012500004, 43.21129748900006], [127.58456885700002, 43.31647932300007], [127.60679561400002, 43.228178022000066], [127.54260230800003, 43.15042693700008], [127.46195402500007, 43.126419542000065], [127.43962995200002, 42.989088399000025], [127.80085146800002, 42.76295352200003], [127.80509726900004, 42.69917478100007], [127.9881555820001, 42.50527492700007], [127.95229831000006, 42.40837184000003], [127.76511952100009, 42.264170859000046], [127.87123648300008, 42.23512795400006], [127.88535086800005, 42.15923541500007], [128.03121920700005, 42.001061539000034], [127.9936894540001, 42.00042242100005], [128.05596740700003, 41.93554462000003], [128.05515756600005, 41.80928937300007], [128.10456863000002, 41.71859497200006], [128.2190741180001, 41.62753224200003], [128.24372147500003, 41.55469108400007], [128.15568371400002, 41.406155467000076], [128.10228850200008, 41.36194979100003], [127.99867416600011, 41.378304738000054], [127.97574927900007, 41.418179198000075], [127.9016839520001, 41.43760797300007], [127.81053184300004, 41.391814261000036], [127.74382108200007, 41.38488722500006], [127.70566354100004, 41.41357965900005], [127.5998277970001, 41.38417824000004], [127.51375572600011, 41.453658278000034], [127.22620119700002, 41.47069575100005], [127.2208439310001, 41.49604037300003], [127.06255078200002, 41.54218909800005], [127.1156641770001, 41.587697572000025], [127.02356554700009, 41.63926911200008], [127.02670189300011, 41.69096239400005], [126.88983021900003, 41.789046780000035], [126.83853389800004, 41.77335945100003], [126.81866227000012, 41.70269956200008], [126.66197725400002, 41.72529010100004], [126.65849363100006, 41.67091768800003], [126.53789721200008, 41.59681536800008], [126.54833880400008, 41.537150964000034], [126.46943390500007, 41.39599171400005], [126.49447417300007, 41.334606043000065], [126.409578441, 41.35111666900008], [126.22225067500005, 41.14435414900004], [126.09844596100004, 41.07774158600006], [126.00142449000009, 40.94961960000006], [125.93762390600011, 40.91784822900007], [125.99955265100004, 40.88878114000005], [125.93121435400008, 40.87030655500007], [125.8260831880001, 40.89429416300004], [125.64024644100004, 40.834798017000026]]]}}, {"type": "Feature", "properties": {"id": "大宁都司", "name": "大宁都司", "color": "#8e9a8b", "owner": "蒙古", "units": ["大宁都司"], "label_lon": 119.604, "label_lat": 42.205}, "geometry": {"type": "Polygon", "coordinates": [[[120.04285671700006, 40.51584267900006], [119.93315803200005, 40.49842157300003], [119.7427979580001, 40.37248486800007], [119.54564617500012, 40.41142181600003], [119.46725130000004, 40.514402940000025], [119.27572774600003, 40.500828858000034], [119.19554796800003, 40.525355802000036], [119.19724852700006, 40.57795264500004], [119.11412558300003, 40.58594331200004], [119.10214646300005, 40.615413524000076], [119.13876135300006, 40.66284655000004], [118.97060787100008, 40.65625214700003], [118.8427941000001, 40.75174942900003], [118.83303610900009, 40.71334490600003], [118.71579273200007, 40.634756468000035], [118.66309005100004, 40.690710360000026], [118.49934284900007, 40.663275491000036], [118.49358566600006, 40.85790584200004], [118.33817954400001, 40.83193601700003], [118.42609646900007, 41.11784548900005], [118.41329453300011, 41.191975315000036], [118.37886638000009, 41.29592646000003], [118.30730667900002, 41.316477777000046], [118.24008076400003, 41.44528832900005], [118.27819159500007, 41.49735133900003], [118.26605862300005, 41.54595036200004], [118.19690315000003, 41.56123331800006], [118.19103878300007, 41.61215191200006], [118.09795987100006, 41.70679518900005], [118.10962154900005, 41.76299309900003], [118.16106588700006, 41.78865362300007], [118.26088928500008, 41.736215955000034], [118.29711235200011, 41.76798016400005], [118.31391087100008, 41.84876442700005], [118.24120076000008, 41.90422793400006], [118.28782419800007, 41.95321880600005], [118.24563067400004, 41.99636058400006], [118.25216509600011, 42.060860597000044], [118.09810947500011, 42.03532635200003], [118.10853020200011, 42.09026767000006], [118.04861727700006, 42.08764176400007], [118.05934734700008, 42.14566564100005], [117.93724509300012, 42.216972363000025], [118.00939133800011, 42.275422992000074], [117.95675346300004, 42.40433399900007], [117.74482943600003, 42.55663202900007], [117.85449570500009, 42.67734039900006], [118.32901435300005, 42.89347453700003], [118.27990879300012, 42.98971467700005], [118.3335366870001, 43.101396762000036], [118.2937936080001, 43.19886676500005], [118.32612135500005, 43.22293157800004], [118.31635849200006, 43.25986300900007], [118.53103256400004, 43.24447342800005], [118.52259600600007, 43.281952551000074], [118.38924189500005, 43.384808081000074], [118.19498260000012, 43.41259944900003], [118.1619174000001, 43.46306326400003], [118.19341005700005, 43.567477748000044], [118.4227601340001, 43.55837527700004], [118.2270201020001, 43.77349514700006], [118.17091625800003, 43.964084306000075], [118.21709012000008, 43.96831254800003], [118.22550697800011, 43.92850013800006], [118.48986855800001, 43.956604209000034], [118.48103623400004, 43.99184245600003], [118.33923123300008, 44.06284904800003], [118.24532509500011, 44.29129090600003], [118.49236813300001, 44.433484330000056], [118.61941606800008, 44.477336998000055], [118.76478756400002, 44.470637999000076], [118.82186471800003, 44.407183177000036], [118.8261364870001, 44.377211481000074], [118.7181776110001, 44.28030200100005], [118.7215942470001, 44.24346402400005], [118.8899867, 44.01865921500007], [118.87576505400011, 43.949787713000035], [118.90200575600011, 43.91452708200006], [119.05405284200003, 43.84909266200003], [119.08659038300004, 43.69390943700006], [119.26189787800001, 43.669523850000076], [119.41038217300002, 43.75068992800004], [119.45472160400004, 43.743542399000034], [119.5737989800001, 43.615713636000066], [119.67533872900003, 43.63546353000004], [119.75843120200011, 43.57513336000005], [119.87245072600001, 43.59419505300008], [119.99090386000012, 43.53223262800003], [120.03004981200002, 43.349658118000036], [120.22101776400007, 43.370394419000036], [120.408910149, 43.34712910200005], [120.75397123300002, 43.42029229000008], [120.93029560100001, 43.48986724100007], [121.29570010700002, 43.518482059000064], [121.49294556600012, 43.39101353400008], [121.57958092800004, 43.258468296000046], [121.54836722900006, 43.192759429000034], [121.45527038800003, 43.17176940000007], [121.3463168940001, 43.06273956900003], [121.18702719400005, 43.10883681300004], [121.12393031300007, 43.074719437000056], [121.18182309300005, 42.33684838600004], [120.99046233500007, 42.20875030800005], [121.02535956800011, 42.09563641900007], [120.98344253500011, 41.99189987900007], [121.160114098, 41.93528999400007], [121.29623463200005, 41.838526529000035], [121.19261134600004, 41.67665339400003], [121.0975803880001, 41.59993043700007], [120.9786596890001, 41.564159403000076], [120.86189457600005, 41.389085968000074], [120.7673509330001, 41.37360048200003], [120.71420031200012, 41.27032068600005], [120.7448932750001, 41.15335073500006], [120.80289279400006, 41.096165093000025], [120.87566087700009, 41.13019357500008], [120.94402974900004, 41.07364744100005], [121.02468663600007, 41.15720192100008], [121.19726234900008, 41.18231909700006], [121.23297374300012, 41.15451006500007], [121.22539626100001, 41.07346655100008], [120.99644154200007, 40.95896921100007], [120.99752373500007, 40.827937331000044], [120.92931353300003, 40.82551422600005], [120.87829263000003, 40.76072239500007], [120.98033851100001, 40.71021895900003], [120.79053451700008, 40.67605345000004], [120.75945702000001, 40.614321534000055], [120.63794360200006, 40.54223164700005], [120.61414516800005, 40.48526232200004], [120.49841903900005, 40.399085298000045], [120.51010961300005, 40.368367582000076], [120.5529125060001, 40.377792130000046], [120.47185768400004, 40.320618359000036], [120.45033566600011, 40.256147388000045], [120.33724776500003, 40.282747837000045], [120.1328764220001, 40.55870252100004], [120.0869543770001, 40.58750896400005], [120.04285671700006, 40.51584267900006]]]}}, {"type": "Feature", "properties": {"id": "辽东镇", "name": "辽东镇", "color": "#c7a76c", "owner": "明", "units": ["辽东镇"], "label_lon": 122.665, "label_lat": 41.482}, "geometry": {"type": "MultiPolygon", "coordinates": [[[[123.09972941, 39.08374778000007], [123.13698408300002, 39.10460487300003], [123.17382286600002, 39.05935706200006], [123.12442266500011, 39.03062897900003], [123.09972941, 39.08374778000007]]], [[[122.34647795600006, 39.21133856300003], [122.36247317000004, 39.16182697700003], [122.26329191200011, 39.150076299000034], [122.28897757000004, 39.183051738000074], [122.34647795600006, 39.21133856300003]]], [[[122.58051010500003, 39.220686484000055], [122.71061874700001, 39.22036129600008], [122.66339087400002, 39.19142418100006], [122.58051010500003, 39.220686484000055]]], [[[122.46385002500006, 39.28936429700008], [122.57125225000004, 39.27496256400008], [122.63650965800002, 39.26441563700007], [122.53365634800002, 39.25126836100003], [122.46385002500006, 39.28936429700008]]], [[[122.90560498700006, 39.52174842200003], [122.93080748200009, 39.549255241000026], [122.99275092300002, 39.52887502400006], [122.9517296680001, 39.48656984000007], [122.90560498700006, 39.52174842200003]]], [[[122.44311277300005, 39.41233295700005], [122.34711102400001, 39.42376337300004], [122.20581426900003, 39.31068871000008], [121.92740298700005, 39.28245735000007], [121.81795968600011, 39.368305873000054], [121.92144838000002, 39.404518746000065], [121.79567972300003, 39.37922344200007], [121.66457228900003, 39.405833431000076], [121.65589244500006, 39.37220299400008], [121.60676973800003, 39.358288067000046], [121.45961750000004, 39.374296177000076], [121.40680304000011, 39.49082146000006], [121.47468101700008, 39.50868082300008], [121.52669609400004, 39.59837994700007], [121.49949972700006, 39.67573174700004], [121.42849195100007, 39.72777637100006], [121.4304127050001, 39.79815937300003], [121.4964557720001, 39.86684120800004], [121.57332988500002, 39.86946207500006], [121.65886133400011, 39.921062118000066], [121.73443980200011, 39.914654417000065], [121.8082670550001, 39.96807509000007], [121.83374830800005, 39.99937856400004], [121.78938114300001, 40.01946318200004], [121.86309351500006, 40.047549262000075], [121.9098165580001, 40.11322393900008], [121.96694657600005, 40.12005079000005], [121.95032473900005, 40.17762004200006], [122.02223461400001, 40.18496290200005], [122.05812928300008, 40.24250004900006], [122.04496683600007, 40.290734404000034], [122.13032122000004, 40.335803560000045], [122.157172564, 40.41224744300007], [122.23453737500006, 40.44438270300003], [122.24241800800007, 40.49351083400006], [122.1147311530001, 40.59984418400006], [122.09874900500006, 40.68458198800005], [121.93755342500003, 40.808121045000064], [121.91687143700005, 40.77818952300004], [121.90118445700011, 40.795835759000056], [121.9524010560001, 40.871173707000025], [121.91790938800011, 40.86325455900004], [121.91819823300011, 40.95926872100006], [121.84372955300012, 40.99550681000005], [121.8246600120001, 41.055106745000046], [121.79305505600007, 40.97895146800005], [121.7656127350001, 41.05646393200004], [121.72900803000005, 41.04323076800006], [121.70608257100002, 40.98264320800007], [121.67350096500002, 40.987182906000044], [121.71916309500011, 40.92357288000005], [121.679689671, 40.92325791300004], [121.71488306200001, 40.89584872000006], [121.63424109300001, 40.908030316000065], [121.5637724180001, 40.857736283000065], [121.53801560000011, 40.90695434500003], [121.45475460600005, 40.93463534400007], [121.35126603300012, 40.90957289900007], [121.26216063600009, 40.96476647700007], [121.23289361800005, 40.941764145000036], [121.269745682, 40.91616561700005], [121.13637335700002, 40.93861804100004], [121.0255981790001, 40.81976273600003], [120.99752373500007, 40.827937331000044], [120.99644154200007, 40.95896921100007], [121.19692367500011, 41.04749957200005], [121.23297374300012, 41.15451006500007], [121.19726234900008, 41.18231909700006], [121.02468663600007, 41.15720192100008], [120.94402974900004, 41.07364744100005], [120.87566087700009, 41.13019357500008], [120.80289279400006, 41.096165093000025], [120.7448932750001, 41.15335073500006], [120.71420031200012, 41.27032068600005], [120.7673509330001, 41.37360048200003], [120.86189457600005, 41.389085968000074], [120.9786596890001, 41.564159403000076], [121.0975803880001, 41.59993043700007], [121.19261134600004, 41.67665339400003], [121.29623463200005, 41.838526529000035], [121.160114098, 41.93528999400007], [120.98344253500011, 41.99189987900007], [121.02535956800011, 42.09563641900007], [120.99046233500007, 42.20875030800005], [121.18182309300005, 42.33684838600004], [121.14642572800005, 42.56333112400006], [121.15595182200002, 42.89256195100006], [121.11605122800006, 42.97677110300003], [121.14158318600005, 43.09859882400008], [121.18702719400005, 43.10883681300004], [121.30387146600003, 43.05552595300003], [121.38568114000009, 43.08135019000008], [121.45527038800003, 43.17176940000007], [121.56959190900011, 43.21813191200005], [121.5395912890001, 43.33846543400006], [121.64962775400011, 43.36366136500004], [121.74249060500006, 43.341443439000045], [121.78201829500006, 43.371332806000055], [121.95103655700007, 43.34192757200003], [122.12252847900004, 43.36336300900007], [122.29468360300007, 43.48157829400003], [122.4390325390001, 43.49977249500006], [122.56993055300006, 43.60142163000006], [122.82995369800005, 43.612290073000054], [122.87301065500003, 43.68726968200008], [122.96952199800012, 43.69686321300003], [123.23537524400001, 43.54627592000003], [123.32233060500005, 43.533548075000056], [123.30672611900002, 43.438758034000045], [123.48037291100002, 43.366508116000034], [123.47791638800004, 43.42543606400005], [123.66141480700003, 43.38132748100003], [123.68798553600004, 43.32977621100008], [123.63313837400005, 43.30586064600004], [123.6263968610001, 43.17612004500006], [123.51069150500007, 42.975712748000035], [123.55711779900003, 42.94605740500003], [123.53672277800001, 42.89003792400007], [123.56880338600001, 42.78707264800005], [123.52700752900012, 42.75406998500006], [123.52296760800004, 42.69877880700005], [123.68190911700003, 42.56930280900008], [123.76233513400007, 42.45218327500004], [123.75217466000004, 42.41609116300003], [123.79497215800006, 42.40481105300006], [123.6647023590001, 42.337497092000035], [123.4974753350001, 42.358143393000034], [123.49433421800006, 42.29443325400007], [123.402840222, 42.16336880400007], [123.61435605600002, 42.101208574000054], [123.71580104100008, 41.97629425800005], [123.86957003200007, 42.010183322000046], [123.8605999990001, 41.912791656000024], [124.00834414500002, 41.81304075800006], [123.8355468630001, 41.74994778700005], [123.68138228600003, 41.82376087600005], [123.67436516600003, 41.75681175500006], [123.76265685500005, 41.736305025000036], [123.77615382700003, 41.705102870000076], [123.69440749900002, 41.50228550700007], [123.73951396100006, 41.506984584000065], [123.74633603900008, 41.47005368200007], [123.93379686300011, 41.53658326600004], [124.0551823180001, 41.48380618400006], [124.24659483200003, 41.51051277300007], [124.37903696900003, 41.28904290000003], [124.45731103300011, 41.306315847000064], [124.61825456300005, 41.20280143800005], [124.67944060900004, 41.21178009500005], [124.68519907900009, 41.15442830300003], [124.66394921100004, 41.10544477700006], [124.46301384800006, 41.04345085500006], [124.53066076800008, 40.89254311000008], [124.47551750200012, 40.840629671000045], [124.50340859800008, 40.775166014000035], [124.44645528700005, 40.72579239400005], [124.37882374300011, 40.564063633000046], [124.42277854600002, 40.348840651000046], [124.3570996420001, 40.311596673000054], [124.4248508180001, 40.30656898400008], [124.45440344200006, 40.26631737500003], [124.43045095600007, 40.18694244100004], [124.29843234900011, 40.07498494300006], [124.3052463570001, 39.99437043700004], [124.18591528800005, 39.93689856700007], [124.15827651900008, 39.873497960000066], [123.96942453400004, 39.80673539900005], [123.93515846600008, 39.845617796000056], [123.8336934780001, 39.843227349000074], [123.83223067500012, 39.86877821600007], [123.697938668, 39.82605067600008], [123.60293406300002, 39.866374466000025], [123.51589949900006, 39.77342745300007], [123.49662386500006, 39.808883982000054], [123.43086981800002, 39.79450419900007], [123.41733500400005, 39.74505384100007], [123.3775072310001, 39.732640220000064], [123.36216856300007, 39.804852863000065], [123.3307415700001, 39.77800378500007], [123.23119753000003, 39.806705011000076], [123.22364759800007, 39.76301410000008], [123.16537055100002, 39.72784722800003], [123.21151744000008, 39.727930284000024], [123.24685330200009, 39.686445158000026], [123.1764569820001, 39.70049919500008], [123.095085304, 39.65756330500005], [123.05384387400011, 39.69321995900003], [123.05259043700005, 39.671596186000045], [122.92781173700007, 39.66532232600008], [122.95673063200002, 39.642651863000026], [122.93133982400002, 39.621498501000076], [122.80575441000008, 39.62425940300005], [122.77402158900009, 39.57921494200008], [122.67375946800007, 39.558657184000026], [122.64020995200008, 39.50923675900003], [122.61361686200007, 39.53886091800007], [122.55774367000004, 39.463417797000034], [122.5206303010001, 39.47315883400006], [122.44311277300005, 39.41233295700005]]]]}}, {"type": "Feature", "properties": {"id": "丰州滩", "name": "丰州滩", "color": "#8e9a8b", "owner": "蒙古", "units": ["丰州滩"], "label_lon": 111.297, "label_lat": 41.597}, "geometry": {"type": "Polygon", "coordinates": [[[111.37756293600006, 39.62358022500007], [111.43363698400009, 39.54935606000004], [111.32856951600007, 39.400145776000045], [111.13629821600006, 39.40196327600006], [111.07539696500004, 39.481976049000025], [111.12753852700007, 39.571772777000035], [111.09215455900005, 39.58091341100004], [110.81523858500009, 39.46964704100003], [110.72831533900006, 39.397618813000065], [110.71459243000004, 39.315438466000046], [110.66339471000003, 39.256446753000034], [110.52115952100007, 39.31012953100003], [110.42187279500007, 39.40899209500003], [110.31152872600006, 39.591880701000036], [110.28002897500005, 39.61339442800005], [110.17858957300007, 39.573047743000075], [110.09718937300005, 39.60501034500004], [110.15460020300009, 39.741997326000046], [110.28261025400008, 39.73898926500004], [110.35953296400004, 39.805643608000025], [109.96043946000009, 39.978187502000026], [109.84356764900008, 39.89069987600004], [109.56090075800006, 39.928436773000044], [109.48791009300004, 39.901592289000064], [109.20952555300005, 39.94857596000003], [109.16567370700005, 39.970973609000055], [109.15563856500006, 40.04362014700007], [109.07803912400004, 40.05654211700005], [109.05523535500004, 40.10602740500008], [109.04877659000005, 40.16439884500005], [109.09825349300007, 40.252935130000026], [108.98751777400008, 40.377415738000025], [109.02956643700008, 40.56665083900003], [108.94690259200007, 40.53534171200005], [108.85866894500003, 40.59604372500007], [108.77663211000004, 40.53085201500005], [108.70437886700006, 40.619233300000076], [108.56247066400005, 40.642378447000056], [108.55276649900009, 40.70983768000008], [108.43550271800007, 40.73925135300004], [108.37139322100006, 40.809146388000045], [108.30548701100008, 40.77455534100005], [108.18384193200006, 40.80370903100004], [108.13669426900009, 40.852218066000034], [108.20470095700006, 40.90053641900005], [108.44426492400004, 40.964513372000056], [108.50486963900005, 41.04721162800007], [108.62423110900005, 41.08543584500006], [108.53159742900004, 41.17079183800007], [108.74563133600009, 41.14785216100006], [108.95167632300007, 41.23995985800008], [109.23452448100005, 41.19208978800003], [109.36836637000005, 41.244083842000066], [109.48891003400007, 41.19886916000007], [109.61496288500007, 41.232883005000076], [109.67228138000007, 41.31565260600007], [109.64006402200005, 41.457657073000064], [109.42210803400008, 41.51031424700005], [109.40487959500007, 41.60072331400005], [109.27351111500008, 41.82071313400007], [109.33423639000006, 41.91097781900004], [109.34862262800004, 42.017817971000056], [109.49087641800008, 42.24207411300006], [109.46512939800004, 42.32125864200003], [109.35512023900009, 42.42908636400006], [109.42369971800008, 42.432040004000044], [109.68572318400004, 42.58341855800006], [110.05120176000008, 42.62724376800003], [110.35803956000007, 42.74861226300004], [110.98205398800008, 43.319952930000056], [111.26128942400004, 43.393518748000076], [111.36336679300007, 43.45340224100005], [111.54869240200009, 43.46556424600004], [111.75594759100005, 43.63910317500006], [111.87302011900005, 43.66958215400007], [112.10668305600007, 43.43327444400006], [112.179335379, 43.419314488000055], [112.08462881600008, 43.73762293900006], [112.34630831900006, 43.65399113600006], [112.42396741800007, 43.68356711600006], [112.56786001600005, 43.60407098400003], [112.73351649200004, 43.59181930200003], [112.89697001000002, 43.52680649900003], [113.08901141000001, 43.559086138000055], [113.314606905, 43.492922742000076], [113.4784935880001, 43.49131227700008], [113.53367935400001, 43.33795405800004], [113.93738559600001, 42.91229115600004], [114.23184337000009, 42.75467022400005], [114.13608590500007, 42.692504419000045], [114.00040694400002, 42.681811012000026], [113.87069586500002, 42.604984767000076], [113.77273492300003, 42.49825804100004], [113.54160267700001, 42.35965550200007], [113.40782269200008, 42.19786175400003], [113.4324064330001, 42.17409343800006], [113.15661691800005, 41.98718553600003], [113.21646452700008, 41.90455402200007], [113.21188074400004, 41.87298952400005], [113.1362782220001, 41.84163076400006], [113.14699904100007, 41.775254817000075], [113.21008469100002, 41.70174862500005], [113.24372228700008, 41.56247196800007], [113.29086419500004, 41.51322423000005], [113.37076328, 41.61143236200007], [113.41878565900004, 41.50963763400006], [113.42091573000005, 41.47643672300006], [113.294205, 41.47118865400006], [113.27543261700009, 41.41275656400006], [113.39962206900009, 41.426921793000076], [113.47360067800003, 41.39377635900007], [113.34118532600007, 41.29126542100005], [113.39011736600003, 41.17570544900008], [113.21160854400011, 41.15411603100006], [113.10963988000003, 41.21194463100005], [112.806481598, 41.102025628000035], [112.77064007000001, 41.07377789700007], [112.83568694500002, 41.05284784500003], [112.83683374300006, 40.97139555800004], [112.927806024, 40.92577574200004], [112.85884922200012, 40.82281465900007], [112.87621086400009, 40.758568136000065], [112.80054105300007, 40.73310721400003], [112.72567883800002, 40.75581784800005], [112.68656278600008, 40.69598542600005], [112.56144503200005, 40.67812202700003], [112.49122925600011, 40.63432477600003], [112.35077203100002, 40.67668990300007], [112.28320326700009, 40.755388065000034], [112.16202512000007, 40.82434205100003], [112.1000537760001, 40.74092715900008], [112.03855417300008, 40.540340911000044], [112.1637240450001, 40.45298239400006], [112.2883235600001, 40.24622898400003], [112.14769600000011, 40.153397305000055], [112.07476171700011, 40.056332834000045], [111.91192713100008, 39.656771039000034], [111.37756293600006, 39.62358022500007]]]}}, {"type": "Feature", "properties": {"id": "宣府镇", "name": "宣府镇", "color": "#c7a76c", "owner": "明", "units": ["宣府镇"], "label_lon": 114.742, "label_lat": 40.859}, "geometry": {"type": "Polygon", "coordinates": [[[114.50248131500007, 39.55293950200007], [114.36256610100008, 39.701673725000035], [114.39921298700006, 39.801478950000046], [114.36984043500001, 39.85972393900005], [114.13054403100011, 39.87641707000006], [113.9585545870001, 39.99199260900008], [113.90498217100003, 39.99357928100005], [113.95045798700005, 40.09553876700005], [114.06357539600003, 40.06458660200008], [114.06323303600004, 40.16981390900003], [114.20116061600004, 40.21330593400006], [114.32290922400011, 40.212864927000055], [114.49060135800005, 40.29863457700003], [114.27745023500006, 40.36968844900008], [114.22076041900004, 40.60199022900008], [114.13100258800011, 40.66347598700003], [113.91940857000009, 41.01529970900003], [113.82509825600005, 41.07227414600004], [114.00790247600003, 41.226586732000044], [113.72620394500007, 41.33256027400006], [113.60302515, 41.32204589000003], [113.63553879300002, 41.41331397500005], [113.59815984200009, 41.43048627200005], [113.47360067800003, 41.39377635900007], [113.39962206900009, 41.426921793000076], [113.27543261700009, 41.41275656400006], [113.294205, 41.47118865400006], [113.42091573000005, 41.47643672300006], [113.41878565900004, 41.50963763400006], [113.37076328, 41.61143236200007], [113.29086419500004, 41.51322423000005], [113.24372228700008, 41.56247196800007], [113.21008469100002, 41.70174862500005], [113.14699904100007, 41.775254817000075], [113.1362782220001, 41.84163076400006], [113.21188074400004, 41.87298952400005], [113.21646452700008, 41.90455402200007], [113.15661691800005, 41.98718553600003], [113.4324064330001, 42.17409343800006], [113.86674181700005, 42.055546873000026], [113.90078840700005, 41.94909198200003], [113.94799656400005, 41.948826645000054], [114.0624051960001, 42.00429532900006], [114.05012338800009, 42.06856115700003], [114.075590895, 42.099849961000075], [114.17360243400003, 42.128437903000076], [114.2723906010001, 42.20284488400006], [114.40000363600006, 42.12006867100007], [114.42089694700007, 42.15424259500003], [114.39013765400011, 42.21942735700003], [114.65042942600007, 42.26378804900003], [114.6815910570001, 42.20955040900003], [114.76973109800008, 42.18862204700008], [114.85172738100005, 42.10662199700005], [114.9031514940001, 41.930226710000056], [114.91451215200004, 41.84745889000004], [114.8717940460001, 41.78047222400005], [114.8623690180001, 41.60618873000004], [114.81799558400007, 41.52292423600005], [114.83946129300011, 41.492089220000025], [114.91799577100005, 41.46873151600005], [114.90959405000001, 41.503105246000075], [115.00561942600007, 41.51011749000003], [115.28655757000001, 41.447493585000075], [115.43602097400003, 41.31927048500006], [115.44797174100006, 41.24977237100006], [115.72773894500006, 41.33141633100007], [115.8446505170001, 41.21635979500007], [115.90219576200002, 41.20913637800004], [116.03822016800007, 41.35478409500007], [116.13022121900008, 41.34466632600004], [116.16616645900001, 41.31923446300004], [116.2595558920001, 40.99602173400007], [116.32454414000006, 40.906772369000066], [116.2976152230001, 40.91040229500004], [116.30017091600007, 40.87930204000003], [116.45498430100008, 40.739688855000054], [116.20872542500001, 40.74156206200007], [116.03777952300004, 40.577908740000055], [115.89819042200008, 40.585918821000064], [115.70875761500008, 40.49903163300007], [115.77506781800002, 40.39483088900005], [115.92809581300003, 40.26699652700006], [115.92231544900005, 40.216777378000074], [115.85895350500004, 40.18021757200006], [115.85422006500005, 40.14499947200005], [115.60455706500011, 40.10366304900003], [115.52153312000007, 40.03404046700007], [115.40843299100004, 40.01582855400005], [115.42297197900007, 39.93760108200007], [115.28531208000004, 39.74043549100003], [115.0796114210001, 39.649261909000074], [115.02647472100011, 39.572074361000034], [115.0444561590001, 39.54277823500007], [114.9896779930001, 39.49820840800004], [115.01988945000005, 39.45825340500005], [115.01489584, 39.37416148300008], [114.9763186560001, 39.30680856500004], [114.85027631100002, 39.24406701400005], [114.83377785300002, 39.169240890000026], [114.870670012, 39.12038830500006], [114.8420166950001, 39.08720221900006], [114.59224140700007, 39.12539530200007], [114.45584426900007, 39.01147593400003], [114.25485316200002, 39.09147631700006], [114.31134173900011, 39.09320566700006], [114.31319921700003, 39.13469033600006], [114.43752181700006, 39.17644564100004], [114.39600640300011, 39.27211943800006], [114.45451326300008, 39.363336031000074], [114.50248131500007, 39.55293950200007]]]}}, {"type": "Feature", "properties": {"id": "甘肃镇", "name": "甘肃镇", "color": "#c7a76c", "owner": "明", "units": ["甘肃镇"], "label_lon": 101.005, "label_lat": 39.131}, "geometry": {"type": "Polygon", "coordinates": [[[100.48987705700006, 37.01734584700006], [100.26069831200005, 37.22487693800008], [100.22640567200006, 37.18825207500004], [100.11874127400006, 37.18002591800007], [99.99445540900007, 37.212358177000056], [99.82178218400009, 37.17585324600003], [99.76036005100008, 37.11397407700008], [99.84963451900006, 36.94453274600005], [99.56381414500004, 37.11160834300006], [99.45031392200008, 37.13876187400007], [99.48928923500006, 37.07954637700004], [99.47304722200005, 37.04467065000006], [99.32115076200006, 37.09122566600007], [99.26012659100007, 37.05146476700003], [99.26467182900006, 36.992491044000076], [99.22445043900007, 36.99339306000007], [99.06738687600006, 37.07976179600007], [98.78237240300007, 37.076458064000064], [98.72616458200008, 37.23104272900008], [98.52280589400004, 37.33050547000005], [98.32544857900007, 37.29083018700004], [98.17853777200008, 37.306555082000045], [98.14085965800007, 37.33502585700006], [98.01521008600008, 37.691692415000034], [97.90698794800005, 37.75120156300005], [97.75838401100003, 37.92506098800004], [97.78615188300006, 38.279225059000055], [97.63059112600007, 38.399185670000065], [97.43553270000007, 38.42962098700008], [97.33059324800007, 38.540988577000064], [97.31233320500007, 38.63356711500006], [97.14488765100003, 38.74812189000005], [97.18228340200005, 39.22146674700008], [97.38066242300005, 39.15490770500003], [97.44184010800006, 39.206533852000064], [97.63242311400006, 39.25264150100003], [97.54089890800003, 39.30781254300007], [97.53345446500003, 39.40599733100004], [97.45933230900005, 39.46573964900006], [97.52809589900005, 39.54763262600005], [97.50874398100007, 39.604273454000065], [97.62693550300008, 39.671182644000055], [97.79398590500006, 39.639879016000066], [97.91746998600007, 39.68668281400005], [98.14200838900007, 40.11299647800007], [98.17112378200005, 40.48303290000007], [98.28889065200008, 40.52784606700004], [98.65788049500009, 40.515705783000044], [98.88055549200004, 40.72692022800004], [99.20564577600004, 40.84100477100003], [99.59887785700005, 40.82970084400006], [99.68232847400009, 40.92003344500006], [100.08039446800007, 40.879650706000064], [100.18787583700004, 40.810555124000075], [100.26889200500005, 40.660415787000034], [100.23402748100006, 40.55907441000005], [100.01797989000005, 40.34808195200003], [100.00205241100008, 40.267414590000044], [100.07482144100004, 40.26210727500006], [100.34834210000008, 40.352397351000036], [100.95001100700006, 40.47244728700008], [101.36912648600008, 40.491324865000024], [101.72064312600008, 40.71403697200003], [102.03624805600003, 40.85098744100003], [102.11173848500005, 40.96469865800003], [102.25371324600007, 41.03229427200006], [102.46235768100007, 41.20654983700007], [102.99652734700004, 42.023460415000045], [103.39683968000008, 41.86504235000007], [103.50728183500007, 41.638830866000035], [103.88391729200004, 41.37447441300003], [103.96847259800006, 41.203922109000075], [104.10104418900005, 41.082017687000075], [104.19435363600007, 40.912489798000024], [104.49847023800004, 40.59407885300004], [104.48898005400008, 40.468213899000034], [104.59711188300008, 40.41484115900005], [104.57841434600005, 40.29208552600005], [104.68167700700008, 40.14043258500004], [104.44353037800005, 40.06798256500008], [104.24860686400007, 39.88858135700008], [104.30336035700009, 39.73640578000004], [104.32333206600003, 39.53503865500005], [104.27947693900006, 39.482473836000054], [104.09378960400005, 39.39861390300007], [104.07953296000005, 39.27348495900003], [104.20733149900008, 39.073827754000035], [104.17999896200007, 38.93631531800003], [104.02318506300008, 38.84751804900003], [103.89664627900004, 38.60598161300004], [103.42454245600004, 38.38905586200008], [103.50591293600007, 38.324816035000026], [103.53765203200004, 38.24068409600005], [103.53339235200008, 38.111161924000044], [103.43096560400005, 38.10721223400003], [103.37732481200004, 38.06378196400004], [103.41922940100005, 37.83526193900008], [102.97768838200005, 37.68980676700005], [102.69954378800008, 37.386553322000054], [102.66137192600007, 37.390432272000055], [102.57713342600005, 37.47077496500003], [102.59824881900005, 37.496178547000056], [102.55996927400008, 37.50094461100008], [102.55326836700004, 37.52915302700006], [102.66590696600008, 37.53493234700005], [102.70670590800006, 37.57054614900005], [102.61349913100008, 37.68639493300003], [102.47534775100007, 37.58396990700004], [102.33262988900003, 37.55823458100008], [102.07946316000005, 37.58105730200003], [102.03309563100004, 37.45606273000004], [102.19477309400008, 37.40911479300007], [102.42538838800004, 37.28085177500003], [102.59492224600007, 37.12299462500005], [102.12269619000006, 37.045492882000076], [101.90739374900005, 37.15560294800008], [101.84069211200006, 36.95738088400003], [101.81343356800005, 36.745457557000066], [101.73067810000003, 36.75470641000004], [101.70234114300007, 36.81368646100003], [101.61712410500007, 36.82413872200004], [101.31841109000004, 37.00428205500003], [101.32890809600008, 36.960229791000074], [101.28979870200004, 36.93843131700004], [101.32350461300007, 36.848568241000066], [101.29574777700009, 36.82861399800004], [101.11092439600009, 36.86391447600005], [100.85468619200009, 36.76686035600005], [100.76063619400009, 36.70019301900004], [100.73048766300008, 36.73043739700006], [100.78378644000009, 36.778583913000034], [100.75787222500009, 36.824169117000054], [100.59269924500006, 36.86434471500007], [100.48987705700006, 37.01734584700006]]]}}, {"type": "Feature", "properties": {"id": "宁夏镇", "name": "宁夏镇", "color": "#c7a76c", "owner": "明", "units": ["宁夏镇"], "label_lon": 106.002, "label_lat": 39.014}, "geometry": {"type": "Polygon", "coordinates": [[[105.46294701200009, 37.10558754200008], [105.36624411800005, 37.101015019000045], [105.30023487300008, 37.01288215000005], [105.15393766400007, 36.965028750000045], [104.95942999000005, 37.05708647800003], [104.85627745500005, 37.21071988500006], [104.66938741700005, 37.222971296000026], [104.61794435500008, 37.27026837000005], [104.76768290800004, 37.34643258700004], [104.81625243100007, 37.41840403700007], [104.66226321400006, 37.39979369200006], [104.10460565100004, 37.442041983000024], [103.85659752100008, 37.59140892700003], [103.71279701200007, 37.74872845900006], [103.42048928000008, 37.83101063500004], [103.37732481200004, 38.06378196400004], [103.43096560400005, 38.10721223400003], [103.53339235200008, 38.111161924000044], [103.53765203200004, 38.24068409600005], [103.50591293600007, 38.324816035000026], [103.42454245600004, 38.38905586200008], [103.89664627900004, 38.60598161300004], [104.02318506300008, 38.84751804900003], [104.17999896200007, 38.93631531800003], [104.20733149900008, 39.073827754000035], [104.07953296000005, 39.27348495900003], [104.09378960400005, 39.39861390300007], [104.27947693900006, 39.482473836000054], [104.32333206600003, 39.53503865500005], [104.30336035700009, 39.73640578000004], [104.24860686400007, 39.88858135700008], [104.44353037800005, 40.06798256500008], [104.68167700700008, 40.14043258500004], [104.57841434600005, 40.29208552600005], [104.59711188300008, 40.41484115900005], [104.48898005400008, 40.468213899000034], [104.49847023800004, 40.59407885300004], [104.19435363600007, 40.912489798000024], [104.10104418900005, 41.082017687000075], [103.96847259800006, 41.203922109000075], [103.88391729200004, 41.37447441300003], [103.50728183500007, 41.638830866000035], [103.39683968000008, 41.86504235000007], [103.86778784000006, 41.76965810200005], [104.54085553800007, 41.85442879500005], [104.54606373300004, 41.626298588000054], [104.92915394200008, 41.635931423000045], [105.00047500600004, 41.561192591000065], [105.26331178300006, 41.73579858700003], [105.19949709500008, 41.39915078100006], [105.28697772900006, 41.23107103400008], [105.29103441800004, 40.950191966000034], [105.35340200400009, 40.83330063600005], [105.49527775200005, 40.806114741000044], [105.73201228500005, 40.83127672100005], [105.89725759700008, 40.74094575100003], [106.18597313800007, 40.713267640000026], [106.25004993200008, 40.75108382800005], [106.33297651300006, 40.89673311700005], [106.40459340100006, 40.91843126500004], [106.47401837700005, 40.86300093500006], [106.49770040400006, 40.76804253800003], [106.57284966000009, 40.783683462000056], [106.81029943500005, 40.72299337900006], [106.88344598300006, 40.673321669000075], [107.02263212200006, 40.644531578000056], [107.09130611400008, 40.584212265000076], [107.17002285700005, 40.38708683800007], [106.89212772100007, 40.19365010400003], [107.09413038500008, 40.05956949500006], [107.13544111400006, 40.00027464100003], [107.22165603400003, 39.99211433600004], [107.42411419300004, 39.892025266000076], [107.55178663300006, 39.88522752800003], [107.87349441100008, 39.79273425900004], [107.96791431700007, 39.79685004500004], [108.44864491700008, 39.64943980000004], [108.68934565100005, 39.54872588100005], [108.89134850100004, 39.38132417200006], [108.83467775100007, 39.280530603000045], [108.55576948300006, 39.16163829800007], [108.52024669500008, 39.011856487000045], [108.45473321900005, 38.92526864700005], [108.50361597400007, 38.81415707800005], [108.49684253700008, 38.705668167000056], [108.38315905500008, 38.11311105300007], [108.33373082000008, 38.056516671000054], [108.31403744200009, 37.95188745000007], [108.35580932000005, 37.85194170800003], [108.48924837600003, 37.75023772800006], [108.53014280100007, 37.66269762600007], [108.28963015900007, 37.63193819300005], [108.27910548400007, 37.58984412500007], [108.35922122500006, 37.386840576000054], [108.19501708700005, 37.28135705200003], [108.26896397100006, 37.19662662800005], [108.23580308000004, 37.17323614900005], [108.17602775100005, 37.13597085200007], [108.15314763700007, 37.166470179000044], [108.12086915400005, 37.15632108800003], [108.08701095500004, 37.093068008000046], [107.91791977500009, 37.08024268300005], [107.88103449900007, 37.09938517300003], [107.85557586800007, 37.191209327000024], [107.78552183000005, 37.22071492300006], [107.66813943300008, 37.10451919700006], [107.69019439200008, 37.04297793200004], [107.65738581300008, 37.02768253000005], [107.71657248700006, 36.96582590500003], [107.68262947100004, 36.949174337000045], [107.71612239900008, 36.85227595600003], [107.51462155800004, 36.81802228200007], [107.48654570700006, 36.88162155800006], [107.26407541700007, 36.92678029600006], [107.28396532200009, 37.096049132000076], [107.22581097300008, 37.08349573100003], [107.08742056700004, 37.12573595300006], [106.95843750800009, 37.092268260000026], [106.89843120500007, 37.125753297000074], [106.84730207900009, 37.10187627000005], [106.75388581100009, 37.153337958000066], [106.71060982700004, 37.09909846800008], [106.61911851900004, 37.10844883500005], [106.64880894100008, 37.276975769000046], [106.50263147500004, 37.49032404600007], [106.15516600500007, 37.49594310900005], [106.07862672100003, 37.54879335100003], [105.96719180100007, 37.388004530000046], [105.95594250000005, 37.29818909100004], [105.82882596000007, 37.321742080000035], [105.80030028400006, 37.30462281400003], [105.79446348200008, 37.211168334000035], [105.69363960600003, 37.15781958300005], [105.53618782900008, 37.22758082200005], [105.46294701200009, 37.10558754200008]]]}}, {"type": "Feature", "properties": {"id": "蓟镇", "name": "蓟镇", "color": "#c7a76c", "owner": "明", "units": ["蓟镇"], "label_lon": 118.369, "label_lat": 40.075}, "geometry": {"type": "MultiPolygon", "coordinates": [[[[118.32431632700002, 38.072770422000076], [118.44291278800006, 38.08803853300003], [118.49833337900009, 37.96385647000005], [118.57640763500001, 38.03197794100004], [118.62304917800009, 38.02634348700008], [118.65130190800005, 38.10206350000004], [118.7017071460001, 38.08714981300005], [118.74954131800007, 38.12465638900005], [118.71386177400007, 38.04671827400006], [118.86329322400002, 38.05152160500006], [118.75571390400012, 38.00799078400007], [118.78715904900002, 37.93926909600003], [118.83284097300009, 38.01113481900006], [118.87546833400006, 38.02278977900005], [118.87994056700006, 37.94587908800003], [118.96343434300002, 37.94311808100008], [118.97100778000004, 37.89484261700005], [118.93185046500002, 37.83972477800006], [118.89393745000007, 37.84851600400003], [118.89901676600005, 37.813592941000024], [118.65869188500005, 37.69650040000005], [118.64075779400002, 37.791740074000074], [118.67410564900001, 37.90034185600007], [118.3753442630001, 37.78857584000008], [118.29894053600003, 37.825079611000035], [118.22526643200001, 37.819995885000026], [118.18697018600005, 37.881150397000056], [118.19603503600001, 37.981056325000054], [118.2269319720001, 38.02851605800004], [118.25799181900004, 38.01371516800003], [118.32431632700002, 38.072770422000076]]], [[[118.8420736060001, 39.106463406000046], [118.9353143400001, 39.155306573000075], [118.94631382900002, 39.14844775600005], [118.8420736060001, 39.106463406000046]]], [[[118.56269136100002, 39.166735033000066], [118.27045595400011, 39.02039098600005], [118.14174853200007, 39.17760754300008], [118.00980349400004, 39.21134915500005], [118.02079576500012, 39.26071182600003], [117.83326238100005, 39.23583438800006], [117.74904498400008, 39.28668967300007], [117.68633912700011, 39.18355209400005], [117.53865320200009, 39.14953574900005], [117.34311396500004, 39.197957845000076], [117.31621946100006, 39.319562864000034], [117.43722932000003, 39.345518380000044], [117.53325037700006, 39.46307225700008], [117.67169078500001, 39.51854196200003], [117.68336601600004, 39.56251443200006], [117.59882800500009, 39.576333644000044], [117.62653166200005, 39.66048275400004], [117.56286976700005, 39.69271643400003], [117.55714033100003, 39.73055644300007], [117.26555934300006, 39.78259335300004], [117.22054696500004, 39.83684941300004], [117.13543880200007, 39.84859344900008], [117.11226707800006, 39.90698756300003], [117.24507419100007, 40.11498437900008], [117.36791553700004, 40.13576172200004], [117.16419847800012, 40.37388739000005], [117.18898146300012, 40.440038549000064], [117.16681088500002, 40.50397940400006], [117.24815046600008, 40.54265509000004], [117.3878543830001, 40.53327427600004], [117.41227941900001, 40.59900258000005], [117.46550171500007, 40.63281481200005], [116.93405048000011, 40.67515454100004], [116.83916761900002, 40.788257877000035], [116.70334888100001, 40.853574120000076], [116.65051595300008, 40.984287633000065], [117.07621451600005, 40.894953661000045], [117.21722199300007, 41.01246825000004], [117.34692765700004, 41.03174097100003], [117.40220898400003, 41.22455376100004], [117.43376049500012, 41.24135933300005], [117.47560164000004, 41.23541343800008], [117.53441575200009, 41.14092696000006], [117.9551420040001, 41.14566431900005], [117.97906395500002, 41.36263269800003], [118.01369929600003, 41.37266993900005], [118.04883488900009, 41.34030479000006], [118.24540674200011, 41.435818819000076], [118.30730667900002, 41.316477777000046], [118.37886638000009, 41.29592646000003], [118.42609646900007, 41.11784548900005], [118.33817954400001, 40.83193601700003], [118.49358566600006, 40.85790584200004], [118.49934284900007, 40.663275491000036], [118.66309005100004, 40.690710360000026], [118.71579273200007, 40.634756468000035], [118.83303610900009, 40.71334490600003], [118.8427941000001, 40.75174942900003], [118.97060787100008, 40.65625214700003], [119.13876135300006, 40.66284655000004], [119.10214646300005, 40.615413524000076], [119.11412558300003, 40.58594331200004], [119.19724852700006, 40.57795264500004], [119.19554796800003, 40.525355802000036], [119.27572774600003, 40.500828858000034], [119.46725130000004, 40.514402940000025], [119.54564617500012, 40.41142181600003], [119.7427979580001, 40.37248486800007], [119.93315803200005, 40.49842157300003], [120.01778340400006, 40.49631842000008], [120.0869543770001, 40.58750896400005], [120.19283766500007, 40.496555933000025], [120.33724776500003, 40.282747837000045], [120.45033566600011, 40.256147388000045], [120.38599554200005, 40.19055983700008], [120.33209356500004, 40.19728753900006], [119.88974368000004, 40.04238729100007], [119.85191808500008, 39.98365366500008], [119.614418827, 39.92801471100006], [119.5706587090001, 39.88769374900005], [119.52093687000001, 39.89742495300004], [119.47975035500008, 39.857802141000036], [119.48709107800005, 39.798623458000066], [119.37646035900002, 39.77452948400003], [119.28399784600003, 39.68867515100004], [119.25681566600008, 39.60204674400006], [119.16379774200004, 39.57031478300007], [119.24636207000003, 39.57477238400003], [119.19699217300001, 39.462556826000025], [119.23932671500006, 39.412825061000035], [119.20048896800006, 39.37932106000005], [119.1277606320001, 39.385031], [118.99389638900004, 39.203457412000034], [118.83989973100006, 39.14663015700006], [118.81183863100011, 39.17457468300006], [118.71002035200002, 39.132312349000074], [118.56269136100002, 39.166735033000066]]]]}}, {"type": "Feature", "properties": {"id": "大同镇", "name": "大同镇", "color": "#c7a76c", "owner": "明", "units": ["大同镇"], "label_lon": 113.453, "label_lat": 40.008}, "geometry": {"type": "Polygon", "coordinates": [[[113.74800910400006, 38.98800004000003], [113.65090415200007, 39.01314060000004], [113.60964965000005, 39.067210860000046], [113.44947387000002, 38.978336349000074], [113.28947964600002, 38.99128697900005], [113.27534736200005, 39.05943834100003], [113.20393298500005, 39.09654924800003], [113.10285757400004, 39.30269042900005], [113.01606210600005, 39.31655710900003], [113.03493030600009, 39.34319221000004], [112.92088136500001, 39.595207532000074], [112.79284991700001, 39.64897152800006], [112.76680599100007, 39.73959052400005], [112.50862062200008, 39.72337996500005], [112.4328908220001, 39.684479913000075], [112.3582266840001, 39.70654378200004], [112.16832595500011, 39.82978776600004], [112.10910943200008, 39.92774281700008], [112.02763437200008, 39.96861503700006], [112.14769600000011, 40.153397305000055], [112.2883235600001, 40.24622898400003], [112.1637240450001, 40.45298239400006], [112.03855417300008, 40.540340911000044], [112.1000537760001, 40.74092715900008], [112.16202512000007, 40.82434205100003], [112.45281058800003, 40.62727577100003], [112.68656278600008, 40.69598542600005], [112.72567883800002, 40.75581784800005], [112.84382167900003, 40.738924018000034], [112.87621086400009, 40.758568136000065], [112.87082423100003, 40.85488756600006], [112.927806024, 40.92577574200004], [112.83683374300006, 40.97139555800004], [112.83568694500002, 41.05284784500003], [112.77064007000001, 41.07377789700007], [113.10963988000003, 41.21194463100005], [113.21160854400011, 41.15411603100006], [113.36192601300002, 41.15729930200007], [113.3936821100001, 41.215107070000045], [113.34118532600007, 41.29126542100005], [113.47360067800003, 41.39377635900007], [113.59815984200009, 41.43048627200005], [113.63553879300002, 41.41331397500005], [113.60302515, 41.32204589000003], [113.72620394500007, 41.33256027400006], [114.00790247600003, 41.226586732000044], [113.82509825600005, 41.07227414600004], [113.91940857000009, 41.01529970900003], [114.13100258800011, 40.66347598700003], [114.22076041900004, 40.60199022900008], [114.27745023500006, 40.36968844900008], [114.49060135800005, 40.29863457700003], [114.32290922400011, 40.212864927000055], [114.20116061600004, 40.21330593400006], [114.06323303600004, 40.16981390900003], [114.06357539600003, 40.06458660200008], [113.95045798700005, 40.09553876700005], [113.90498217100003, 39.99357928100005], [113.9585545870001, 39.99199260900008], [114.13054403100011, 39.87641707000006], [114.36984043500001, 39.85972393900005], [114.39921298700006, 39.801478950000046], [114.36256610100008, 39.701673725000035], [114.50248131500007, 39.55293950200007], [114.45451326300008, 39.363336031000074], [114.39600640300011, 39.27211943800006], [114.43752181700006, 39.17644564100004], [114.31319921700003, 39.13469033600006], [114.31134173900011, 39.09320566700006], [114.25485316200002, 39.09147631700006], [114.45584426900007, 39.01147593400003], [114.51863761300001, 38.93905298800007], [114.70988643800001, 38.88500160500007], [114.73577828700002, 38.843489146000024], [114.72523395700011, 38.73312201700003], [114.78427463100002, 38.65569791200005], [114.84972336600003, 38.637951084000065], [114.85336370800007, 38.54020895600007], [114.82532605900008, 38.49847713100007], [114.62897936400009, 38.463125673000036], [114.5187368070001, 38.63033774200005], [114.33377606400006, 38.70150031000003], [114.11481318200003, 38.658148727000025], [113.97832183900005, 38.66499779500003], [113.80366543500008, 38.761868555000035], [113.81286437200004, 38.81907888200004], [113.75465929200004, 38.86012282400003], [113.7211741000001, 38.937707025000066], [113.74800910400006, 38.98800004000003]]]}}, {"type": "Feature", "properties": {"id": "京师", "name": "京师", "color": "#c7a76c", "owner": "明", "units": ["京师"], "label_lon": 116.316, "label_lat": 38.965}, "geometry": {"type": "Polygon", "coordinates": [[[115.78766572900008, 37.62593894100007], [115.57081040300011, 37.585524658000054], [115.5230902080001, 37.64672654700007], [115.30852098500009, 37.737534760000074], [115.25933668900007, 37.67815146500004], [115.15506206400005, 37.794067029000075], [114.95729669100001, 37.81990060500004], [114.94375771500006, 38.06194509300008], [114.8640015740001, 38.06716278600004], [114.79862968100008, 38.15454618500007], [114.8502365820001, 38.244155086000035], [114.7704821430001, 38.27770643700006], [114.57381488300007, 38.27245614100008], [114.53010011700007, 38.31565766700004], [114.54726869500007, 38.35304900800003], [114.62596902000007, 38.35358421400008], [114.65021151400003, 38.43673754500003], [114.62897936400009, 38.463125673000036], [114.82532605900008, 38.49847713100007], [114.85336370800007, 38.54020895600007], [114.84972336600003, 38.637951084000065], [114.74869563100003, 38.691263983000056], [114.70988643800001, 38.88500160500007], [114.51863761300001, 38.93905298800007], [114.45584426900007, 39.01147593400003], [114.59224140700007, 39.12539530200007], [114.8420166950001, 39.08720221900006], [114.870670012, 39.12038830500006], [114.83377785300002, 39.169240890000026], [114.85027631100002, 39.24406701400005], [114.9763186560001, 39.30680856500004], [115.01489584, 39.37416148300008], [115.01988945000005, 39.45825340500005], [114.9896779930001, 39.49820840800004], [115.0444561590001, 39.54277823500007], [115.02647472100011, 39.572074361000034], [115.0796114210001, 39.649261909000074], [115.28531208000004, 39.74043549100003], [115.42297197900007, 39.93760108200007], [115.40843299100004, 40.01582855400005], [115.52153312000007, 40.03404046700007], [115.60455706500011, 40.10366304900003], [115.85422006500005, 40.14499947200005], [115.85895350500004, 40.18021757200006], [115.92231544900005, 40.216777378000074], [115.92809581300003, 40.26699652700006], [115.77506781800002, 40.39483088900005], [115.70875761500008, 40.49903163300007], [115.89819042200008, 40.585918821000064], [116.03777952300004, 40.577908740000055], [116.20872542500001, 40.74156206200007], [116.45498430100008, 40.739688855000054], [116.36547862900011, 40.80047492700004], [116.2976152230001, 40.91040229500004], [116.4381602850001, 40.87011643500006], [116.40542449500003, 40.948539620000076], [116.53713667500006, 40.96610013900005], [116.55765551200011, 41.02902971100008], [116.62149532100011, 41.05733292900004], [116.70334888100001, 40.853574120000076], [116.83916761900002, 40.788257877000035], [116.93405048000011, 40.67515454100004], [117.46550171500007, 40.63281481200005], [117.41227941900001, 40.59900258000005], [117.3878543830001, 40.53327427600004], [117.24815046600008, 40.54265509000004], [117.16681088500002, 40.50397940400006], [117.18898146300012, 40.440038549000064], [117.16419847800012, 40.37388739000005], [117.36791553700004, 40.13576172200004], [117.24507419100007, 40.11498437900008], [117.11226707800006, 39.90698756300003], [117.13543880200007, 39.84859344900008], [117.22054696500004, 39.83684941300004], [117.26555934300006, 39.78259335300004], [117.55714033100003, 39.73055644300007], [117.56286976700005, 39.69271643400003], [117.62653166200005, 39.66048275400004], [117.59882800500009, 39.576333644000044], [117.68336601600004, 39.56251443200006], [117.67169078500001, 39.51854196200003], [117.53325037700006, 39.46307225700008], [117.43722932000003, 39.345518380000044], [117.31621946100006, 39.319562864000034], [117.34311396500004, 39.197957845000076], [117.53865320200009, 39.14953574900005], [117.68633912700011, 39.18355209400005], [117.74904498400008, 39.28668967300007], [117.83326238100005, 39.23583438800006], [118.02079576500012, 39.26071182600003], [118.00980349400004, 39.21134915500005], [117.82226670900002, 39.17157109400006], [117.69975866900006, 39.09459143500004], [117.73968769300006, 38.97526025600007], [117.6976317430001, 38.97308644900005], [117.54156008500001, 38.76273802600008], [117.55436242700011, 38.721513050000056], [117.50860482500002, 38.60150777500007], [117.76394966600003, 38.29021405200007], [117.6937358350001, 38.27433334600005], [117.68302860500012, 38.19927544900003], [117.77264248900008, 38.23298450100003], [117.76234611100006, 38.18762945700007], [117.8373537110001, 38.19239207500004], [117.83339505300012, 38.13947398800008], [117.88651152900002, 38.12653514900006], [117.8393213280001, 38.10311291900007], [117.95157556200002, 38.10297365100007], [117.86491337100006, 38.07463340100003], [117.997911154, 38.069661014000076], [118.01786752100008, 38.00904452800006], [117.92567921400007, 37.98377329900006], [117.997970043, 37.97507285100005], [118.00542397900006, 37.943111585000054], [117.9622847390001, 37.91229762000006], [117.96482760800006, 37.86621284700004], [117.89577055200004, 37.82246973400004], [117.97179070600009, 37.828437129000065], [117.97152517500001, 37.80687321800008], [117.89530619900006, 37.77286797200003], [117.86006207800006, 37.71020367700004], [117.76515219900011, 37.716018606000034], [117.73857574300007, 37.65730138200007], [117.52117878600006, 37.69172011300003], [117.40487734400006, 37.61339652400005], [117.3196431450001, 37.678805295000075], [117.19515635200003, 37.51394128700008], [117.02102293700011, 37.45629893600005], [116.97520634800003, 37.49828657100005], [116.89447749800001, 37.51081873500004], [116.84880489900002, 37.59445559000005], [116.78425504400002, 37.52287391800007], [116.67095151400008, 37.55795398600003], [116.56736866100005, 37.505210926000075], [116.45183147000012, 37.522476512000026], [116.37943679200009, 37.48620665000004], [116.3471906850001, 37.56802226600007], [116.2793958950001, 37.57529370200007], [116.19308548400011, 37.45260939700006], [116.11244686300006, 37.50716847800004], [115.94149894200007, 37.476628385000026], [115.84872487500002, 37.50763425800005], [115.83604811200007, 37.55594267400005], [115.89589485400006, 37.61099931900003], [115.78766572900008, 37.62593894100007]]]}}, {"type": "Feature", "properties": {"id": "延绥镇", "name": "延绥镇", "color": "#c7a76c", "owner": "明", "units": ["延绥镇"], "label_lon": 109.639, "label_lat": 38.137}, "geometry": {"type": "Polygon", "coordinates": [[[110.46723640300007, 35.869921205000026], [110.52136766600006, 35.835572683000066], [110.34315596000005, 35.76748299600007], [110.28723094800006, 35.715498901000046], [110.22260779500004, 35.71477280300007], [110.13663320900008, 35.79495934400006], [110.11675626100003, 35.892668739000044], [110.04609754100005, 35.92714212300007], [110.04167049700004, 36.006539684000074], [109.75236446500008, 36.00212745300007], [109.70396808300006, 36.06334503000005], [109.70882505400004, 36.17226825800003], [109.60708335000004, 36.17516710900003], [109.57542321800008, 36.22028695300003], [109.40396545400006, 36.11245083500006], [109.16133993300008, 36.12718124300005], [109.05937371200008, 36.157590553000034], [108.97654478800007, 36.26222313300008], [108.84996280400009, 36.332304169000054], [108.38882747400004, 36.46407666700003], [108.32500162500008, 36.524245515000075], [108.19834628900009, 36.566476899000065], [108.30865255800006, 36.78214632400005], [108.26739673400004, 36.85320321100005], [108.29193026500008, 36.879445702000055], [108.39000183200005, 36.87354604300003], [108.55222435300004, 36.96965078900007], [108.50077058200009, 36.98803196700004], [108.53911595700004, 37.040829588000065], [108.52277657600007, 37.190817061000075], [108.45797739500006, 37.21374579900004], [108.47017119100008, 37.24424779800006], [108.40577972700004, 37.36239199700003], [108.37607471400008, 37.344485931000065], [108.27910548400007, 37.58984412500007], [108.28963015900007, 37.63193819300005], [108.53014280100007, 37.66269762600007], [108.48924837600003, 37.75023772800006], [108.35580932000005, 37.85194170800003], [108.31403744200009, 37.95188745000007], [108.33373082000008, 38.056516671000054], [108.38315905500008, 38.11311105300007], [108.49684253700008, 38.705668167000056], [108.50361597400007, 38.81415707800005], [108.45473321900005, 38.92526864700005], [108.52024669500008, 39.011856487000045], [108.55576948300006, 39.16163829800007], [108.83467775100007, 39.280530603000045], [108.89134850100004, 39.38132417200006], [108.68934565100005, 39.54872588100005], [108.44864491700008, 39.64943980000004], [107.96791431700007, 39.79685004500004], [107.87349441100008, 39.79273425900004], [107.55178663300006, 39.88522752800003], [107.42411419300004, 39.892025266000076], [107.22165603400003, 39.99211433600004], [107.13544111400006, 40.00027464100003], [107.09413038500008, 40.05956949500006], [106.89212772100007, 40.19365010400003], [107.17002285700005, 40.38708683800007], [107.14272325200005, 40.44793301400006], [107.19094130300005, 40.48886782100004], [107.18439726800005, 40.55015840400006], [107.22961036000004, 40.563374243000055], [107.25148879500006, 40.64368307500007], [107.36379273200004, 40.645917782000026], [107.67524099500008, 40.79597046500004], [107.71535955200005, 40.84580393300007], [108.00711048300008, 40.85960026500004], [108.13669426900009, 40.852218066000034], [108.18384193200006, 40.80370903100004], [108.30548701100008, 40.77455534100005], [108.37139322100006, 40.809146388000045], [108.43550271800007, 40.73925135300004], [108.55276649900009, 40.70983768000008], [108.56247066400005, 40.642378447000056], [108.70437886700006, 40.619233300000076], [108.77663211000004, 40.53085201500005], [108.85866894500003, 40.59604372500007], [108.94690259200007, 40.53534171200005], [109.02956643700008, 40.56665083900003], [108.98751777400008, 40.377415738000025], [109.09021688600006, 40.28105334800006], [109.04726609500005, 40.13598977400005], [109.07803912400004, 40.05654211700005], [109.15563856500006, 40.04362014700007], [109.16567370700005, 39.970973609000055], [109.48791009300004, 39.901592289000064], [109.56090075800006, 39.928436773000044], [109.84356764900008, 39.89069987600004], [109.96043946000009, 39.978187502000026], [110.35953296400004, 39.805643608000025], [110.28261025400008, 39.73898926500004], [110.15460020300009, 39.741997326000046], [110.09718937300005, 39.60501034500004], [110.17858957300007, 39.573047743000075], [110.28002897500005, 39.61339442800005], [110.31152872600006, 39.591880701000036], [110.48543134900007, 39.34138819000003], [110.37143436200006, 39.30151437200004], [110.38134798100003, 39.23852256200007], [110.71897184300008, 38.89286817400006], [110.76117712300004, 38.89200316800003], [110.85866755700005, 38.72752834700003], [110.99189810400009, 38.64024331600007], [111.20458458800005, 38.71024132700006], [111.23606386800009, 38.591608208000025], [111.36973800900006, 38.56441135800003], [111.37146116300005, 38.39575240200003], [111.43565779900007, 38.35122219200008], [111.33782128800004, 38.17462963600008], [111.46042869100006, 38.13112023900004], [111.50971011200005, 38.08118039400006], [111.47647894600004, 38.042080121000026], [111.54878783000004, 37.90596577100007], [111.46408255900008, 37.882529626000064], [111.41606253500004, 37.788941073000046], [111.45836878800009, 37.66869681400004], [111.49937622800007, 37.64926299600006], [111.50646243100005, 37.52105349400006], [111.57944017700004, 37.40738988900006], [111.56935275300009, 37.37382888700006], [111.47387123900006, 37.33117594400005], [111.43273926000006, 37.34371472500004], [111.39643653600007, 37.304708736000066], [111.63461798900005, 37.15441795500004], [111.97783642900004, 37.132343724000066], [111.88088683700005, 37.04283444200007], [111.71644113000008, 36.97660529800004], [111.71521772000006, 36.939499461000025], [111.78297492500008, 36.923924413000066], [111.83479772900006, 36.95392683000006], [111.91214621900008, 36.86502610600007], [111.99707308200004, 36.82394013700008], [111.95817311600007, 36.77235333300007], [111.99618347600006, 36.68044628100006], [111.77456296800005, 36.695920261000026], [111.62536984500008, 36.641853052000044], [111.66516963200007, 36.474287796000056], [111.62148060500004, 36.43838879300006], [111.44677199100005, 36.478091653000035], [111.38464127200007, 36.52165120500007], [111.30215513100006, 36.228085658000055], [111.10333334400008, 36.20650181900004], [111.02470391400004, 36.10840094900004], [110.85913144400007, 36.090653761000056], [110.75698258400007, 35.99868211000006], [110.46723640300007, 35.869921205000026]]]}}, {"type": "Feature", "properties": {"id": "山西镇", "name": "山西镇", "color": "#c7a76c", "owner": "明", "units": ["山西镇"], "label_lon": 112.709, "label_lat": 38.178}, "geometry": {"type": "Polygon", "coordinates": [[[112.47161062700002, 36.37606784700006], [112.41324844100006, 36.32648255400005], [112.20917337500009, 36.40025157300005], [112.11333466400004, 36.52912684700004], [112.00326179700005, 36.593944296000075], [111.95817311600007, 36.77235333300007], [111.99707308200004, 36.82394013700008], [111.91214621900008, 36.86502610600007], [111.83479772900006, 36.95392683000006], [111.78297492500008, 36.923924413000066], [111.71521772000006, 36.939499461000025], [111.71644113000008, 36.97660529800004], [111.88088683700005, 37.04283444200007], [111.97783642900004, 37.132343724000066], [111.63461798900005, 37.15441795500004], [111.39643653600007, 37.304708736000066], [111.43273926000006, 37.34371472500004], [111.47387123900006, 37.33117594400005], [111.56935275300009, 37.37382888700006], [111.57944017700004, 37.40738988900006], [111.50646243100005, 37.52105349400006], [111.49937622800007, 37.64926299600006], [111.45836878800009, 37.66869681400004], [111.41606253500004, 37.788941073000046], [111.46408255900008, 37.882529626000064], [111.54878783000004, 37.90596577100007], [111.47647894600004, 38.042080121000026], [111.50971011200005, 38.08118039400006], [111.46042869100006, 38.13112023900004], [111.33782128800004, 38.17462963600008], [111.43565779900007, 38.35122219200008], [111.37146116300005, 38.39575240200003], [111.36973800900006, 38.56441135800003], [111.23606386800009, 38.591608208000025], [111.20458458800005, 38.71024132700006], [110.99189810400009, 38.64024331600007], [110.85866755700005, 38.72752834700003], [110.76117712300004, 38.89200316800003], [110.71897184300008, 38.89286817400006], [110.35680677900007, 39.27818958800003], [110.49305037800008, 39.34207103400007], [110.66339471000003, 39.256446753000034], [110.71459243000004, 39.315438466000046], [110.72831533900006, 39.397618813000065], [110.81523858500009, 39.46964704100003], [111.09215455900005, 39.58091341100004], [111.12753852700007, 39.571772777000035], [111.07539696500004, 39.481976049000025], [111.13629821600006, 39.40196327600006], [111.32856951600007, 39.400145776000045], [111.43363698400009, 39.54935606000004], [111.37756293600006, 39.62358022500007], [111.91192713100008, 39.656771039000034], [112.02763437200008, 39.96861503700006], [112.10910943200008, 39.92774281700008], [112.16832595500011, 39.82978776600004], [112.3582266840001, 39.70654378200004], [112.4328908220001, 39.684479913000075], [112.50862062200008, 39.72337996500005], [112.76680599100007, 39.73959052400005], [112.79284991700001, 39.64897152800006], [112.92088136500001, 39.595207532000074], [113.03493030600009, 39.34319221000004], [113.01606210600005, 39.31655710900003], [113.10285757400004, 39.30269042900005], [113.20393298500005, 39.09654924800003], [113.27534736200005, 39.05943834100003], [113.28947964600002, 38.99128697900005], [113.44947387000002, 38.978336349000074], [113.60964965000005, 39.067210860000046], [113.65090415200007, 39.01314060000004], [113.74800910400006, 38.98800004000003], [113.7211741000001, 38.937707025000066], [113.75465929200004, 38.86012282400003], [113.81286437200004, 38.81907888200004], [113.80366543500008, 38.761868555000035], [113.97832183900005, 38.66499779500003], [114.11481318200003, 38.658148727000025], [114.29503542000009, 38.70607272600006], [114.5187368070001, 38.63033774200005], [114.65021151400003, 38.43673754500003], [114.62596902000007, 38.35358421400008], [114.54726869500007, 38.35304900800003], [114.53010011700007, 38.31565766700004], [114.57381488300007, 38.27245614100008], [114.7704821430001, 38.27770643700006], [114.8502365820001, 38.244155086000035], [114.79862968100008, 38.15454618500007], [114.8640015740001, 38.06716278600004], [114.94375771500006, 38.06194509300008], [114.95560058100011, 38.00823345600003], [114.95729669100001, 37.81990060500004], [114.78915073500002, 37.85165374500008], [114.6168064960001, 37.74112018100004], [114.60465150300001, 37.641547510000066], [114.72098119100008, 37.594908915000076], [114.6272750810001, 37.516313600000046], [114.62138510500006, 37.42417707000004], [114.54900081500011, 37.38219262000007], [114.60436761400001, 37.253258378000055], [114.54723305800007, 37.16509196000004], [114.47019903500006, 37.135645848000024], [114.34166932500011, 37.235273595000024], [114.08091763800007, 37.30540012300003], [113.93555061000006, 37.38179439000004], [113.94203101900007, 37.32444732700003], [113.85994147200006, 37.310485346000064], [113.74803679700005, 37.13908864200005], [113.72478936200002, 37.03452383800004], [113.75307092300011, 36.868765249000035], [113.69969085000002, 36.84434996700003], [113.6657097640001, 36.883952280000074], [113.5667891600001, 36.762456771000075], [113.49295481100012, 36.742429722000054], [113.40480785500006, 36.85409967900006], [113.31083257000012, 36.880330736000076], [113.28020636600002, 36.70376537100003], [113.19627999900001, 36.66747418700004], [113.03498466000008, 36.72692071700004], [112.84159357200008, 36.724659021000036], [112.835127123, 36.678139464000026], [112.73103442700005, 36.61569047900008], [112.74147833300003, 36.554666944000076], [112.67428453100001, 36.50655347700007], [112.64912839700003, 36.41454111400003], [112.57507878100012, 36.45015903600006], [112.475194998, 36.44749419300007], [112.47161062700002, 36.37606784700006]]]}}, {"type": "Feature", "properties": {"id": "固原镇", "name": "固原镇", "color": "#c7a76c", "owner": "明", "units": ["固原镇"], "label_lon": 106.186, "label_lat": 35.556}, "geometry": {"type": "Polygon", "coordinates": [[[105.88920492900007, 33.52523309500003], [105.71702725000006, 33.49569085100006], [105.57090294900007, 33.54363797700006], [105.49987898500007, 33.57421903000005], [105.50824520400005, 33.60137253800008], [105.42833212200009, 33.677741053000034], [105.37980790700004, 33.64866377000004], [105.21491424200008, 33.65851082300003], [105.02560609700004, 33.58874644000008], [104.90935521200004, 33.69732339900003], [104.78324532600004, 33.67347620800007], [104.73945979300004, 33.762762837000025], [104.77292980300007, 33.786213006000025], [104.75124635700007, 33.84416027900005], [104.82500985100006, 33.88517243800004], [104.80391641200004, 33.98946566300003], [104.65888521000005, 34.13359162300003], [104.63735883800007, 34.221777254000074], [104.48134526600006, 34.21413497800006], [104.41389808200006, 34.316619942000045], [104.35066386200003, 34.343917099000066], [104.20104470500007, 34.37319791700003], [104.14439384800005, 34.31061959700003], [104.18744994800005, 34.20504931700003], [104.02115670700005, 34.14340971300004], [103.87864657800009, 34.27658940500004], [103.71595539200007, 34.28389496300008], [103.81308921800007, 34.45723231000005], [103.86251138600005, 34.720672888000024], [103.89644958600007, 34.75122537300007], [103.97859886000003, 34.721351123000034], [104.02185355000006, 34.75710780600008], [103.98377064300007, 34.81500032300005], [104.03835757100006, 34.91333875600003], [103.97381435400007, 34.91153394500003], [103.82931597500004, 34.99221889000006], [103.81727222300003, 34.95993634800004], [103.73329106800009, 34.95573572400008], [103.66860717300005, 35.074815397000066], [103.53000305300009, 35.13566033600006], [103.49930200500006, 35.12160367100006], [103.41103982100009, 35.217037840000046], [103.45132966500006, 35.36705667900003], [103.43791589000006, 35.434563549000075], [103.47563568700008, 35.48593746500006], [103.43503002700004, 35.53213035600004], [103.30173252500003, 35.51172769000004], [103.25983639500004, 35.71414810400006], [103.17991822600004, 35.784432663000075], [103.34383737400009, 35.92407513400008], [103.46274402400007, 35.89858497300003], [103.54038123300006, 35.945864372000074], [103.56180589700006, 36.013755711000044], [103.41390186800004, 36.04311348900006], [103.39245591700006, 36.10973313300008], [103.17864059600004, 36.16925387200007], [103.12695266100008, 36.218815996000046], [103.00344130600007, 36.23364205100006], [102.84970906200004, 36.36060215300006], [102.86952338700007, 36.444856171000026], [102.92404237200009, 36.46427119400005], [102.98700443400008, 36.358838141000035], [103.12622927800004, 36.29216001000003], [103.19647893900009, 36.35685152700006], [103.21592978600006, 36.26388236500003], [103.34231969300004, 36.25024754200007], [103.39400476800006, 36.206654952000065], [103.56560465600006, 36.20631199600007], [103.69929390400006, 36.293757552000045], [103.68271107500004, 36.578372899000044], [103.73522627300008, 36.69410172900007], [103.70363583100004, 36.77540067000007], [103.60813714700004, 36.85270056000007], [103.58029224900008, 37.03597279400003], [103.70870124000004, 37.23914454700008], [103.78750033000006, 37.26472521900007], [103.75776785900007, 37.38317594000006], [103.79534093500007, 37.57732700200006], [103.83290137600005, 37.62335292300003], [104.10460565100004, 37.442041983000024], [104.20189917100004, 37.41838463400006], [104.81625243100007, 37.41840403700007], [104.76768290800004, 37.34643258700004], [104.61794435500008, 37.27026837000005], [104.66938741700005, 37.222971296000026], [104.85627745500005, 37.21071988500006], [104.95942999000005, 37.05708647800003], [105.15393766400007, 36.965028750000045], [105.30023487300008, 37.01288215000005], [105.36624411800005, 37.101015019000045], [105.50035236100007, 37.13110114600005], [105.53618782900008, 37.22758082200005], [105.69363960600003, 37.15781958300005], [105.79446348200008, 37.211168334000035], [105.80030028400006, 37.30462281400003], [105.82882596000007, 37.321742080000035], [105.95594250000005, 37.29818909100004], [105.96719180100007, 37.388004530000046], [106.07862672100003, 37.54879335100003], [106.15516600500007, 37.49594310900005], [106.50263147500004, 37.49032404600007], [106.64880894100008, 37.276975769000046], [106.61911851900004, 37.10844883500005], [106.71060982700004, 37.09909846800008], [106.75388581100009, 37.153337958000066], [106.84730207900009, 37.10187627000005], [106.89843120500007, 37.125753297000074], [106.95843750800009, 37.092268260000026], [107.08742056700004, 37.12573595300006], [107.22581097300008, 37.08349573100003], [107.28396532200009, 37.096049132000076], [107.26407541700007, 36.92678029600006], [107.48654570700006, 36.88162155800006], [107.51462155800004, 36.81802228200007], [107.71612239900008, 36.85227595600003], [107.68262947100004, 36.949174337000045], [107.71657248700006, 36.96582590500003], [107.65738581300008, 37.02768253000005], [107.69019439200008, 37.04297793200004], [107.66813943300008, 37.10451919700006], [107.78552183000005, 37.22071492300006], [107.85557586800007, 37.191209327000024], [107.88103449900007, 37.09938517300003], [107.91791977500009, 37.08024268300005], [108.08701095500004, 37.093068008000046], [108.12086915400005, 37.15632108800003], [108.15314763700007, 37.166470179000044], [108.17602775100005, 37.13597085200007], [108.26896397100006, 37.19662662800005], [108.19501708700005, 37.28135705200003], [108.35922122500006, 37.386840576000054], [108.45876145300008, 37.27097290100005], [108.45797739500006, 37.21374579900004], [108.52277657600007, 37.190817061000075], [108.53911595700004, 37.040829588000065], [108.50077058200009, 36.98803196700004], [108.55222435300004, 36.96965078900007], [108.39000183200005, 36.87354604300003], [108.29193026500008, 36.879445702000055], [108.26739673400004, 36.85320321100005], [108.30865255800006, 36.78214632400005], [108.19834628900009, 36.566476899000065], [108.32500162500008, 36.524245515000075], [108.38882747400004, 36.46407666700003], [108.84996280400009, 36.332304169000054], [108.97654478800007, 36.26222313300008], [109.05937371200008, 36.157590553000034], [109.16133993300008, 36.12718124300005], [109.40396545400006, 36.11245083500006], [109.57542321800008, 36.22028695300003], [109.60708335000004, 36.17516710900003], [109.70882505400004, 36.17226825800003], [109.70396808300006, 36.06334503000005], [109.60330078800007, 36.03185215000008], [109.51597614900004, 36.06824387000006], [109.46254092000004, 35.90406111500005], [109.32488634700007, 35.803539999000066], [109.35052908800009, 35.731509876000075], [109.33717968700006, 35.638324117000025], [109.43731200100007, 35.50002170800008], [109.11505699600008, 35.56182578000005], [108.97942888900008, 35.494342510000024], [108.93140713200006, 35.36739444600005], [108.84414462000007, 35.33094428600003], [108.85759390600003, 35.272045484000046], [108.93074964600004, 35.22992709600004], [108.92524550100006, 35.175034018000076], [109.00735463000007, 35.15653660400005], [109.02571117300005, 35.062225384000044], [108.99991099600004, 35.00176045400008], [109.11501963000006, 34.975219254000024], [109.08482059700009, 34.91806072500003], [108.99923442900007, 34.904602503000035], [108.94172631000004, 34.822261077000064], [108.79865757100004, 34.81659667500003], [108.72497246100005, 34.721144432000074], [108.51012531800006, 34.735688819000075], [108.50502177200008, 34.67288435800003], [108.57969669400006, 34.66255440700007], [108.57982891700004, 34.62221190500003], [108.67866655100005, 34.540383415000065], [108.69185257600009, 34.45075097800003], [108.52102959700005, 34.43515675300006], [108.33179865200009, 34.33109015700006], [108.32763440900004, 34.23989577800006], [108.21836012100005, 34.18358746900003], [108.04803201600004, 34.252171746000045], [107.99476710100004, 34.21651930100006], [108.01352243800005, 34.13930340400003], [107.91831869900005, 33.977535268000054], [107.81207542200008, 33.97173430300006], [107.70952977500008, 33.913068321000026], [107.70139176900005, 33.83837377400005], [107.65278528700009, 33.77273921500006], [107.67622910200004, 33.715809816000046], [107.43641511700008, 33.64272331600006], [107.26690445200006, 33.70605927500003], [107.32052443700007, 33.798501299000066], [107.18473745400007, 33.76709896400007], [107.05186638900005, 33.85204000700003], [106.98573986500008, 33.80043188500008], [106.88272600700009, 33.858040112000026], [106.79860378000006, 33.81278690500005], [106.76105552100006, 33.66788183600005], [106.71668682000006, 33.68673684700008], [106.56714509900007, 33.57783707500005], [106.54182169300009, 33.51705092900005], [106.44227267200006, 33.54017952800007], [106.40603143900006, 33.615426471000035], [106.16284149400008, 33.54867047700003], [106.13340949800005, 33.59123336300007], [106.04033054100006, 33.61312583000006], [105.88920492900007, 33.52523309500003]]]}}]}