{"type": "FeatureCollection", "_meta": {"topic": "ming-dynasty-nine-borders", "year": 1636, "method": "用的是现代行政界、不是当年的界线，底图基于现代中国县级行政边界，军镇辖域映射至对应现代县域", "max_km": 260.0, "units_total": 11, "units_matched": 11, "units_missing": [], "counties_placed": 464, "counties_outside": 2635, "control_sha1": "6539837e4ced5eb2", "gazetteer_sha1": "c7a3333685a48394", "built_from": {"control": "ming-dynasty-nine-borders_control.json", "units": "ming-dynasty-nine-borders_province_gazetteer.json"}}, "features": [{"type": "Feature", "properties": {"id": "辽东镇", "name": "辽东镇", "color": "#995c5c", "owner": "后金", "units": ["辽东镇"], "label_lon": 122.035, "label_lat": 41.897}, "geometry": {"type": "MultiPolygon", "coordinates": [[[[122.93923065500007, 39.49138572100003], [122.90560498700006, 39.52174842200003], [122.93080748200009, 39.549255241000026], [122.99275092300002, 39.52887502400006], [122.93923065500007, 39.49138572100003]]], [[[121.92144838000002, 39.404518746000065], [121.70542431700005, 39.38063966000004], [121.66457228900003, 39.405833431000076], [121.65589244500006, 39.37220299400008], [121.60676973800003, 39.358288067000046], [121.45961750000004, 39.374296177000076], [121.40680304000011, 39.49082146000006], [121.47468101700008, 39.50868082300008], [121.52669609400004, 39.59837994700007], [121.49949972700006, 39.67573174700004], [121.42208759000005, 39.74186988800005], [121.4304127050001, 39.79815937300003], [121.4964557720001, 39.86684120800004], [121.57332988500002, 39.86946207500006], [121.65886133400011, 39.921062118000066], [121.73443980200011, 39.914654417000065], [121.8082670550001, 39.96807509000007], [121.83374830800005, 39.99937856400004], [121.78654806100008, 40.00884884300007], [121.79824118500005, 40.029573130000074], [121.86309351500006, 40.047549262000075], [121.9098165580001, 40.11322393900008], [121.96694657600005, 40.12005079000005], [121.95032473900005, 40.17762004200006], [122.02223461400001, 40.18496290200005], [122.05812928300008, 40.24250004900006], [122.04496683600007, 40.290734404000034], [122.15373538300003, 40.360011658000076], [122.157172564, 40.41224744300007], [122.23453737500006, 40.44438270300003], [122.23243462000005, 40.51523471200005], [122.1147311530001, 40.59984418400006], [122.09874900500006, 40.68458198800005], [121.93755342500003, 40.808121045000064], [121.91687143700005, 40.77818952300004], [121.90118445700011, 40.795835759000056], [121.9524010560001, 40.871173707000025], [121.91790938800011, 40.86325455900004], [121.91819823300011, 40.95926872100006], [121.84372955300012, 40.99550681000005], [121.8246600120001, 41.055106745000046], [121.79305505600007, 40.97895146800005], [121.7656127350001, 41.05646393200004], [121.72900803000005, 41.04323076800006], [121.70608257100002, 40.98264320800007], [121.67350096500002, 40.987182906000044], [121.71916309500011, 40.92357288000005], [121.679689671, 40.92325791300004], [121.71488306200001, 40.89584872000006], [121.63424109300001, 40.908030316000065], [121.57999190800001, 40.85911071700008], [121.45475460600005, 40.93463534400007], [121.37761680800008, 40.904715434000025], [121.26216063600009, 40.96476647700007], [121.23289361800005, 40.941764145000036], [121.269745682, 40.91616561700005], [121.13637335700002, 40.93861804100004], [121.0255981790001, 40.81976273600003], [120.94492668500004, 40.83153140100006], [120.88129087100003, 40.77315529900005], [120.88002542700008, 40.74701448500008], [120.98033851100001, 40.71021895900003], [120.80617641000003, 40.68489086500006], [120.69678383100006, 40.560342639000055], [120.63794360200006, 40.54223164700005], [120.61414516800005, 40.48526232200004], [120.49841903900005, 40.399085298000045], [120.51010961300005, 40.368367582000076], [120.5529125060001, 40.377792130000046], [120.47185768400004, 40.320618359000036], [120.45033566600011, 40.256147388000045], [120.33724776500003, 40.282747837000045], [120.19283766500007, 40.496555933000025], [120.0869543770001, 40.58750896400005], [120.12025577300005, 40.64289129200006], [120.23116422800001, 40.678970787000026], [120.26611026100011, 40.814268619000075], [120.19218068900011, 40.905583095000054], [120.14338636100001, 40.881558521000045], [120.143345941, 40.97286507000007], [120.00972638600001, 41.093514440000035], [119.92106599800002, 41.26790652900007], [119.8511935790001, 41.31155024900005], [119.88093509200007, 41.50572730600004], [119.77666845100009, 41.49112887300004], [119.70285895200004, 41.44367814100008], [119.72482424500004, 41.34826890800008], [119.70029216300009, 41.28618332000008], [119.52053280500002, 41.29208029800003], [119.39990905500008, 41.33718521800006], [119.37917274100005, 41.40429067900004], [119.32267775100001, 41.44025398900004], [119.3460181260001, 41.479784196000026], [119.30279113000006, 41.53834057000006], [119.34119873600002, 41.60671586900003], [119.27834039200002, 41.645003159000055], [119.26233209500003, 41.78506461300003], [119.303953836, 41.976835331000075], [119.35645636100003, 42.053578696000045], [119.217003685, 42.19595097000007], [119.30583398700003, 42.28884029000005], [119.46723431900011, 42.34577061200008], [119.62231832500004, 42.565209408000044], [119.57888808900009, 42.636273017000065], [119.44460128900005, 42.62473588300003], [119.31640676500001, 42.675404720000074], [119.27285958000004, 42.65615474700007], [119.27660987400009, 42.629074649000074], [119.35330044300008, 42.578307679000034], [119.25030638200008, 42.50411481700007], [119.20608928700005, 42.49275583000008], [119.17121299000007, 42.52314293500007], [118.93956201600008, 42.43727734200007], [118.98073028600004, 42.50993911900008], [118.88642491100006, 42.52671376600006], [118.74356946900002, 42.49346318600004], [118.6619494790001, 42.561293395000064], [118.47273350500006, 42.597125326000025], [118.378404208, 42.58031675900003], [118.12120273300002, 42.643979847000026], [117.94774510700006, 42.606481631000065], [117.83729733900009, 42.619919708000054], [117.81974774300011, 42.65014521000006], [117.85449570500009, 42.67734039900006], [118.32901435300005, 42.89347453700003], [118.27990879300012, 42.98971467700005], [118.3335366870001, 43.101396762000036], [118.2937936080001, 43.19886676500005], [118.32612135500005, 43.22293157800004], [118.31635849200006, 43.25986300900007], [119.03993724400004, 43.20520828100007], [119.27635348800004, 43.25887714100003], [119.59551914200006, 43.25097117400003], [119.9748673900001, 43.34901523900004], [120.32233211500011, 43.353614649000065], [120.60956262700006, 43.43143166100003], [120.93902486700006, 43.63049805300005], [120.95185409800001, 43.67120002900003], [120.804998296, 43.733679755000026], [120.78794676600012, 43.86435710400008], [121.09004888900006, 43.82652870700008], [121.10958857500009, 43.85307937700003], [121.06445125400012, 43.90537059900004], [121.0844970600001, 43.969489526000075], [121.06162175100008, 44.038374142000066], [121.2881624040001, 44.13503099600007], [121.52080626500003, 44.022246033000044], [121.67649306500005, 43.83081078200007], [121.75509633700005, 43.781161317000056], [121.84505712700002, 43.78982481600008], [121.99850621700011, 43.739387263000026], [122.04807557700008, 43.680736366000076], [122.18154937000008, 43.791347967000036], [122.34439781200001, 43.862756982000064], [122.32053882000002, 43.891594680000026], [122.36647815000003, 43.91775225500004], [122.56727506700008, 43.94150679400008], [122.60516637700005, 43.91352261000003], [122.56392140800006, 43.80746059000006], [122.60692400100004, 43.78833722200005], [122.79541316900008, 43.81757053600006], [122.9460884670001, 43.78269101200004], [122.97489173200006, 43.76141867100006], [122.96952199800012, 43.69686321300003], [123.23537524400001, 43.54627592000003], [123.32233060500005, 43.533548075000056], [123.30672611900002, 43.438758034000045], [123.48037291100002, 43.366508116000034], [123.47791638800004, 43.42543606400005], [123.66141480700003, 43.38132748100003], [123.65353110400008, 43.41145609000006], [123.70535303100007, 43.41937104200008], [123.73188725400007, 43.48524363400003], [123.82524078900008, 43.46572112400003], [123.8520702290001, 43.35887131100003], [124.04257273500002, 43.26601240700006], [124.10280765800007, 43.27155685900004], [124.21166682600006, 43.18764801400005], [124.2644498630001, 43.18759994700008], [124.36825238400002, 43.06185788600004], [124.39797029400006, 43.07222547500004], [124.29802412900005, 42.95691761100005], [124.40099647900001, 42.92732703100006], [124.40431724400003, 42.88837194900003], [124.36367437100012, 42.88543894800006], [124.42836917500006, 42.840535818000035], [124.4265733740001, 42.76605221800003], [124.25585019300001, 42.672149958000034], [124.26529967600004, 42.63946014900006], [124.3263731180001, 42.55528200500004], [124.49653225600002, 42.48726734400003], [124.68025617800004, 42.51369959600004], [124.815107183, 42.45683459400004], [124.80857812300007, 42.41481226700006], [124.73973592300001, 42.375052663000076], [124.7679517140001, 42.347068885000056], [124.71981349500004, 42.302064793000056], [124.55120022800008, 42.32141408100006], [124.48930840900005, 42.22172018300006], [124.52004417900002, 42.105190941000046], [124.44858115800002, 42.04754602500003], [124.32005772900004, 42.00949248100005], [124.33094161300005, 41.98129810800003], [124.44289938100007, 41.931130507000034], [124.5027865510001, 41.84516830900003], [124.65325429600011, 41.85624934700007], [124.71065738900006, 41.77742730500006], [124.95610547800004, 41.80008636800005], [125.24599897900009, 41.92930630300003], [125.24189189600008, 41.82545461400008], [125.2835809710001, 41.768597001000046], [125.26299695000012, 41.69270450400006], [125.4202420790001, 41.67484648100003], [125.43893231200002, 41.557343443000036], [125.23694337200004, 41.44464318200005], [124.89993186700008, 41.480180725000025], [124.83161910900003, 41.40154314600005], [124.82323678500006, 41.30409393600007], [124.67944060900004, 41.21178009500005], [124.66394921100004, 41.10544477700006], [124.46301384800006, 41.04345085500006], [124.53066076800008, 40.89254311000008], [124.47551750200012, 40.840629671000045], [124.50340859800008, 40.775166014000035], [124.44645528700005, 40.72579239400005], [124.37882374300011, 40.564063633000046], [124.42277854600002, 40.348840651000046], [124.20799552000005, 40.263409755000055], [124.14361807900002, 40.098127626000064], [124.2306591900001, 40.06058281800006], [124.26304170000003, 39.99699225200004], [124.31501916600007, 40.01263737100004], [124.18591528800005, 39.93689856700007], [124.10511374900011, 39.83634406600004], [123.96942453400004, 39.80673539900005], [123.93515846600008, 39.845617796000056], [123.8336934780001, 39.843227349000074], [123.83223067500012, 39.86877821600007], [123.697938668, 39.82605067600008], [123.60293406300002, 39.866374466000025], [123.51589949900006, 39.77342745300007], [123.49662386500006, 39.808883982000054], [123.43086981800002, 39.79450419900007], [123.41733500400005, 39.74505384100007], [123.3775072310001, 39.732640220000064], [123.36216856300007, 39.804852863000065], [123.3307415700001, 39.77800378500007], [123.23119753000003, 39.806705011000076], [123.22364759800007, 39.76301410000008], [123.16537055100002, 39.72784722800003], [123.21151744000008, 39.727930284000024], [123.24685330200009, 39.686445158000026], [123.1764569820001, 39.70049919500008], [123.095085304, 39.65756330500005], [123.05384387400011, 39.69321995900003], [123.05259043700005, 39.671596186000045], [122.92781173700007, 39.66532232600008], [122.95673063200002, 39.642651863000026], [122.93133982400002, 39.621498501000076], [122.80575441000008, 39.62425940300005], [122.77402158900009, 39.57921494200008], [122.67375946800007, 39.558657184000026], [122.64020995200008, 39.50923675900003], [122.61361686200007, 39.53886091800007], [122.55774367000004, 39.463417797000034], [122.5206303010001, 39.47315883400006], [122.44311277300005, 39.41233295700005], [122.34711102400001, 39.42376337300004], [122.20581426900003, 39.31068871000008], [121.92740298700005, 39.28245735000007], [121.81795968600011, 39.368305873000054], [121.92144838000002, 39.404518746000065]]]]}}, {"type": "Feature", "properties": {"id": "宣府镇", "name": "宣府镇", "color": "#7a8664", "owner": "大明", "units": ["宣府镇"], "label_lon": 115.044, "label_lat": 41.565}, "geometry": {"type": "Polygon", "coordinates": [[[115.01168630200004, 39.67728932600005], [114.8270032910001, 39.59940733800005], [114.71105495800009, 39.635936439000034], [114.56967524800007, 39.543811779000066], [114.49821740300001, 39.53913086700004], [114.36256610100008, 39.701673725000035], [114.39921298700006, 39.801478950000046], [114.36984043500001, 39.85972393900005], [114.13054403100011, 39.87641707000006], [113.9585545870001, 39.99199260900008], [113.90498217100003, 39.99357928100005], [113.95045798700005, 40.09553876700005], [114.06357539600003, 40.06458660200008], [114.06323303600004, 40.16981390900003], [114.20116061600004, 40.21330593400006], [114.32290922400011, 40.212864927000055], [114.49060135800005, 40.29863457700003], [114.27745023500006, 40.36968844900008], [114.22076041900004, 40.60199022900008], [114.13100258800011, 40.66347598700003], [113.91940857000009, 41.01529970900003], [113.82509825600005, 41.07227414600004], [114.00790247600003, 41.226586732000044], [113.72620394500007, 41.33256027400006], [113.60302515, 41.32204589000003], [113.63553879300002, 41.41331397500005], [113.59815984200009, 41.43048627200005], [113.47360067800003, 41.39377635900007], [113.39962206900009, 41.426921793000076], [113.27543261700009, 41.41275656400006], [113.294205, 41.47118865400006], [113.42091573000005, 41.47643672300006], [113.41878565900004, 41.50963763400006], [113.37076328, 41.61143236200007], [113.29086419500004, 41.51322423000005], [113.24372228700008, 41.56247196800007], [113.21008469100002, 41.70174862500005], [113.14699904100007, 41.775254817000075], [113.1362782220001, 41.84163076400006], [113.21188074400004, 41.87298952400005], [113.21646452700008, 41.90455402200007], [113.15661691800005, 41.98718553600003], [113.4324064330001, 42.17409343800006], [113.40782269200008, 42.19786175400003], [113.54160267700001, 42.35965550200007], [114.00040694400002, 42.681811012000026], [114.13608590500007, 42.692504419000045], [114.23184337000009, 42.75467022400005], [114.37155215200005, 42.76556621700007], [114.4121931730001, 42.81794104200003], [114.6445769610001, 42.83212809400004], [115.007414132, 43.00517163000006], [115.01844052600006, 43.03864967700008], [115.19304160000002, 43.07792021700004], [115.2260889480001, 43.05561969900003], [115.99653513200008, 43.098342012000046], [116.08595690000004, 43.143794856000056], [116.11456597900008, 43.08279410500006], [116.18259401800003, 43.05835667500003], [116.38673650200008, 43.04015397000006], [116.6680723070001, 42.893165149000026], [116.69553532100008, 42.82657633500003], [116.60817237200001, 42.68327505800005], [116.61659108000003, 42.58695863600008], [116.91501451300007, 42.406467718000044], [116.85187762600003, 42.35126486400003], [116.9019096070001, 42.21234467100004], [116.78445917300007, 42.17308753900005], [116.85035781600004, 42.06362072600007], [116.84599413500007, 42.01758455600003], [116.80332245300008, 41.970389014000034], [116.69704561500009, 41.96948380900005], [116.64407538900002, 41.90117980500003], [116.50917279100008, 41.91077863600003], [116.458893611, 41.96557497900005], [116.39155735800011, 41.929535789000056], [116.38851430600005, 41.98643098200006], [116.27456409000001, 41.96881633600003], [116.21569881900007, 41.93388175700005], [116.18186058700007, 41.85537308100004], [116.08242184500011, 41.831723356000055], [116.0080500140001, 41.69886467400005], [115.88714234500003, 41.600099457000056], [116.03822016800007, 41.35478409500007], [116.16616645900001, 41.31923446300004], [116.2595558920001, 40.99602173400007], [116.32454414000006, 40.906772369000066], [116.2976152230001, 40.91040229500004], [116.30017091600007, 40.87930204000003], [116.45498430100008, 40.739688855000054], [116.20872542500001, 40.74156206200007], [116.03777952300004, 40.577908740000055], [115.89819042200008, 40.585918821000064], [115.7340597220001, 40.519357], [115.71193220100008, 40.47413183700007], [115.92809581300003, 40.26699652700006], [115.92231544900005, 40.216777378000074], [115.85895350500004, 40.18021757200006], [115.85422006500005, 40.14499947200005], [115.60455706500011, 40.10366304900003], [115.52153312000007, 40.03404046700007], [115.40843299100004, 40.01582855400005], [115.42297197900007, 39.93760108200007], [115.28531208000004, 39.74043549100003], [115.18047133900006, 39.673203440000066], [115.0796114210001, 39.649261909000074], [115.01168630200004, 39.67728932600005]]]}}, {"type": "Feature", "properties": {"id": "蓟州镇", "name": "蓟州镇", "color": "#995c5c", "owner": "后金", "units": ["蓟州镇"], "label_lon": 118.357, "label_lat": 40.763}, "geometry": {"type": "MultiPolygon", "coordinates": [[[[118.34121278200007, 38.07624721900004], [118.44291278800006, 38.08803853300003], [118.49833337900009, 37.96385647000005], [118.57640763500001, 38.03197794100004], [118.62304917800009, 38.02634348700008], [118.65130190800005, 38.10206350000004], [118.7017071460001, 38.08714981300005], [118.74954131800007, 38.12465638900005], [118.71386177400007, 38.04671827400006], [118.86329322400002, 38.05152160500006], [118.75571390400012, 38.00799078400007], [118.78715904900002, 37.93926909600003], [118.83284097300009, 38.01113481900006], [118.87546833400006, 38.02278977900005], [118.87994056700006, 37.94587908800003], [118.96343434300002, 37.94311808100008], [118.97100778000004, 37.89484261700005], [118.93185046500002, 37.83972477800006], [118.89393745000007, 37.84851600400003], [118.89901676600005, 37.813592941000024], [118.65869188500005, 37.69650040000005], [118.64075779400002, 37.791740074000074], [118.67410564900001, 37.90034185600007], [118.3753442630001, 37.78857584000008], [118.29894053600003, 37.825079611000035], [118.22526643200001, 37.819995885000026], [118.18697018600005, 37.881150397000056], [118.19603503600001, 37.981056325000054], [118.2269319720001, 38.02851605800004], [118.25799181900004, 38.01371516800003], [118.34121278200007, 38.07624721900004]]], [[[118.8420736060001, 39.106463406000046], [118.9353143400001, 39.155306573000075], [118.94631382900002, 39.14844775600005], [118.8420736060001, 39.106463406000046]]], [[[117.9040441410001, 39.198502258000076], [117.69975866900006, 39.09459143500004], [117.73968769300006, 38.97526025600007], [117.6976317430001, 38.97308644900005], [117.54156008500001, 38.76273802600008], [117.52083568300009, 38.58981556400005], [117.22872355100003, 38.549231], [117.18266270800007, 38.571812618000024], [117.22666541500007, 38.60860452800006], [117.19504993200007, 38.62252428600004], [117.1204740820001, 38.59207237100003], [117.130724987, 38.75195651200005], [117.20840454300003, 38.846603893000065], [117.095645697, 38.954494569000076], [116.93277344, 39.03637940200008], [116.90280923800003, 39.120191344000034], [117.04832763600007, 39.28365723500008], [117.15398705300004, 39.288354671000036], [117.19977885700007, 39.325790582000025], [117.31621946100006, 39.319562864000034], [117.27831747800008, 39.35325821500004], [117.26623815300002, 39.47066764900006], [117.16281650700012, 39.58297696900007], [117.12675486900002, 39.58298757700004], [117.17227183700004, 39.73330895000004], [117.14411721800002, 39.79266824300004], [117.23345824100011, 39.82185110300003], [117.13543880200007, 39.84859344900008], [117.11380130700002, 39.922983378000026], [117.24507419100007, 40.11498437900008], [117.36791553700004, 40.13576172200004], [117.16419847800012, 40.37388739000005], [117.18898146300012, 40.440038549000064], [117.16681088500002, 40.50397940400006], [117.24815046600008, 40.54265509000004], [117.3878543830001, 40.53327427600004], [117.41227941900001, 40.59900258000005], [117.46550171500007, 40.63281481200005], [116.93405048000011, 40.67515454100004], [116.83916761900002, 40.788257877000035], [116.70334888100001, 40.853574120000076], [116.6555190150001, 40.951322670000025], [116.65051595300008, 40.984287633000065], [117.07621451600005, 40.894953661000045], [117.21722199300007, 41.01246825000004], [117.36920562900002, 41.05881382200005], [117.36453541900005, 41.12258385500007], [117.30859709800006, 41.166201439000076], [117.28726433500003, 41.25634083400007], [117.08753869300006, 41.47272565500003], [116.91280158600011, 41.44854443400004], [116.79247482700009, 41.54736607900003], [116.85791941700006, 41.58619023700004], [116.8636947230001, 41.64932365200008], [116.81978757200011, 41.74674905200004], [116.83929631, 41.79503555300005], [116.6846252260001, 41.92694051800004], [116.69704561500009, 41.96948380900005], [116.80332245300008, 41.970389014000034], [116.84599413500007, 42.01758455600003], [116.85035781600004, 42.06362072600007], [116.78445917300007, 42.17308753900005], [116.9019096070001, 42.21234467100004], [116.85187762600003, 42.35126486400003], [117.01457209900002, 42.440876520000074], [117.24828682900011, 42.46308041800006], [117.36796566700002, 42.43614777300007], [117.44019458500009, 42.539330462000066], [117.74482943600003, 42.55663202900007], [117.81974774300011, 42.65014521000006], [117.88802597800009, 42.60913337100004], [118.12120273300002, 42.643979847000026], [118.378404208, 42.58031675900003], [118.52332042300009, 42.59072543000008], [118.6619494790001, 42.561293395000064], [118.74356946900002, 42.49346318600004], [118.88642491100006, 42.52671376600006], [118.98073028600004, 42.50993911900008], [118.93956201600008, 42.43727734200007], [119.17121299000007, 42.52314293500007], [119.20608928700005, 42.49275583000008], [119.25030638200008, 42.50411481700007], [119.35330044300008, 42.578307679000034], [119.27660987400009, 42.629074649000074], [119.27285958000004, 42.65615474700007], [119.31640676500001, 42.675404720000074], [119.44460128900005, 42.62473588300003], [119.57888808900009, 42.636273017000065], [119.62231832500004, 42.565209408000044], [119.46723431900011, 42.34577061200008], [119.30583398700003, 42.28884029000005], [119.217003685, 42.19595097000007], [119.35645636100003, 42.053578696000045], [119.303953836, 41.976835331000075], [119.26233209500003, 41.78506461300003], [119.27834039200002, 41.645003159000055], [119.34119873600002, 41.60671586900003], [119.30279113000006, 41.53834057000006], [119.3460181260001, 41.479784196000026], [119.32267775100001, 41.44025398900004], [119.37917274100005, 41.40429067900004], [119.39990905500008, 41.33718521800006], [119.52053280500002, 41.29208029800003], [119.70029216300009, 41.28618332000008], [119.72482424500004, 41.34826890800008], [119.70285895200004, 41.44367814100008], [119.77666845100009, 41.49112887300004], [119.88093509200007, 41.50572730600004], [119.8511935790001, 41.31155024900005], [119.92106599800002, 41.26790652900007], [120.00972638600001, 41.093514440000035], [120.143345941, 40.97286507000007], [120.14338636100001, 40.881558521000045], [120.19218068900011, 40.905583095000054], [120.26611026100011, 40.814268619000075], [120.23116422800001, 40.678970787000026], [120.12025577300005, 40.64289129200006], [120.0869543770001, 40.58750896400005], [120.19283766500007, 40.496555933000025], [120.33724776500003, 40.282747837000045], [120.45211860600011, 40.24706954000004], [120.38599554200005, 40.19055983700008], [120.33209356500004, 40.19728753900006], [119.88974368000004, 40.04238729100007], [119.85191808500008, 39.98365366500008], [119.614418827, 39.92801471100006], [119.5706587090001, 39.88769374900005], [119.52093687000001, 39.89742495300004], [119.47975035500008, 39.857802141000036], [119.48709107800005, 39.798623458000066], [119.37646035900002, 39.77452948400003], [119.28399784600003, 39.68867515100004], [119.25681566600008, 39.60204674400006], [119.16379774200004, 39.57031478300007], [119.24636207000003, 39.57477238400003], [119.19699217300001, 39.462556826000025], [119.2340241500001, 39.43934207900003], [119.22944319600003, 39.39572000100003], [119.1277606320001, 39.385031], [119.08267382500003, 39.29687846200005], [118.9671268940001, 39.189857447000065], [118.71002035200002, 39.132312349000074], [118.56269136100002, 39.166735033000066], [118.27045595400011, 39.02039098600005], [118.08727791600006, 39.207820652000066], [117.9040441410001, 39.198502258000076]]]]}}, {"type": "Feature", "properties": {"id": "甘肃镇", "name": "甘肃镇", "color": "#7a8664", "owner": "大明", "units": ["甘肃镇"], "label_lon": 101.005, "label_lat": 39.131}, "geometry": {"type": "Polygon", "coordinates": [[[100.48987705700006, 37.01734584700006], [100.26069831200005, 37.22487693800008], [100.22640567200006, 37.18825207500004], [100.11874127400006, 37.18002591800007], [99.99445540900007, 37.212358177000056], [99.82178218400009, 37.17585324600003], [99.76036005100008, 37.11397407700008], [99.84963451900006, 36.94453274600005], [99.56381414500004, 37.11160834300006], [99.45031392200008, 37.13876187400007], [99.48928923500006, 37.07954637700004], [99.47304722200005, 37.04467065000006], [99.32115076200006, 37.09122566600007], [99.26012659100007, 37.05146476700003], [99.26467182900006, 36.992491044000076], [99.22445043900007, 36.99339306000007], [99.06738687600006, 37.07976179600007], [98.78237240300007, 37.076458064000064], [98.72616458200008, 37.23104272900008], [98.52280589400004, 37.33050547000005], [98.32544857900007, 37.29083018700004], [98.17853777200008, 37.306555082000045], [98.14085965800007, 37.33502585700006], [98.01521008600008, 37.691692415000034], [97.90698794800005, 37.75120156300005], [97.75838401100003, 37.92506098800004], [97.78615188300006, 38.279225059000055], [97.63059112600007, 38.399185670000065], [97.43553270000007, 38.42962098700008], [97.33059324800007, 38.540988577000064], [97.31233320500007, 38.63356711500006], [97.14488765100003, 38.74812189000005], [97.18228340200005, 39.22146674700008], [97.38066242300005, 39.15490770500003], [97.44184010800006, 39.206533852000064], [97.63242311400006, 39.25264150100003], [97.54089890800003, 39.30781254300007], [97.53345446500003, 39.40599733100004], [97.45933230900005, 39.46573964900006], [97.52809589900005, 39.54763262600005], [97.50874398100007, 39.604273454000065], [97.62693550300008, 39.671182644000055], [97.79398590500006, 39.639879016000066], [97.91746998600007, 39.68668281400005], [98.14200838900007, 40.11299647800007], [98.17112378200005, 40.48303290000007], [98.28889065200008, 40.52784606700004], [98.65788049500009, 40.515705783000044], [98.88055549200004, 40.72692022800004], [99.20564577600004, 40.84100477100003], [99.59887785700005, 40.82970084400006], [99.68232847400009, 40.92003344500006], [100.08039446800007, 40.879650706000064], [100.18787583700004, 40.810555124000075], [100.26889200500005, 40.660415787000034], [100.23402748100006, 40.55907441000005], [100.01797989000005, 40.34808195200003], [100.00205241100008, 40.267414590000044], [100.07482144100004, 40.26210727500006], [100.34834210000008, 40.352397351000036], [100.95001100700006, 40.47244728700008], [101.36912648600008, 40.491324865000024], [101.72064312600008, 40.71403697200003], [102.03624805600003, 40.85098744100003], [102.11173848500005, 40.96469865800003], [102.25371324600007, 41.03229427200006], [102.46235768100007, 41.20654983700007], [102.99652734700004, 42.023460415000045], [103.39683968000008, 41.86504235000007], [103.50728183500007, 41.638830866000035], [103.88391729200004, 41.37447441300003], [103.96847259800006, 41.203922109000075], [104.10104418900005, 41.082017687000075], [104.19435363600007, 40.912489798000024], [104.49847023800004, 40.59407885300004], [104.48898005400008, 40.468213899000034], [104.59711188300008, 40.41484115900005], [104.57841434600005, 40.29208552600005], [104.68167700700008, 40.14043258500004], [104.44353037800005, 40.06798256500008], [104.24860686400007, 39.88858135700008], [104.30336035700009, 39.73640578000004], [104.32333206600003, 39.53503865500005], [104.27947693900006, 39.482473836000054], [104.09378960400005, 39.39861390300007], [104.07953296000005, 39.27348495900003], [104.20733149900008, 39.073827754000035], [104.17999896200007, 38.93631531800003], [104.02318506300008, 38.84751804900003], [103.89664627900004, 38.60598161300004], [103.42454245600004, 38.38905586200008], [103.50591293600007, 38.324816035000026], [103.53765203200004, 38.24068409600005], [103.53339235200008, 38.111161924000044], [103.43096560400005, 38.10721223400003], [103.37732481200004, 38.06378196400004], [103.41922940100005, 37.83526193900008], [102.97768838200005, 37.68980676700005], [102.69954378800008, 37.386553322000054], [102.66137192600007, 37.390432272000055], [102.57713342600005, 37.47077496500003], [102.59824881900005, 37.496178547000056], [102.55996927400008, 37.50094461100008], [102.55326836700004, 37.52915302700006], [102.66590696600008, 37.53493234700005], [102.70670590800006, 37.57054614900005], [102.61349913100008, 37.68639493300003], [102.47534775100007, 37.58396990700004], [102.33262988900003, 37.55823458100008], [102.07946316000005, 37.58105730200003], [102.03309563100004, 37.45606273000004], [102.19477309400008, 37.40911479300007], [102.42538838800004, 37.28085177500003], [102.59492224600007, 37.12299462500005], [102.12269619000006, 37.045492882000076], [101.90739374900005, 37.15560294800008], [101.84069211200006, 36.95738088400003], [101.81343356800005, 36.745457557000066], [101.73067810000003, 36.75470641000004], [101.70234114300007, 36.81368646100003], [101.61712410500007, 36.82413872200004], [101.31841109000004, 37.00428205500003], [101.32890809600008, 36.960229791000074], [101.28979870200004, 36.93843131700004], [101.32350461300007, 36.848568241000066], [101.29574777700009, 36.82861399800004], [101.11092439600009, 36.86391447600005], [100.85468619200009, 36.76686035600005], [100.76063619400009, 36.70019301900004], [100.73048766300008, 36.73043739700006], [100.78378644000009, 36.778583913000034], [100.75787222500009, 36.824169117000054], [100.59269924500006, 36.86434471500007], [100.48987705700006, 37.01734584700006]]]}}, {"type": "Feature", "properties": {"id": "昌平镇", "name": "昌平镇", "color": "#995c5c", "owner": "后金", "units": ["昌平镇"], "label_lon": 116.518, "label_lat": 40.463}, "geometry": {"type": "Polygon", "coordinates": [[[116.79514807300006, 39.12217099000003], [116.71919337000008, 39.15989440100003], [116.68729115000008, 39.313228054000035], [116.54031071100007, 39.45444768900006], [116.34943678000002, 39.42272557300004], [116.23723154400011, 39.47625268300004], [116.1722421400001, 39.57885401100003], [116.01168703200005, 39.534761005000064], [115.8911871150001, 39.55619170600005], [115.72874548000004, 39.47912301400004], [115.61022529400009, 39.588658329000054], [115.50853675100007, 39.59137047100006], [115.43599615800008, 39.70443547000008], [115.46499536400006, 39.713158399000065], [115.41639941200003, 39.73340677900006], [115.41662359200006, 39.77673436300006], [115.55056482100008, 39.77296406200003], [115.4386400510001, 39.90510881000006], [115.40843299100004, 40.01582855400005], [115.52153312000007, 40.03404046700007], [115.60455706500011, 40.10366304900003], [115.85422006500005, 40.14499947200005], [115.85895350500004, 40.18021757200006], [115.92231544900005, 40.216777378000074], [115.92809581300003, 40.26699652700006], [115.77506781800002, 40.39483088900005], [115.70875761500008, 40.49903163300007], [115.89819042200008, 40.585918821000064], [116.03777952300004, 40.577908740000055], [116.20872542500001, 40.74156206200007], [116.45498430100008, 40.739688855000054], [116.30017091600007, 40.87930204000003], [116.2976152230001, 40.91040229500004], [116.32454414000006, 40.906772369000066], [116.2595558920001, 40.99602173400007], [116.16616645900001, 41.31923446300004], [116.03822016800007, 41.35478409500007], [115.88714234500003, 41.600099457000056], [116.0080500140001, 41.69886467400005], [116.08242184500011, 41.831723356000055], [116.18186058700007, 41.85537308100004], [116.21569881900007, 41.93388175700005], [116.35337133200005, 41.99139939400004], [116.38851430600005, 41.98643098200006], [116.39155735800011, 41.929535789000056], [116.458893611, 41.96557497900005], [116.50917279100008, 41.91077863600003], [116.64407538900002, 41.90117980500003], [116.6846252260001, 41.92694051800004], [116.83929631, 41.79503555300005], [116.81978757200011, 41.74674905200004], [116.8636947230001, 41.64932365200008], [116.85791941700006, 41.58619023700004], [116.79247482700009, 41.54736607900003], [116.91280158600011, 41.44854443400004], [117.08753869300006, 41.47272565500003], [117.28726433500003, 41.25634083400007], [117.32958039000005, 41.12990058100007], [117.36453541900005, 41.12258385500007], [117.34692765700004, 41.03174097100003], [117.21722199300007, 41.01246825000004], [117.07621451600005, 40.894953661000045], [116.65051595300008, 40.984287633000065], [116.70334888100001, 40.853574120000076], [116.83916761900002, 40.788257877000035], [116.93405048000011, 40.67515454100004], [117.46550171500007, 40.63281481200005], [117.41227941900001, 40.59900258000005], [117.3878543830001, 40.53327427600004], [117.24815046600008, 40.54265509000004], [117.16681088500002, 40.50397940400006], [117.18898146300012, 40.440038549000064], [117.16419847800012, 40.37388739000005], [117.36791553700004, 40.13576172200004], [117.24507419100007, 40.11498437900008], [117.11380130700002, 39.922983378000026], [117.13543880200007, 39.84859344900008], [117.23345824100011, 39.82185110300003], [117.14411721800002, 39.79266824300004], [117.17227183700004, 39.73330895000004], [117.12675486900002, 39.58298757700004], [117.16281650700012, 39.58297696900007], [117.26623815300002, 39.47066764900006], [117.27831747800008, 39.35325821500004], [117.31621946100006, 39.319562864000034], [117.19977885700007, 39.325790582000025], [117.15398705300004, 39.288354671000036], [117.04832763600007, 39.28365723500008], [116.90280923800003, 39.120191344000034], [116.79514807300006, 39.12217099000003]]]}}, {"type": "Feature", "properties": {"id": "大同镇", "name": "大同镇", "color": "#7a8664", "owner": "大明", "units": ["大同镇"], "label_lon": 113.125, "label_lat": 40.289}, "geometry": {"type": "Polygon", "coordinates": [[[112.99040995500002, 38.83032098000007], [112.90135144400006, 38.945183471000064], [112.79464472000006, 38.99154859600003], [112.71250591600005, 39.08441381500006], [112.69695186700005, 39.14845775500004], [112.74004338600002, 39.163916663000066], [112.71301151500006, 39.36253166800003], [112.66374844200004, 39.46739077400008], [112.44633548800005, 39.57923249700008], [112.41312775000006, 39.65229311300004], [112.4328908220001, 39.684479913000075], [112.29326246300002, 39.73823520900004], [112.250531722, 39.799718839000036], [112.16832595500011, 39.82978776600004], [112.10910943200008, 39.92774281700008], [112.02763437200008, 39.96861503700006], [112.14769600000011, 40.153397305000055], [112.2883235600001, 40.24622898400003], [112.1637240450001, 40.45298239400006], [112.03855417300008, 40.540340911000044], [112.08562400500011, 40.64168585800007], [112.00976135600001, 40.63754534200007], [111.93813456300006, 40.67344619800008], [111.81309752600004, 40.62875080200007], [111.56646274200006, 40.66321385500004], [111.58446200500003, 40.68964953200003], [111.51904353600008, 40.70764635200004], [111.54555688700009, 40.78890597600008], [111.44987694400004, 40.852524250000045], [111.44117161600008, 40.896850898000025], [111.66605318800003, 40.940202458000044], [111.85966179800005, 41.12321762300007], [111.81710311000006, 41.21628342900004], [111.91791616000006, 41.22343359900003], [111.93993639100006, 41.26144725000006], [111.91818499600004, 41.31719739300007], [112.0893777010001, 41.42895829500003], [112.07333056900006, 41.49719737000004], [112.14354832900005, 41.65165990500003], [112.27448391100006, 41.68171330900003], [112.41491377000011, 41.65373421400005], [112.47874582000009, 41.78860177100006], [112.7659898280001, 41.81747831900003], [112.77273231200002, 41.88388221800005], [112.92604399200002, 41.97942493600004], [113.08889594400011, 41.961383529000045], [113.15661691800005, 41.98718553600003], [113.21646452700008, 41.90455402200007], [113.21188074400004, 41.87298952400005], [113.1362782220001, 41.84163076400006], [113.14699904100007, 41.775254817000075], [113.21008469100002, 41.70174862500005], [113.24372228700008, 41.56247196800007], [113.29086419500004, 41.51322423000005], [113.37076328, 41.61143236200007], [113.41878565900004, 41.50963763400006], [113.42091573000005, 41.47643672300006], [113.294205, 41.47118865400006], [113.27543261700009, 41.41275656400006], [113.39962206900009, 41.426921793000076], [113.47360067800003, 41.39377635900007], [113.59815984200009, 41.43048627200005], [113.63553879300002, 41.41331397500005], [113.60302515, 41.32204589000003], [113.72620394500007, 41.33256027400006], [114.00790247600003, 41.226586732000044], [113.82509825600005, 41.07227414600004], [113.91940857000009, 41.01529970900003], [114.13100258800011, 40.66347598700003], [114.22076041900004, 40.60199022900008], [114.27745023500006, 40.36968844900008], [114.49060135800005, 40.29863457700003], [114.32290922400011, 40.212864927000055], [114.20116061600004, 40.21330593400006], [114.06323303600004, 40.16981390900003], [114.06357539600003, 40.06458660200008], [113.95045798700005, 40.09553876700005], [113.90498217100003, 39.99357928100005], [113.9585545870001, 39.99199260900008], [114.13054403100011, 39.87641707000006], [114.36984043500001, 39.85972393900005], [114.39921298700006, 39.801478950000046], [114.36256610100008, 39.701673725000035], [114.50248131500007, 39.55293950200007], [114.45451326300008, 39.363336031000074], [114.39600640300011, 39.27211943800006], [114.43752181700006, 39.17644564100004], [114.36401207200004, 39.16516091300008], [114.31319921700003, 39.13469033600006], [114.31134173900011, 39.09320566700006], [114.15848603100005, 39.03880061600006], [114.00394873500011, 39.110603033000075], [113.77477344600004, 39.02133740800008], [113.7211741000001, 38.937707025000066], [113.75465929200004, 38.86012282400003], [113.81286437200004, 38.81907888200004], [113.80366543500008, 38.761868555000035], [113.6661894660001, 38.65005356100005], [113.57521206800004, 38.621937040000034], [113.52252414500003, 38.52037849200008], [113.38587180400009, 38.51794517900004], [113.27850535200002, 38.47818107900008], [113.11603397400006, 38.56295347900004], [113.03881089100003, 38.654467743000055], [113.00846453100007, 38.763784015000056], [112.91845356400006, 38.78786948700008], [112.99040995500002, 38.83032098000007]]]}}, {"type": "Feature", "properties": {"id": "宁夏镇", "name": "宁夏镇", "color": "#7a8664", "owner": "大明", "units": ["宁夏镇"], "label_lon": 106.246, "label_lat": 39.147}, "geometry": {"type": "Polygon", "coordinates": [[[105.46294701200009, 37.10558754200008], [105.36624411800005, 37.101015019000045], [105.30023487300008, 37.01288215000005], [105.15393766400007, 36.965028750000045], [104.95942999000005, 37.05708647800003], [104.85627745500005, 37.21071988500006], [104.66938741700005, 37.222971296000026], [104.61794435500008, 37.27026837000005], [104.76768290800004, 37.34643258700004], [104.81625243100007, 37.41840403700007], [104.66226321400006, 37.39979369200006], [104.10460565100004, 37.442041983000024], [103.85659752100008, 37.59140892700003], [103.71279701200007, 37.74872845900006], [103.42048928000008, 37.83101063500004], [103.37732481200004, 38.06378196400004], [103.43096560400005, 38.10721223400003], [103.53339235200008, 38.111161924000044], [103.53765203200004, 38.24068409600005], [103.50591293600007, 38.324816035000026], [103.42454245600004, 38.38905586200008], [103.89664627900004, 38.60598161300004], [104.02318506300008, 38.84751804900003], [104.17999896200007, 38.93631531800003], [104.20733149900008, 39.073827754000035], [104.07953296000005, 39.27348495900003], [104.09378960400005, 39.39861390300007], [104.27947693900006, 39.482473836000054], [104.32333206600003, 39.53503865500005], [104.30336035700009, 39.73640578000004], [104.24860686400007, 39.88858135700008], [104.44353037800005, 40.06798256500008], [104.68167700700008, 40.14043258500004], [104.57841434600005, 40.29208552600005], [104.59711188300008, 40.41484115900005], [104.48898005400008, 40.468213899000034], [104.49847023800004, 40.59407885300004], [104.19435363600007, 40.912489798000024], [104.10104418900005, 41.082017687000075], [103.96847259800006, 41.203922109000075], [103.88391729200004, 41.37447441300003], [103.50728183500007, 41.638830866000035], [103.39683968000008, 41.86504235000007], [103.86778784000006, 41.76965810200005], [104.54085553800007, 41.85442879500005], [104.54606373300004, 41.626298588000054], [104.92915394200008, 41.635931423000045], [105.00047500600004, 41.561192591000065], [105.26331178300006, 41.73579858700003], [105.19949709500008, 41.39915078100006], [105.29560986800004, 41.190290927000035], [105.29103441800004, 40.950191966000034], [105.38858586400005, 40.81757050200008], [105.73201228500005, 40.83127672100005], [105.89725759700008, 40.74094575100003], [106.18597313800007, 40.713267640000026], [106.25004993200008, 40.75108382800005], [106.33297651300006, 40.89673311700005], [106.40459340100006, 40.91843126500004], [106.47401837700005, 40.86300093500006], [106.49770040400006, 40.76804253800003], [106.57284966000009, 40.783683462000056], [107.02263212200006, 40.644531578000056], [107.09130611400008, 40.584212265000076], [107.14272325200005, 40.44793301400006], [107.19094130300005, 40.48886782100004], [107.18439726800005, 40.55015840400006], [107.22961036000004, 40.563374243000055], [107.25148879500006, 40.64368307500007], [107.36379273200004, 40.645917782000026], [107.67524099500008, 40.79597046500004], [107.71535955200005, 40.84580393300007], [107.89020245900008, 40.860910545000024], [108.13669426900009, 40.852218066000034], [108.18384193200006, 40.80370903100004], [108.30548701100008, 40.77455534100005], [108.37139322100006, 40.809146388000045], [108.43550271800007, 40.73925135300004], [108.55276649900009, 40.70983768000008], [108.56247066400005, 40.642378447000056], [108.70437886700006, 40.619233300000076], [108.77663211000004, 40.53085201500005], [108.85866894500003, 40.59604372500007], [108.94690259200007, 40.53534171200005], [109.02956643700008, 40.56665083900003], [108.98751777400008, 40.377415738000025], [109.09825349300007, 40.252935130000026], [109.04726609500005, 40.13598977400005], [109.07803912400004, 40.05654211700005], [109.15563856500006, 40.04362014700007], [109.17518788300004, 40.00564772900003], [109.08774201500006, 39.917410532000076], [109.16495122500004, 39.79261013000007], [109.21960308300004, 39.77641585400005], [109.25152311800008, 39.72214497700003], [109.20342854800003, 39.565372833000026], [109.02959927700005, 39.570028953000076], [108.99150678500007, 39.39423011300005], [108.89134850100004, 39.38132417200006], [108.83467775100007, 39.280530603000045], [108.55576948300006, 39.16163829800007], [108.52024669500008, 39.011856487000045], [108.45473321900005, 38.92526864700005], [108.50361597400007, 38.81415707800005], [108.49684253700008, 38.705668167000056], [108.38315905500008, 38.11311105300007], [108.33373082000008, 38.056516671000054], [108.31403744200009, 37.95188745000007], [108.35580932000005, 37.85194170800003], [108.48924837600003, 37.75023772800006], [108.53014280100007, 37.66269762600007], [108.28963015900007, 37.63193819300005], [108.27910548400007, 37.58984412500007], [108.35922122500006, 37.386840576000054], [108.19501708700005, 37.28135705200003], [108.26896397100006, 37.19662662800005], [108.17602775100005, 37.13597085200007], [108.15314763700007, 37.166470179000044], [108.12086915400005, 37.15632108800003], [108.08701095500004, 37.093068008000046], [107.91791977500009, 37.08024268300005], [107.88103449900007, 37.09938517300003], [107.85557586800007, 37.191209327000024], [107.78552183000005, 37.22071492300006], [107.66813943300008, 37.10451919700006], [107.69019439200008, 37.04297793200004], [107.65738581300008, 37.02768253000005], [107.71657248700006, 36.96582590500003], [107.68262947100004, 36.949174337000045], [107.71612239900008, 36.85227595600003], [107.51462155800004, 36.81802228200007], [107.48654570700006, 36.88162155800006], [107.26407541700007, 36.92678029600006], [107.28396532200009, 37.096049132000076], [107.22581097300008, 37.08349573100003], [107.08742056700004, 37.12573595300006], [106.95843750800009, 37.092268260000026], [106.89843120500007, 37.125753297000074], [106.84730207900009, 37.10187627000005], [106.75388581100009, 37.153337958000066], [106.71060982700004, 37.09909846800008], [106.61911851900004, 37.10844883500005], [106.64880894100008, 37.276975769000046], [106.50263147500004, 37.49032404600007], [106.15516600500007, 37.49594310900005], [106.07862672100003, 37.54879335100003], [105.96719180100007, 37.388004530000046], [105.95594250000005, 37.29818909100004], [105.82882596000007, 37.321742080000035], [105.80030028400006, 37.30462281400003], [105.79446348200008, 37.211168334000035], [105.69363960600003, 37.15781958300005], [105.53618782900008, 37.22758082200005], [105.46294701200009, 37.10558754200008]]]}}, {"type": "Feature", "properties": {"id": "山西镇", "name": "山西镇", "color": "#7a8664", "owner": "大明", "units": ["山西镇"], "label_lon": 111.151, "label_lat": 39.62}, "geometry": {"type": "Polygon", "coordinates": [[[111.53913768700005, 37.83710548500005], [111.47647894600004, 38.042080121000026], [111.50971011200005, 38.08118039400006], [111.46042869100006, 38.13112023900004], [111.33782128800004, 38.17462963600008], [111.43565779900007, 38.35122219200008], [111.37146116300005, 38.39575240200003], [111.36973800900006, 38.56441135800003], [111.23606386800009, 38.591608208000025], [111.20458458800005, 38.71024132700006], [110.99189810400009, 38.64024331600007], [110.85866755700005, 38.72752834700003], [110.76117712300004, 38.89200316800003], [110.71897184300008, 38.89286817400006], [110.38134798100003, 39.23852256200007], [110.37143436200006, 39.30151437200004], [110.48543134900007, 39.34138819000003], [110.31152872600006, 39.591880701000036], [110.28002897500005, 39.61339442800005], [110.12857751800004, 39.57987729000007], [110.09718937300005, 39.60501034500004], [110.13491798700005, 39.70215772900008], [109.93476490000006, 39.65503332000003], [109.71612658100008, 39.74192972000003], [109.45135085600003, 39.70565244900007], [109.35913653000006, 39.72959299100006], [109.32694469200004, 39.79078642300004], [109.16495122500004, 39.79261013000007], [109.08774201500006, 39.917410532000076], [109.17518788300004, 40.00564772900003], [109.15563856500006, 40.04362014700007], [109.07803912400004, 40.05654211700005], [109.04877659000005, 40.16439884500005], [109.09825349300007, 40.252935130000026], [108.98751777400008, 40.377415738000025], [109.02956643700008, 40.56665083900003], [108.94690259200007, 40.53534171200005], [108.85866894500003, 40.59604372500007], [108.77663211000004, 40.53085201500005], [108.70437886700006, 40.619233300000076], [108.56247066400005, 40.642378447000056], [108.55276649900009, 40.70983768000008], [108.43550271800007, 40.73925135300004], [108.37139322100006, 40.809146388000045], [108.30548701100008, 40.77455534100005], [108.18384193200006, 40.80370903100004], [108.13669426900009, 40.852218066000034], [108.20470095700006, 40.90053641900005], [108.44426492400004, 40.964513372000056], [108.50486963900005, 41.04721162800007], [108.62423110900005, 41.08543584500006], [108.53159742900004, 41.17079183800007], [108.74563133600009, 41.14785216100006], [108.95167632300007, 41.23995985800008], [109.23452448100005, 41.19208978800003], [109.36836637000005, 41.244083842000066], [109.48891003400007, 41.19886916000007], [109.61496288500007, 41.232883005000076], [109.67228138000007, 41.31565260600007], [109.64006402200005, 41.457657073000064], [109.84185009100008, 41.43622105400004], [109.93481439500005, 41.357259929000065], [110.02372939000009, 41.39135278800006], [110.13145926400006, 41.37252707600004], [110.18651687000005, 41.431737371000054], [110.46194684900007, 41.288209495000046], [110.74770979500005, 41.36849628300007], [110.87610237200005, 41.30156483600007], [110.98433811600006, 41.32707573600004], [111.20256467700005, 41.228412426000034], [111.38030794200006, 41.29719672600004], [111.38719482400006, 41.34705995400003], [111.68195272600008, 41.31188591500006], [111.81710311000006, 41.21628342900004], [111.85966179800005, 41.12321762300007], [111.66605318800003, 40.940202458000044], [111.44117161600008, 40.896850898000025], [111.44987694400004, 40.852524250000045], [111.54555688700009, 40.78890597600008], [111.51904353600008, 40.70764635200004], [111.58446200500003, 40.68964953200003], [111.56646274200006, 40.66321385500004], [111.81309752600004, 40.62875080200007], [111.93813456300006, 40.67344619800008], [112.00976135600001, 40.63754534200007], [112.08562400500011, 40.64168585800007], [112.03855417300008, 40.540340911000044], [112.1637240450001, 40.45298239400006], [112.2883235600001, 40.24622898400003], [112.14769600000011, 40.153397305000055], [112.02763437200008, 39.96861503700006], [112.10910943200008, 39.92774281700008], [112.16832595500011, 39.82978776600004], [112.250531722, 39.799718839000036], [112.29326246300002, 39.73823520900004], [112.4328908220001, 39.684479913000075], [112.41312775000006, 39.65229311300004], [112.44633548800005, 39.57923249700008], [112.66374844200004, 39.46739077400008], [112.71301151500006, 39.36253166800003], [112.74004338600002, 39.163916663000066], [112.69695186700005, 39.14845775500004], [112.71250591600005, 39.08441381500006], [112.79464472000006, 38.99154859600003], [112.90135144400006, 38.945183471000064], [112.99040995500002, 38.83032098000007], [112.91845356400006, 38.78786948700008], [113.00846453100007, 38.763784015000056], [113.03881089100003, 38.654467743000055], [113.11603397400006, 38.56295347900004], [113.27850535200002, 38.47818107900008], [113.2124904210001, 38.417254067000044], [113.11255869800004, 38.410823435000054], [113.06651125300004, 38.29188906600007], [112.90914691600005, 38.198628049000035], [112.88949854500004, 38.123409808000076], [113.1456533280001, 38.04653225000004], [113.20756827600007, 38.08924710400004], [113.31327015800002, 37.949080157000026], [113.34659423700009, 37.82970969400003], [113.42932233800002, 37.710842426000056], [113.31607658400003, 37.592794930000025], [113.32815176800011, 37.55365836300007], [113.24734833000002, 37.53064322900008], [113.11255250200009, 37.550223720000076], [113.06186986000012, 37.51578458000006], [113.0135278250001, 37.37398933400004], [112.86669432800011, 37.31791806600006], [112.85505017600008, 37.28820861600008], [112.63827392500002, 37.256411150000076], [112.61173343900009, 37.22692648100008], [112.65189247900003, 37.21082376700008], [112.65753583000003, 37.108274652000034], [112.54853471800004, 37.09130913600006], [112.45534808000002, 37.111644557000034], [112.38475521500004, 37.214780733000055], [112.18576334700003, 37.34115199100006], [112.2521796310001, 37.39906897900005], [112.09688254800005, 37.44515813600003], [112.08624454700009, 37.489170272000024], [112.00673461800011, 37.52046463100004], [111.98026083400003, 37.578420460000075], [111.91250942800008, 37.56514940900007], [111.63131144500005, 37.72076639800008], [111.53913768700005, 37.83710548500005]]]}}, {"type": "Feature", "properties": {"id": "保定镇", "name": "保定镇", "color": "#7a8664", "owner": "大明", "units": ["保定镇"], "label_lon": 115.518, "label_lat": 38.04}, "geometry": {"type": "Polygon", "coordinates": [[[114.85122228000012, 36.66083854000004], [114.62682010300011, 36.59907319600006], [114.63401059300008, 36.665139907000025], [114.60335247300009, 36.69313327500004], [114.49555699700011, 36.72789235500005], [114.38282226400008, 36.712864008000054], [114.36739435800007, 36.75245346600008], [114.40198570900009, 36.82738342000005], [114.11642543200003, 36.83360839100004], [113.83047354500002, 37.02184120600003], [113.73852686200007, 37.01410782000005], [113.6894328940001, 37.11060395000004], [113.59293849800008, 37.11196726800006], [113.51569896700005, 37.20741361000006], [113.460984746, 37.22604431800005], [113.3137064980001, 37.24786735300006], [113.23861991900003, 37.20053215300004], [113.12377281800002, 37.186911516000066], [113.12486358800004, 37.32250018600007], [113.0399256290001, 37.400672737000036], [113.06186986000012, 37.51578458000006], [113.11255250200009, 37.550223720000076], [113.24734833000002, 37.53064322900008], [113.32815176800011, 37.55365836300007], [113.31607658400003, 37.592794930000025], [113.42671072400003, 37.73941258900004], [113.3614945280001, 37.80328342700005], [113.31327015800002, 37.949080157000026], [113.20756827600007, 38.08924710400004], [113.1456533280001, 38.04653225000004], [113.02108142200007, 38.06888752400005], [112.88949854500004, 38.123409808000076], [112.88630819000002, 38.16164482800008], [113.06651125300004, 38.29188906600007], [113.11255869800004, 38.410823435000054], [113.2124904210001, 38.417254067000044], [113.3319212020001, 38.50426730500004], [113.52252414500003, 38.52037849200008], [113.57521206800004, 38.621937040000034], [113.6661894660001, 38.65005356100005], [113.80366543500008, 38.761868555000035], [113.81286437200004, 38.81907888200004], [113.75465929200004, 38.86012282400003], [113.7211741000001, 38.937707025000066], [113.77477344600004, 39.02133740800008], [114.00394873500011, 39.110603033000075], [114.15848603100005, 39.03880061600006], [114.31134173900011, 39.09320566700006], [114.31319921700003, 39.13469033600006], [114.36401207200004, 39.16516091300008], [114.43752181700006, 39.17644564100004], [114.39600640300011, 39.27211943800006], [114.45451326300008, 39.363336031000074], [114.49821740300001, 39.53913086700004], [114.56967524800007, 39.543811779000066], [114.71105495800009, 39.635936439000034], [114.8270032910001, 39.59940733800005], [115.01168630200004, 39.67728932600005], [115.0796114210001, 39.649261909000074], [115.18047133900006, 39.673203440000066], [115.28531208000004, 39.74043549100003], [115.42297197900007, 39.93760108200007], [115.55056482100008, 39.77296406200003], [115.41662359200006, 39.77673436300006], [115.41639941200003, 39.73340677900006], [115.46499536400006, 39.713158399000065], [115.43599615800008, 39.70443547000008], [115.45289944700005, 39.67024627100005], [115.50853675100007, 39.59137047100006], [115.61022529400009, 39.588658329000054], [115.72874548000004, 39.47912301400004], [115.8911871150001, 39.55619170600005], [116.01168703200005, 39.534761005000064], [116.1722421400001, 39.57885401100003], [116.21958756700008, 39.49314802500004], [116.29624729500006, 39.441333333000046], [116.38470267900004, 39.417450934000044], [116.50281856400011, 39.46165091800003], [116.62935183900004, 39.383965911000075], [116.69928099100002, 39.28762874700004], [116.6845841280001, 39.22948193000008], [116.71919337000008, 39.15989440100003], [116.79514807300006, 39.12217099000003], [116.90280923800003, 39.120191344000034], [116.93277344, 39.03637940200008], [117.095645697, 38.954494569000076], [117.20840454300003, 38.846603893000065], [117.130724987, 38.75195651200005], [117.1204740820001, 38.59207237100003], [117.19504993200007, 38.62252428600004], [117.22666541500007, 38.60860452800006], [117.18266270800007, 38.571812618000024], [117.22872355100003, 38.549231], [117.52083568300009, 38.58981556400005], [117.76394966600003, 38.29021405200007], [117.6937358350001, 38.27433334600005], [117.68302860500012, 38.19927544900003], [117.77264248900008, 38.23298450100003], [117.76234611100006, 38.18762945700007], [117.8373537110001, 38.19239207500004], [117.83339505300012, 38.13947398800008], [117.88651152900002, 38.12653514900006], [117.8393213280001, 38.10311291900007], [117.95157556200002, 38.10297365100007], [117.86491337100006, 38.07463340100003], [117.997911154, 38.069661014000076], [118.01786752100008, 38.00904452800006], [117.92567921400007, 37.98377329900006], [117.997970043, 37.97507285100005], [118.00542397900006, 37.943111585000054], [117.9622847390001, 37.91229762000006], [117.96482760800006, 37.86621284700004], [117.89577055200004, 37.82246973400004], [117.95126189200005, 37.81205781800003], [118.02834033300007, 37.93637201200005], [118.10219495600006, 37.94373588900004], [118.12962963100006, 38.063727088000064], [118.25293063900006, 38.07487706200004], [118.19603503600001, 37.981056325000054], [118.18697018600005, 37.881150397000056], [118.22526643200001, 37.819995885000026], [118.33224698600009, 37.812022969000054], [118.2766562270001, 37.64625258600006], [118.15987203500003, 37.63196090400004], [118.0929726710001, 37.556528280000066], [118.01136067100003, 37.52943159900008], [117.96903813600011, 37.575195644000075], [117.84208558900002, 37.55586002500007], [117.78743422100001, 37.50466553500007], [117.79986563500006, 37.26071958600005], [117.72897818900003, 37.23734470900007], [117.60398154100005, 37.25990596300005], [117.53681709900002, 37.14062960000007], [117.23486499900002, 37.047402920000025], [117.16313300200011, 36.87039943600007], [117.04541047900011, 36.753749679000066], [117.04246792100002, 36.83702417200004], [116.97132446300009, 36.82883536000003], [116.86910877500009, 36.99324235900008], [116.79323862600006, 36.97883479600006], [116.69208283700004, 37.03109498500004], [116.670946694, 36.970054180000034], [116.7053483630001, 36.90873235300006], [116.69838990700009, 36.83992347700007], [116.60729224800002, 36.85067660400006], [116.61447989900012, 36.78557286900008], [116.55233732700003, 36.743120418000046], [116.505377801, 36.65294103900004], [116.38668259700012, 36.704223711000054], [116.32903453100005, 36.65223461700003], [116.27772215400012, 36.69841410400005], [116.19006851400002, 36.688050227000076], [116.12803540400012, 36.72333482800008], [116.05479937000007, 36.70102697200008], [116.04393202100005, 36.73466040000005], [115.99216358800004, 36.74730503700005], [115.99913107600003, 36.711801586000036], [115.89421811200009, 36.65137426200005], [115.70984498000007, 36.69055233100005], [115.61090554500004, 36.650435591000075], [115.46039638800005, 36.64299842500003], [115.4263649190001, 36.70914237200003], [115.30852888600009, 36.59677990600005], [115.31902374800006, 36.56117618400003], [115.2606565210001, 36.459470743000054], [115.16048823400001, 36.452993658000025], [115.13277828600008, 36.47090633400006], [115.19079124000007, 36.619567225000026], [115.01931986400007, 36.57146626100007], [114.85122228000012, 36.66083854000004]]]}}, {"type": "Feature", "properties": {"id": "延绥镇", "name": "延绥镇", "color": "#7a8664", "owner": "大明", "units": ["延绥镇"], "label_lon": 110.025, "label_lat": 37.666}, "geometry": {"type": "Polygon", "coordinates": [[[110.46723640300007, 35.869921205000026], [110.52136766600006, 35.835572683000066], [110.34315596000005, 35.76748299600007], [110.28723094800006, 35.715498901000046], [110.22260779500004, 35.71477280300007], [110.13663320900008, 35.79495934400006], [110.11675626100003, 35.892668739000044], [110.04609754100005, 35.92714212300007], [110.04167049700004, 36.006539684000074], [109.75236446500008, 36.00212745300007], [109.70396808300006, 36.06334503000005], [109.70882505400004, 36.17226825800003], [109.60708335000004, 36.17516710900003], [109.57542321800008, 36.22028695300003], [109.40396545400006, 36.11245083500006], [109.16133993300008, 36.12718124300005], [109.05937371200008, 36.157590553000034], [108.97654478800007, 36.26222313300008], [108.84996280400009, 36.332304169000054], [108.38882747400004, 36.46407666700003], [108.32500162500008, 36.524245515000075], [108.19834628900009, 36.566476899000065], [108.30865255800006, 36.78214632400005], [108.26739673400004, 36.85320321100005], [108.29193026500008, 36.879445702000055], [108.39000183200005, 36.87354604300003], [108.55222435300004, 36.96965078900007], [108.50077058200009, 36.98803196700004], [108.53911595700004, 37.040829588000065], [108.52277657600007, 37.190817061000075], [108.45797739500006, 37.21374579900004], [108.47017119100008, 37.24424779800006], [108.40577972700004, 37.36239199700003], [108.37607471400008, 37.344485931000065], [108.27910548400007, 37.58984412500007], [108.28963015900007, 37.63193819300005], [108.53014280100007, 37.66269762600007], [108.48924837600003, 37.75023772800006], [108.35580932000005, 37.85194170800003], [108.31403744200009, 37.95188745000007], [108.33373082000008, 38.056516671000054], [108.38315905500008, 38.11311105300007], [108.49684253700008, 38.705668167000056], [108.50361597400007, 38.81415707800005], [108.45473321900005, 38.92526864700005], [108.52024669500008, 39.011856487000045], [108.55576948300006, 39.16163829800007], [108.83467775100007, 39.280530603000045], [108.89134850100004, 39.38132417200006], [108.99150678500007, 39.39423011300005], [109.02959927700005, 39.570028953000076], [109.20342854800003, 39.565372833000026], [109.25152311800008, 39.72214497700003], [109.21960308300004, 39.77641585400005], [109.24874183400004, 39.795105533000026], [109.32694469200004, 39.79078642300004], [109.35913653000006, 39.72959299100006], [109.45135085600003, 39.70565244900007], [109.71612658100008, 39.74192972000003], [109.93476490000006, 39.65503332000003], [110.13491798700005, 39.70215772900008], [110.09718937300005, 39.60501034500004], [110.12857751800004, 39.57987729000007], [110.28002897500005, 39.61339442800005], [110.31152872600006, 39.591880701000036], [110.48543134900007, 39.34138819000003], [110.37143436200006, 39.30151437200004], [110.38134798100003, 39.23852256200007], [110.71897184300008, 38.89286817400006], [110.76117712300004, 38.89200316800003], [110.85866755700005, 38.72752834700003], [110.99189810400009, 38.64024331600007], [111.20458458800005, 38.71024132700006], [111.23606386800009, 38.591608208000025], [111.36973800900006, 38.56441135800003], [111.37146116300005, 38.39575240200003], [111.43565779900007, 38.35122219200008], [111.33782128800004, 38.17462963600008], [111.46042869100006, 38.13112023900004], [111.50971011200005, 38.08118039400006], [111.47647894600004, 38.042080121000026], [111.54878783000004, 37.90596577100007], [111.53913768700005, 37.83710548500005], [111.59717255000004, 37.75693245100007], [111.91250942800008, 37.56514940900007], [111.98026083400003, 37.578420460000075], [112.00673461800011, 37.52046463100004], [112.08624454700009, 37.489170272000024], [112.09688254800005, 37.44515813600003], [112.2521796310001, 37.39906897900005], [112.18576334700003, 37.34115199100006], [112.38475521500004, 37.214780733000055], [112.50117713500003, 36.976545627000064], [112.49690370400003, 36.94279739500007], [112.40560476500002, 36.92262122400007], [112.27679672300007, 36.94255940900007], [112.13550443800011, 37.009732900000074], [112.05067972000006, 36.94957526700006], [112.06220684000004, 36.854635992000055], [111.95817311600007, 36.77235333300007], [111.99618347600006, 36.68044628100006], [111.77456296800005, 36.695920261000026], [111.62536984500008, 36.641853052000044], [111.66516963200007, 36.474287796000056], [111.62148060500004, 36.43838879300006], [111.44677199100005, 36.478091653000035], [111.38464127200007, 36.52165120500007], [111.30215513100006, 36.228085658000055], [111.10333334400008, 36.20650181900004], [111.02470391400004, 36.10840094900004], [110.85913144400007, 36.090653761000056], [110.75698258400007, 35.99868211000006], [110.46723640300007, 35.869921205000026]]]}}, {"type": "Feature", "properties": {"id": "固原镇", "name": "固原镇", "color": "#7a8664", "owner": "大明", "units": ["固原镇"], "label_lon": 106.186, "label_lat": 35.556}, "geometry": {"type": "Polygon", "coordinates": [[[105.88920492900007, 33.52523309500003], [105.71702725000006, 33.49569085100006], [105.57090294900007, 33.54363797700006], [105.49987898500007, 33.57421903000005], [105.50824520400005, 33.60137253800008], [105.42833212200009, 33.677741053000034], [105.37980790700004, 33.64866377000004], [105.21491424200008, 33.65851082300003], [105.02560609700004, 33.58874644000008], [104.90935521200004, 33.69732339900003], [104.78324532600004, 33.67347620800007], [104.73945979300004, 33.762762837000025], [104.77292980300007, 33.786213006000025], [104.75124635700007, 33.84416027900005], [104.82500985100006, 33.88517243800004], [104.80391641200004, 33.98946566300003], [104.65888521000005, 34.13359162300003], [104.63735883800007, 34.221777254000074], [104.48134526600006, 34.21413497800006], [104.41389808200006, 34.316619942000045], [104.35066386200003, 34.343917099000066], [104.20104470500007, 34.37319791700003], [104.14439384800005, 34.31061959700003], [104.18744994800005, 34.20504931700003], [104.02115670700005, 34.14340971300004], [103.87864657800009, 34.27658940500004], [103.71595539200007, 34.28389496300008], [103.81308921800007, 34.45723231000005], [103.86251138600005, 34.720672888000024], [103.89644958600007, 34.75122537300007], [103.97859886000003, 34.721351123000034], [104.02185355000006, 34.75710780600008], [103.98377064300007, 34.81500032300005], [104.03835757100006, 34.91333875600003], [103.97381435400007, 34.91153394500003], [103.82931597500004, 34.99221889000006], [103.81727222300003, 34.95993634800004], [103.73329106800009, 34.95573572400008], [103.66860717300005, 35.074815397000066], [103.53000305300009, 35.13566033600006], [103.49930200500006, 35.12160367100006], [103.41103982100009, 35.217037840000046], [103.45132966500006, 35.36705667900003], [103.43791589000006, 35.434563549000075], [103.47563568700008, 35.48593746500006], [103.43503002700004, 35.53213035600004], [103.30173252500003, 35.51172769000004], [103.25983639500004, 35.71414810400006], [103.17991822600004, 35.784432663000075], [103.34383737400009, 35.92407513400008], [103.46274402400007, 35.89858497300003], [103.54038123300006, 35.945864372000074], [103.56180589700006, 36.013755711000044], [103.41390186800004, 36.04311348900006], [103.39245591700006, 36.10973313300008], [103.17864059600004, 36.16925387200007], [103.12695266100008, 36.218815996000046], [103.00344130600007, 36.23364205100006], [102.84970906200004, 36.36060215300006], [102.86952338700007, 36.444856171000026], [102.92404237200009, 36.46427119400005], [102.98700443400008, 36.358838141000035], [103.12622927800004, 36.29216001000003], [103.19647893900009, 36.35685152700006], [103.21592978600006, 36.26388236500003], [103.34231969300004, 36.25024754200007], [103.39400476800006, 36.206654952000065], [103.56560465600006, 36.20631199600007], [103.69929390400006, 36.293757552000045], [103.68271107500004, 36.578372899000044], [103.73522627300008, 36.69410172900007], [103.70363583100004, 36.77540067000007], [103.60813714700004, 36.85270056000007], [103.58029224900008, 37.03597279400003], [103.70870124000004, 37.23914454700008], [103.78750033000006, 37.26472521900007], [103.75776785900007, 37.38317594000006], [103.79534093500007, 37.57732700200006], [103.83290137600005, 37.62335292300003], [104.10460565100004, 37.442041983000024], [104.20189917100004, 37.41838463400006], [104.81625243100007, 37.41840403700007], [104.76768290800004, 37.34643258700004], [104.61794435500008, 37.27026837000005], [104.66938741700005, 37.222971296000026], [104.85627745500005, 37.21071988500006], [104.95942999000005, 37.05708647800003], [105.15393766400007, 36.965028750000045], [105.30023487300008, 37.01288215000005], [105.36624411800005, 37.101015019000045], [105.50035236100007, 37.13110114600005], [105.53618782900008, 37.22758082200005], [105.69363960600003, 37.15781958300005], [105.79446348200008, 37.211168334000035], [105.80030028400006, 37.30462281400003], [105.82882596000007, 37.321742080000035], [105.95594250000005, 37.29818909100004], [105.96719180100007, 37.388004530000046], [106.07862672100003, 37.54879335100003], [106.15516600500007, 37.49594310900005], [106.50263147500004, 37.49032404600007], [106.64880894100008, 37.276975769000046], [106.61911851900004, 37.10844883500005], [106.71060982700004, 37.09909846800008], [106.75388581100009, 37.153337958000066], [106.84730207900009, 37.10187627000005], [106.89843120500007, 37.125753297000074], [106.95843750800009, 37.092268260000026], [107.08742056700004, 37.12573595300006], [107.22581097300008, 37.08349573100003], [107.28396532200009, 37.096049132000076], [107.26407541700007, 36.92678029600006], [107.48654570700006, 36.88162155800006], [107.51462155800004, 36.81802228200007], [107.71612239900008, 36.85227595600003], [107.68262947100004, 36.949174337000045], [107.71657248700006, 36.96582590500003], [107.65738581300008, 37.02768253000005], [107.69019439200008, 37.04297793200004], [107.66813943300008, 37.10451919700006], [107.78552183000005, 37.22071492300006], [107.85557586800007, 37.191209327000024], [107.88103449900007, 37.09938517300003], [107.91791977500009, 37.08024268300005], [108.08701095500004, 37.093068008000046], [108.12086915400005, 37.15632108800003], [108.15314763700007, 37.166470179000044], [108.17602775100005, 37.13597085200007], [108.26896397100006, 37.19662662800005], [108.19501708700005, 37.28135705200003], [108.35922122500006, 37.386840576000054], [108.45876145300008, 37.27097290100005], [108.45797739500006, 37.21374579900004], [108.52277657600007, 37.190817061000075], [108.53911595700004, 37.040829588000065], [108.50077058200009, 36.98803196700004], [108.55222435300004, 36.96965078900007], [108.39000183200005, 36.87354604300003], [108.29193026500008, 36.879445702000055], [108.26739673400004, 36.85320321100005], [108.30865255800006, 36.78214632400005], [108.19834628900009, 36.566476899000065], [108.32500162500008, 36.524245515000075], [108.38882747400004, 36.46407666700003], [108.84996280400009, 36.332304169000054], [108.97654478800007, 36.26222313300008], [109.05937371200008, 36.157590553000034], [109.16133993300008, 36.12718124300005], [109.40396545400006, 36.11245083500006], [109.57542321800008, 36.22028695300003], [109.60708335000004, 36.17516710900003], [109.70882505400004, 36.17226825800003], [109.70396808300006, 36.06334503000005], [109.60330078800007, 36.03185215000008], [109.51597614900004, 36.06824387000006], [109.46254092000004, 35.90406111500005], [109.32488634700007, 35.803539999000066], [109.35052908800009, 35.731509876000075], [109.33717968700006, 35.638324117000025], [109.43731200100007, 35.50002170800008], [109.11505699600008, 35.56182578000005], [108.97942888900008, 35.494342510000024], [108.93140713200006, 35.36739444600005], [108.84414462000007, 35.33094428600003], [108.85759390600003, 35.272045484000046], [108.93074964600004, 35.22992709600004], [108.92524550100006, 35.175034018000076], [109.00735463000007, 35.15653660400005], [109.02571117300005, 35.062225384000044], [108.99991099600004, 35.00176045400008], [109.11501963000006, 34.975219254000024], [109.08482059700009, 34.91806072500003], [108.99923442900007, 34.904602503000035], [108.94172631000004, 34.822261077000064], [108.79865757100004, 34.81659667500003], [108.72497246100005, 34.721144432000074], [108.51012531800006, 34.735688819000075], [108.50502177200008, 34.67288435800003], [108.57969669400006, 34.66255440700007], [108.57982891700004, 34.62221190500003], [108.67866655100005, 34.540383415000065], [108.69185257600009, 34.45075097800003], [108.52102959700005, 34.43515675300006], [108.33179865200009, 34.33109015700006], [108.32763440900004, 34.23989577800006], [108.21836012100005, 34.18358746900003], [108.04803201600004, 34.252171746000045], [107.99476710100004, 34.21651930100006], [108.01352243800005, 34.13930340400003], [107.91831869900005, 33.977535268000054], [107.81207542200008, 33.97173430300006], [107.70952977500008, 33.913068321000026], [107.70139176900005, 33.83837377400005], [107.65278528700009, 33.77273921500006], [107.67622910200004, 33.715809816000046], [107.43641511700008, 33.64272331600006], [107.26690445200006, 33.70605927500003], [107.32052443700007, 33.798501299000066], [107.18473745400007, 33.76709896400007], [107.05186638900005, 33.85204000700003], [106.98573986500008, 33.80043188500008], [106.88272600700009, 33.858040112000026], [106.79860378000006, 33.81278690500005], [106.76105552100006, 33.66788183600005], [106.71668682000006, 33.68673684700008], [106.56714509900007, 33.57783707500005], [106.54182169300009, 33.51705092900005], [106.44227267200006, 33.54017952800007], [106.40603143900006, 33.615426471000035], [106.16284149400008, 33.54867047700003], [106.13340949800005, 33.59123336300007], [106.04033054100006, 33.61312583000006], [105.88920492900007, 33.52523309500003]]]}}]}